{
"type": "FeatureCollection",
"name": "cowlitz_um",
"crs": { "type": "name", "properties": { "name": "urn:ogc:def:crs:OGC:1.3:CRS84" } },
"features": [
{ "type": "Feature", "properties": { "nhdplus_comid": 24248512 }, "geometry": { "type": "LineString", "coordinates": [ [ -122.919843405, 46.310612395 ], [ -122.920194402, 46.310406394 ], [ -122.920332305, 46.309685498 ], [ -122.919759303, 46.308483496 ], [ -122.918897204, 46.3047226 ], [ -122.916921005, 46.301227696 ], [ -122.914616905, 46.298912697 ], [ -122.913922802, 46.293804795 ], [ -122.914685704, 46.290542893 ], [ -122.9145706, 46.287437998 ], [ -122.913807601, 46.285896994 ], [ -122.911847502, 46.284889996 ], [ -122.9108015, 46.283994094 ], [ -122.908673406, 46.281930096 ], [ -122.908932403, 46.281110197 ], [ -122.912747301, 46.276101194 ], [ -122.916005306, 46.273179196 ] ] } },
{ "type": "Feature", "properties": { "nhdplus_comid": 24248834 }, "geometry": { "type": "LineString", "coordinates": [ [ -122.937079705, 46.3453786 ], [ -122.936553605, 46.344458595 ], [ -122.934203506, 46.340804696 ], [ -122.933089405, 46.338622794 ], [ -122.932631306, 46.336566798 ], [ -122.931594305, 46.3348158 ], [ -122.929854207, 46.334166899 ], [ -122.929007202, 46.334407896 ], [ -122.926230207, 46.335929893 ], [ -122.923537105, 46.3363989 ], [ -122.922667101, 46.335681893 ], [ -122.922812, 46.334273897 ], [ -122.924002007, 46.331478 ], [ -122.9236819, 46.329497993 ], [ -122.922315806, 46.3264651 ], [ -122.921262704, 46.3238452 ], [ -122.919408605, 46.3190993 ], [ -122.918165505, 46.316170394 ], [ -122.9182944, 46.313759394 ], [ -122.9193094, 46.312076397 ], [ -122.919843405, 46.310612395 ] ] } },
{ "type": "Feature", "properties": { "nhdplus_comid": 24248836 }, "geometry": { "type": "LineString", "coordinates": [ [ -122.936728902, 46.352553397 ], [ -122.9377058, 46.350035496 ], [ -122.937621802, 46.348735496 ], [ -122.938254803, 46.347987495 ], [ -122.937895805, 46.347319499 ], [ -122.9374687, 46.346217595 ], [ -122.937079705, 46.3453786 ] ] } },
{ "type": "Feature", "properties": { "nhdplus_comid": 24248838 }, "geometry": { "type": "LineString", "coordinates": [ [ -122.931067802, 46.357348397 ], [ -122.932318904, 46.356467396 ], [ -122.933875903, 46.355998397 ], [ -122.935423903, 46.354659393 ], [ -122.936728902, 46.352553397 ] ] } },
{ "type": "Feature", "properties": { "nhdplus_comid": 24248840 }, "geometry": { "type": "LineString", "coordinates": [ [ -122.934829205, 46.368129194 ], [ -122.935058206, 46.366454199 ], [ -122.932968006, 46.361300297 ], [ -122.931235902, 46.358382396 ], [ -122.931067802, 46.357348397 ] ] } },
{ "type": "Feature", "properties": { "nhdplus_comid": 24248842 }, "geometry": { "type": "LineString", "coordinates": [ [ -122.9271321, 46.4103074 ], [ -122.928376101, 46.410211399 ], [ -122.929955207, 46.409826398 ], [ -122.931039207, 46.408697397 ], [ -122.932694204, 46.407263398 ], [ -122.933930203, 46.4055124 ], [ -122.933526002, 46.400659494 ], [ -122.933518, 46.398306593 ], [ -122.932510905, 46.395944595 ], [ -122.931648806, 46.393743694 ], [ -122.9315648, 46.391657695 ], [ -122.931259707, 46.389765799 ], [ -122.932060704, 46.388479799 ], [ -122.932472706, 46.387140796 ], [ -122.932388507, 46.382700898 ], [ -122.931892507, 46.381170899 ], [ -122.931968503, 46.380117998 ], [ -122.932510406, 46.378767997 ], [ -122.9320684, 46.377584994 ], [ -122.931045406, 46.376704 ], [ -122.930809304, 46.374457099 ], [ -122.931274302, 46.373462096 ], [ -122.932876207, 46.370894097 ], [ -122.934829205, 46.368129194 ] ] } },
{ "type": "Feature", "properties": { "nhdplus_comid": 24248844 }, "geometry": { "type": "LineString", "coordinates": [ [ -122.916343607, 46.402857699 ], [ -122.918556705, 46.403295599 ], [ -122.919746704, 46.4036396 ], [ -122.924499907, 46.405714497 ], [ -122.925805002, 46.406748496 ], [ -122.9271321, 46.4103074 ] ] } },
{ "type": "Feature", "properties": { "nhdplus_comid": 24248846 }, "geometry": { "type": "LineString", "coordinates": [ [ -122.867072806, 46.429128595 ], [ -122.868903801, 46.428724594 ], [ -122.869910903, 46.428735599 ], [ -122.870909907, 46.429445498 ], [ -122.872291006, 46.430208497 ], [ -122.873039, 46.430937499 ], [ -122.875175104, 46.432428397 ], [ -122.877639204, 46.433637396 ], [ -122.880150303, 46.432745397 ], [ -122.880966306, 46.431551397 ], [ -122.8808292, 46.430689394 ], [ -122.880150206, 46.4296095 ], [ -122.880233206, 46.428556494 ], [ -122.881408207, 46.427244499 ], [ -122.881202102, 46.425169498 ], [ -122.879997, 46.423170596 ], [ -122.878364004, 46.421636596 ], [ -122.877768904, 46.420290694 ], [ -122.877905905, 46.419580698 ], [ -122.879988901, 46.418375693 ], [ -122.881148905, 46.416979693 ], [ -122.882545002, 46.416261695 ], [ -122.889030106, 46.414980695 ], [ -122.891189203, 46.414289698 ], [ -122.893707201, 46.413488694 ], [ -122.901146404, 46.411871597 ], [ -122.903328404, 46.411352597 ], [ -122.904678501, 46.410291597 ], [ -122.904838406, 46.409754597 ], [ -122.906311505, 46.4086826 ], [ -122.910209507, 46.405508697 ], [ -122.910873502, 46.4049327 ], [ -122.9141846, 46.403543696 ], [ -122.916343607, 46.402857699 ] ] } },
{ "type": "Feature", "properties": { "nhdplus_comid": 24248896 }, "geometry": { "type": "LineString", "coordinates": [ [ -122.844069302, 46.439951494 ], [ -122.844435304, 46.436697595 ], [ -122.846266203, 46.433157697 ], [ -122.847350307, 46.432028696 ], [ -122.8496233, 46.431246698 ], [ -122.851660304, 46.429781698 ], [ -122.8526453, 46.428835697 ], [ -122.854445405, 46.428262696 ], [ -122.856215402, 46.428301699 ], [ -122.858573504, 46.428819694 ], [ -122.861060604, 46.430197597 ], [ -122.862265706, 46.430628598 ], [ -122.864035703, 46.430666596 ], [ -122.866309807, 46.429884598 ], [ -122.867072806, 46.429128595 ] ] } },
{ "type": "Feature", "properties": { "nhdplus_comid": 24248898 }, "geometry": { "type": "LineString", "coordinates": [ [ -122.8438484, 46.441709496 ], [ -122.844069302, 46.439951494 ] ] } },
{ "type": "Feature", "properties": { "nhdplus_comid": 24248900 }, "geometry": { "type": "LineString", "coordinates": [ [ -122.818601802, 46.453569494 ], [ -122.819120802, 46.453619495 ], [ -122.820600905, 46.453417495 ], [ -122.823675901, 46.452139497 ], [ -122.826918006, 46.451105498 ], [ -122.831084102, 46.449484497 ], [ -122.835486203, 46.448625393 ], [ -122.838179305, 46.447286397 ], [ -122.841406301, 46.444597498 ], [ -122.8438484, 46.441709496 ] ] } },
{ "type": "Feature", "properties": { "nhdplus_comid": 24248902 }, "geometry": { "type": "LineString", "coordinates": [ [ -122.796094306, 46.464433394 ], [ -122.798063405, 46.464109398 ], [ -122.799863406, 46.463537395 ], [ -122.801252402, 46.462732397 ], [ -122.802587502, 46.461584397 ], [ -122.8045405, 46.459608495 ], [ -122.8065705, 46.458059497 ], [ -122.808027506, 46.456903495 ], [ -122.810194604, 46.4546455 ], [ -122.811399601, 46.454294495 ], [ -122.814527705, 46.454141498 ], [ -122.818601802, 46.453569494 ] ] } },
{ "type": "Feature", "properties": { "nhdplus_comid": 24248904 }, "geometry": { "type": "LineString", "coordinates": [ [ -122.790052101, 46.463758498 ], [ -122.792020202, 46.464216493 ], [ -122.796094306, 46.464433394 ] ] } },
{ "type": "Feature", "properties": { "nhdplus_comid": 24248906 }, "geometry": { "type": "LineString", "coordinates": [ [ -122.780224703, 46.459097698 ], [ -122.782452807, 46.458841696 ], [ -122.7855739, 46.459390596 ], [ -122.787053905, 46.459974594 ], [ -122.788076006, 46.460855596 ], [ -122.789220102, 46.463297494 ], [ -122.790052101, 46.463758498 ] ] } },
{ "type": "Feature", "properties": { "nhdplus_comid": 24248908 }, "geometry": { "type": "LineString", "coordinates": [ [ -122.769619405, 46.459116794 ], [ -122.770718403, 46.459642693 ], [ -122.774403505, 46.459799699 ], [ -122.778256603, 46.458635695 ], [ -122.779141702, 46.458654694 ], [ -122.780224703, 46.459097698 ] ] } },
{ "type": "Feature", "properties": { "nhdplus_comid": 24248910 }, "geometry": { "type": "LineString", "coordinates": [ [ -122.7614941, 46.457201898 ], [ -122.763905101, 46.456495896 ], [ -122.7656902, 46.456625797 ], [ -122.767544307, 46.457178794 ], [ -122.768422306, 46.457899794 ], [ -122.769619405, 46.459116794 ] ] } },
{ "type": "Feature", "properties": { "nhdplus_comid": 24248912 }, "geometry": { "type": "LineString", "coordinates": [ [ -122.749851801, 46.461828798 ], [ -122.751819804, 46.461504795 ], [ -122.753864907, 46.460829794 ], [ -122.758854002, 46.458097897 ], [ -122.7614941, 46.457201898 ] ] } },
{ "type": "Feature", "properties": { "nhdplus_comid": 24248914 }, "geometry": { "type": "LineString", "coordinates": [ [ -122.744541802, 46.467371695 ], [ -122.745044805, 46.467333697 ], [ -122.748859905, 46.465914696 ], [ -122.749637902, 46.464460798 ], [ -122.749851801, 46.461828798 ] ] } },
{ "type": "Feature", "properties": { "nhdplus_comid": 24248916 }, "geometry": { "type": "LineString", "coordinates": [ [ -122.741894104, 46.483347297 ], [ -122.742466107, 46.482954293 ], [ -122.742650107, 46.4817224 ], [ -122.741597004, 46.479883395 ], [ -122.740658, 46.478731394 ], [ -122.739513904, 46.477861397 ], [ -122.7369119, 46.475790493 ], [ -122.735546805, 46.473539494 ], [ -122.734996803, 46.471662596 ], [ -122.735332802, 46.469808593 ], [ -122.737018704, 46.467676699 ], [ -122.738513701, 46.466779694 ], [ -122.740138806, 46.466657698 ], [ -122.744541802, 46.467371695 ] ] } },
{ "type": "Feature", "properties": { "nhdplus_comid": 24248918 }, "geometry": { "type": "LineString", "coordinates": [ [ -122.711719707, 46.486265197 ], [ -122.712535702, 46.486166194 ], [ -122.716510803, 46.4865622 ], [ -122.719997801, 46.486215197 ], [ -122.725460902, 46.484846294 ], [ -122.729648903, 46.483396299 ], [ -122.732036904, 46.483305298 ], [ -122.733243003, 46.4829503 ], [ -122.737416007, 46.482984297 ], [ -122.740788102, 46.483518295 ], [ -122.741894104, 46.483347297 ] ] } },
{ "type": "Feature", "properties": { "nhdplus_comid": 24248920 }, "geometry": { "type": "LineString", "coordinates": [ [ -122.706661701, 46.487814195 ], [ -122.707790703, 46.4873062 ], [ -122.710704707, 46.4865622 ], [ -122.711719707, 46.486265197 ] ] } },
{ "type": "Feature", "properties": { "nhdplus_comid": 24248922 }, "geometry": { "type": "LineString", "coordinates": [ [ -122.701137707, 46.489965096 ], [ -122.701595701, 46.4899121 ], [ -122.7028547, 46.489576094 ], [ -122.704082705, 46.489137098 ], [ -122.706661701, 46.487814195 ] ] } },
{ "type": "Feature", "properties": { "nhdplus_comid": 24248924 }, "geometry": { "type": "LineString", "coordinates": [ [ -122.681545503, 46.494675994 ], [ -122.683124505, 46.494294994 ], [ -122.685871504, 46.494089 ], [ -122.6881596, 46.494179994 ], [ -122.6910896, 46.493524 ], [ -122.693599604, 46.492639095 ], [ -122.699054606, 46.490400098 ], [ -122.701137707, 46.489965096 ] ] } },
{ "type": "Feature", "properties": { "nhdplus_comid": 24248926 }, "geometry": { "type": "LineString", "coordinates": [ [ -122.681323804, 46.508546799 ], [ -122.6824148, 46.5066958 ], [ -122.682559803, 46.506234795 ], [ -122.682941802, 46.505200796 ], [ -122.682659701, 46.5041788 ], [ -122.681079701, 46.502988897 ], [ -122.678211607, 46.501633897 ], [ -122.677661501, 46.500542894 ], [ -122.677768506, 46.499573894 ], [ -122.6784705, 46.497605994 ], [ -122.6795085, 46.496220998 ], [ -122.681545503, 46.494675994 ] ] } },
{ "type": "Feature", "properties": { "nhdplus_comid": 24248928 }, "geometry": { "type": "LineString", "coordinates": [ [ -122.659450203, 46.497014999 ], [ -122.659557201, 46.497014999 ], [ -122.664272301, 46.498929895 ], [ -122.670474507, 46.502213895 ], [ -122.672710605, 46.504399799 ], [ -122.675044701, 46.507188797 ], [ -122.677257806, 46.509198695 ], [ -122.678668804, 46.509354696 ], [ -122.679958805, 46.509141698 ], [ -122.681323804, 46.508546799 ] ] } },
{ "type": "Feature", "properties": { "nhdplus_comid": 24248930 }, "geometry": { "type": "LineString", "coordinates": [ [ -122.651409104, 46.495003998 ], [ -122.652790107, 46.495774999 ], [ -122.654125206, 46.496197999 ], [ -122.6582902, 46.497021995 ], [ -122.659450203, 46.497014999 ] ] } },
{ "type": "Feature", "properties": { "nhdplus_comid": 24248932 }, "geometry": { "type": "LineString", "coordinates": [ [ -122.649158105, 46.495175995 ], [ -122.651409104, 46.495007999 ], [ -122.651409104, 46.495003998 ] ] } },
{ "type": "Feature", "properties": { "nhdplus_comid": 24248934 }, "geometry": { "type": "LineString", "coordinates": [ [ -122.643596202, 46.505612798 ], [ -122.6441532, 46.504349798 ], [ -122.645946205, 46.501252897 ], [ -122.646259107, 46.500008896 ], [ -122.645168103, 46.498696893 ], [ -122.644535102, 46.497872896 ], [ -122.644496001, 46.496831894 ], [ -122.645496003, 46.495969996 ], [ -122.647190005, 46.495496996 ], [ -122.649158105, 46.495175995 ] ] } },
{ "type": "Feature", "properties": { "nhdplus_comid": 24248936 }, "geometry": { "type": "LineString", "coordinates": [ [ -122.641300507, 46.515523598 ], [ -122.643260501, 46.514786594 ], [ -122.644016504, 46.513947599 ], [ -122.644245401, 46.509747699 ], [ -122.643596202, 46.505612798 ] ] } },
{ "type": "Feature", "properties": { "nhdplus_comid": 24248938 }, "geometry": { "type": "LineString", "coordinates": [ [ -122.640216507, 46.516015597 ], [ -122.641231507, 46.515546598 ], [ -122.641300507, 46.515523598 ] ] } },
{ "type": "Feature", "properties": { "nhdplus_comid": 24248940 }, "geometry": { "type": "LineString", "coordinates": [ [ -122.638629504, 46.516225599 ], [ -122.639293507, 46.5162936 ], [ -122.639888503, 46.516221598 ], [ -122.640216507, 46.516015597 ] ] } },
{ "type": "Feature", "properties": { "nhdplus_comid": 24248942 }, "geometry": { "type": "LineString", "coordinates": [ [ -122.638042502, 46.515904598 ], [ -122.638629504, 46.516225599 ] ] } },
{ "type": "Feature", "properties": { "nhdplus_comid": 24248944 }, "geometry": { "type": "LineString", "coordinates": [ [ -122.6364474, 46.514409594 ], [ -122.637821503, 46.515538596 ], [ -122.6380345, 46.515893593 ], [ -122.638042502, 46.515904598 ] ] } },
{ "type": "Feature", "properties": { "nhdplus_comid": 24248946 }, "geometry": { "type": "LineString", "coordinates": [ [ -122.598612607, 46.504323795 ], [ -122.600710705, 46.505223796 ], [ -122.601984702, 46.506085798 ], [ -122.603327706, 46.506596796 ], [ -122.606013805, 46.506833799 ], [ -122.606600806, 46.506528795 ], [ -122.6077528, 46.506619796 ], [ -122.609934904, 46.507676698 ], [ -122.612582907, 46.508439697 ], [ -122.614017002, 46.509553693 ], [ -122.61507, 46.509824693 ], [ -122.616352007, 46.509904698 ], [ -122.618404001, 46.509312697 ], [ -122.620143004, 46.508313693 ], [ -122.622447006, 46.507706799 ], [ -122.625469103, 46.507657796 ], [ -122.627941102, 46.5080847 ], [ -122.630779207, 46.509267695 ], [ -122.633098304, 46.511185698 ], [ -122.634342305, 46.512662694 ], [ -122.6364474, 46.514409594 ] ] } },
{ "type": "Feature", "properties": { "nhdplus_comid": 24248948 }, "geometry": { "type": "LineString", "coordinates": [ [ -122.588320501, 46.503178798 ], [ -122.589480504, 46.502946794 ], [ -122.590937503, 46.502953798 ], [ -122.591860503, 46.502721794 ], [ -122.593119502, 46.502907798 ], [ -122.594111502, 46.503182799 ], [ -122.5951415, 46.503068797 ], [ -122.595866606, 46.503087796 ], [ -122.596362606, 46.503251798 ], [ -122.597292602, 46.5039308 ], [ -122.597956605, 46.504254796 ], [ -122.598612607, 46.504323795 ] ] } },
{ "type": "Feature", "properties": { "nhdplus_comid": 24248950 }, "geometry": { "type": "LineString", "coordinates": [ [ -122.579516403, 46.505398795 ], [ -122.588320501, 46.503178798 ] ] } },
{ "type": "Feature", "properties": { "nhdplus_comid": 24248952 }, "geometry": { "type": "LineString", "coordinates": [ [ -122.574633405, 46.508111693 ], [ -122.579516403, 46.505398795 ] ] } },
{ "type": "Feature", "properties": { "nhdplus_comid": 24248954 }, "geometry": { "type": "LineString", "coordinates": [ [ -122.547503904, 46.5417412 ], [ -122.558238007, 46.540078193 ], [ -122.561351001, 46.537324198 ], [ -122.564028703, 46.523617499 ], [ -122.5659815, 46.515023597 ], [ -122.574633405, 46.508111693 ] ] } },
{ "type": "Feature", "properties": { "nhdplus_comid": 24248956 }, "geometry": { "type": "LineString", "coordinates": [ [ -122.535090804, 46.545655094 ], [ -122.547503904, 46.5417412 ] ] } },
{ "type": "Feature", "properties": { "nhdplus_comid": 24248958 }, "geometry": { "type": "LineString", "coordinates": [ [ -122.468667001, 46.540967494 ], [ -122.470964104, 46.542706497 ], [ -122.4717502, 46.544316396 ], [ -122.473878302, 46.545922399 ], [ -122.477060504, 46.548287295 ], [ -122.478265606, 46.550885297 ], [ -122.480623707, 46.552197196 ], [ -122.485643901, 46.552987196 ], [ -122.488009006, 46.5521212 ], [ -122.491549, 46.549824193 ], [ -122.495600201, 46.549897097 ], [ -122.501223505, 46.553535998 ], [ -122.502734505, 46.554454997 ], [ -122.5086696, 46.555751994 ], [ -122.513773702, 46.554405995 ], [ -122.519251704, 46.550670996 ], [ -122.524935603, 46.5439502 ], [ -122.529429704, 46.543435194 ], [ -122.535090804, 46.545655094 ] ] } },
{ "type": "Feature", "properties": { "nhdplus_comid": 24248988 }, "geometry": { "type": "LineString", "coordinates": [ [ -122.424842305, 46.534681 ], [ -122.425742306, 46.534730993 ], [ -122.4290464, 46.535069898 ], [ -122.429847501, 46.535252899 ], [ -122.430213504, 46.5354819 ], [ -122.430473506, 46.535851896 ], [ -122.431632601, 46.536515899 ], [ -122.433654703, 46.537495896 ], [ -122.436996803, 46.538979799 ], [ -122.438255906, 46.5393878 ], [ -122.442566104, 46.540196694 ], [ -122.446709201, 46.540692694 ], [ -122.449326307, 46.540578693 ], [ -122.450447306, 46.540394694 ], [ -122.451874405, 46.5400327 ], [ -122.452866405, 46.539551698 ], [ -122.4536594, 46.539025694 ], [ -122.453698404, 46.538563699 ], [ -122.4533014, 46.538201697 ], [ -122.452271305, 46.5376487 ], [ -122.451775305, 46.5369737 ], [ -122.451737307, 46.536351696 ], [ -122.452370301, 46.535409696 ], [ -122.4531333, 46.534936696 ], [ -122.454392307, 46.534634694 ], [ -122.455284402, 46.534642696 ], [ -122.456772402, 46.534951694 ], [ -122.461510606, 46.536145598 ], [ -122.462372705, 46.536439598 ], [ -122.463997804, 46.537560597 ], [ -122.465851903, 46.539136596 ], [ -122.466248907, 46.539315499 ], [ -122.467179902, 46.540093496 ], [ -122.468271002, 46.540669493 ], [ -122.468667001, 46.540967494 ] ] } },
{ "type": "Feature", "properties": { "nhdplus_comid": 24248994 }, "geometry": { "type": "LineString", "coordinates": [ [ -122.379666105, 46.516428694 ], [ -122.424842305, 46.534681 ] ] } },
{ "type": "Feature", "properties": { "nhdplus_comid": 24248996 }, "geometry": { "type": "LineString", "coordinates": [ [ -122.335215904, 46.493956298 ], [ -122.341205202, 46.499842197 ], [ -122.363171503, 46.516378798 ], [ -122.376218006, 46.516416699 ], [ -122.379666105, 46.516428694 ] ] } },
{ "type": "Feature", "properties": { "nhdplus_comid": 24248998 }, "geometry": { "type": "LineString", "coordinates": [ [ -122.297250301, 46.479071595 ], [ -122.335215904, 46.493956298 ] ] } },
{ "type": "Feature", "properties": { "nhdplus_comid": 24249000 }, "geometry": { "type": "LineString", "coordinates": [ [ -122.268120103, 46.467433795 ], [ -122.297250301, 46.479071595 ] ] } },
{ "type": "Feature", "properties": { "nhdplus_comid": 24249002 }, "geometry": { "type": "LineString", "coordinates": [ [ -122.2479394, 46.466185994 ], [ -122.268120103, 46.467433795 ] ] } },
{ "type": "Feature", "properties": { "nhdplus_comid": 24249004 }, "geometry": { "type": "LineString", "coordinates": [ [ -122.210462302, 46.479050197 ], [ -122.2479394, 46.466185994 ] ] } },
{ "type": "Feature", "properties": { "nhdplus_comid": 24249006 }, "geometry": { "type": "LineString", "coordinates": [ [ -122.201315001, 46.482181296 ], [ -122.210462302, 46.479050197 ] ] } },
{ "type": "Feature", "properties": { "nhdplus_comid": 24248990 }, "geometry": { "type": "LineString", "coordinates": [ [ -122.178059101, 46.471966393 ], [ -122.172681004, 46.476311393 ], [ -122.177861206, 46.479900397 ], [ -122.201315001, 46.482181296 ] ] } },
{ "type": "Feature", "properties": { "nhdplus_comid": 24248992 }, "geometry": { "type": "LineString", "coordinates": [ [ -122.162975505, 46.462555498 ], [ -122.166446701, 46.464256495 ], [ -122.178059101, 46.471966393 ] ] } },
{ "type": "Feature", "properties": { "nhdplus_comid": 24249008 }, "geometry": { "type": "LineString", "coordinates": [ [ -122.154468201, 46.460377596 ], [ -122.156620301, 46.460407495 ], [ -122.161617503, 46.461540498 ], [ -122.162975505, 46.462555498 ] ] } },
{ "type": "Feature", "properties": { "nhdplus_comid": 24249010 }, "geometry": { "type": "LineString", "coordinates": [ [ -122.128413402, 46.462944694 ], [ -122.1347306, 46.460277699 ], [ -122.139651701, 46.459099598 ], [ -122.141604804, 46.458683595 ], [ -122.143328905, 46.4585656 ], [ -122.145953901, 46.459026597 ], [ -122.147297002, 46.459953599 ], [ -122.148105003, 46.459987596 ], [ -122.149578102, 46.4609036 ], [ -122.150806107, 46.461002596 ], [ -122.153805204, 46.460422598 ], [ -122.154468201, 46.460377596 ] ] } },
{ "type": "Feature", "properties": { "nhdplus_comid": 24249012 }, "geometry": { "type": "LineString", "coordinates": [ [ -122.113482006, 46.466396794 ], [ -122.115283005, 46.466736794 ], [ -122.118243106, 46.465881795 ], [ -122.121577203, 46.465740696 ], [ -122.122607306, 46.465481699 ], [ -122.128413402, 46.462944694 ] ] } },
{ "type": "Feature", "properties": { "nhdplus_comid": 24249014 }, "geometry": { "type": "LineString", "coordinates": [ [ -122.098489501, 46.470444895 ], [ -122.098528504, 46.468738899 ], [ -122.100130506, 46.465015896 ], [ -122.100916505, 46.464866899 ], [ -122.102274604, 46.4658859 ], [ -122.103120603, 46.466194898 ], [ -122.104740702, 46.4662835 ], [ -122.106538706, 46.466381796 ], [ -122.106966704, 46.466350794 ], [ -122.107820801, 46.4662368 ], [ -122.108212605, 46.466232598 ], [ -122.112512901, 46.466186799 ], [ -122.112553507, 46.466195598 ], [ -122.113482006, 46.466396794 ] ] } },
{ "type": "Feature", "properties": { "nhdplus_comid": 23743586 }, "geometry": { "type": "LineString", "coordinates": [ [ -122.095979504, 46.475899898 ], [ -122.095445506, 46.474975899 ], [ -122.096407503, 46.473396897 ], [ -122.097627506, 46.472217895 ], [ -122.098489501, 46.470444895 ] ] } },
{ "type": "Feature", "properties": { "nhdplus_comid": 23744000 }, "geometry": { "type": "LineString", "coordinates": [ [ -121.983321406, 46.502282396 ], [ -121.985358402, 46.501397394 ], [ -121.987288401, 46.499616399 ], [ -121.988982402, 46.498952396 ], [ -121.990576401, 46.498979397 ], [ -121.994254507, 46.499684393 ], [ -121.996344604, 46.500367299 ], [ -122.001189806, 46.500855297 ], [ -122.008529, 46.500760294 ], [ -122.012550101, 46.499661297 ], [ -122.016387202, 46.498711199 ], [ -122.021072403, 46.4981132 ], [ -122.027595602, 46.499169193 ], [ -122.033927806, 46.499005094 ], [ -122.036178902, 46.499402098 ], [ -122.037910901, 46.500379093 ], [ -122.039345004, 46.500691094 ], [ -122.043580204, 46.501084097 ], [ -122.045449205, 46.501637094 ], [ -122.048035301, 46.501599096 ], [ -122.050232306, 46.500348099 ], [ -122.051217303, 46.498906098 ], [ -122.051888302, 46.496667095 ], [ -122.055260405, 46.494508095 ], [ -122.055588402, 46.493390098 ], [ -122.055405304, 46.489423096 ], [ -122.055840306, 46.488297097 ], [ -122.056977406, 46.486848094 ], [ -122.060128406, 46.484979093 ], [ -122.0618755, 46.484719098 ], [ -122.063317604, 46.486405 ], [ -122.065919705, 46.487869993 ], [ -122.068261802, 46.488941997 ], [ -122.070092805, 46.489227995 ], [ -122.071213804, 46.488735996 ], [ -122.071450807, 46.487621993 ], [ -122.071938805, 46.486901 ], [ -122.078493007, 46.484115995 ], [ -122.080087103, 46.484142996 ], [ -122.082491204, 46.485618897 ], [ -122.084161207, 46.486191899 ], [ -122.085542306, 46.486091897 ], [ -122.086664304, 46.485603899 ], [ -122.090356402, 46.482570894 ], [ -122.090868406, 46.481743895 ], [ -122.090532407, 46.479435898 ], [ -122.091669403, 46.479080893 ], [ -122.096910603, 46.480911896 ], [ -122.099092707, 46.481403895 ], [ -122.102792807, 46.481735796 ], [ -122.104448803, 46.480797797 ], [ -122.104662806, 46.479545794 ], [ -122.104288802, 46.478336796 ], [ -122.102434702, 46.4765478 ], [ -122.095979504, 46.475899898 ] ] } },
{ "type": "Feature", "properties": { "nhdplus_comid": 23744002 }, "geometry": { "type": "LineString", "coordinates": [ [ -121.968535505, 46.511636399 ], [ -121.968932502, 46.511498399 ], [ -121.9703665, 46.511487395 ], [ -121.973113604, 46.512570396 ], [ -121.975325704, 46.512875296 ], [ -121.977866702, 46.511514299 ], [ -121.978995703, 46.511025295 ], [ -121.982001804, 46.511231296 ], [ -121.983145803, 46.510877296 ], [ -121.983656801, 46.510293297 ], [ -121.983710706, 46.509019293 ], [ -121.983061701, 46.507596299 ], [ -121.981963605, 46.506783396 ], [ -121.980040506, 46.505879395 ], [ -121.979704402, 46.504941396 ], [ -121.979773402, 46.504525393 ], [ -121.980193406, 46.504220396 ], [ -121.983321406, 46.502282396 ] ] } },
{ "type": "Feature", "properties": { "nhdplus_comid": 23744004 }, "geometry": { "type": "LineString", "coordinates": [ [ -121.963713303, 46.511845395 ], [ -121.965338401, 46.511922397 ], [ -121.966612406, 46.512647398 ], [ -121.967040502, 46.513787396 ], [ -121.967635602, 46.514287397 ], [ -121.9685046, 46.513959393 ], [ -121.968375504, 46.512166396 ], [ -121.968535505, 46.511636399 ] ] } },
{ "type": "Feature", "properties": { "nhdplus_comid": 23744006 }, "geometry": { "type": "LineString", "coordinates": [ [ -121.964095704, 46.5181593 ], [ -121.9634085, 46.515748397 ], [ -121.961867407, 46.514142394 ], [ -121.961623304, 46.513348393 ], [ -121.962050304, 46.512689397 ], [ -121.962882303, 46.512093395 ], [ -121.963713303, 46.511845395 ] ] } },
{ "type": "Feature", "properties": { "nhdplus_comid": 23744008 }, "geometry": { "type": "LineString", "coordinates": [ [ -121.958213203, 46.531911194 ], [ -121.959861204, 46.531934194 ], [ -121.963005401, 46.532891199 ], [ -121.964035407, 46.532819197 ], [ -121.964881405, 46.532311194 ], [ -121.965530403, 46.531365193 ], [ -121.965919301, 46.5304382 ], [ -121.967498302, 46.528710194 ], [ -121.967353202, 46.527726196 ], [ -121.966323204, 46.526898198 ], [ -121.963867001, 46.525266297 ], [ -121.962767906, 46.524892293 ], [ -121.959570907, 46.525380298 ], [ -121.958266802, 46.525380298 ], [ -121.958045803, 46.524762295 ], [ -121.9588238, 46.523808293 ], [ -121.960501805, 46.523694299 ], [ -121.961432904, 46.523812294 ], [ -121.961882904, 46.523572296 ], [ -121.964072905, 46.5221873 ], [ -121.965376906, 46.5221873 ], [ -121.967529006, 46.523484297 ], [ -121.968200006, 46.523618296 ], [ -121.969223104, 46.523457296 ], [ -121.970031105, 46.522771299 ], [ -121.970398001, 46.521665297 ], [ -121.970039003, 46.5209703 ], [ -121.969206907, 46.520665295 ], [ -121.966971904, 46.520547293 ], [ -121.966147803, 46.520245299 ], [ -121.964697704, 46.519265294 ], [ -121.964232706, 46.518754296 ], [ -121.964095704, 46.5181593 ] ] } },
{ "type": "Feature", "properties": { "nhdplus_comid": 23744010 }, "geometry": { "type": "LineString", "coordinates": [ [ -121.954452105, 46.533959195 ], [ -121.955566101, 46.532948196 ], [ -121.957130104, 46.532033198 ], [ -121.958213203, 46.531911194 ] ] } },
{ "type": "Feature", "properties": { "nhdplus_comid": 23744012 }, "geometry": { "type": "LineString", "coordinates": [ [ -121.917951703, 46.526429497 ], [ -121.917936705, 46.525613494 ], [ -121.918317601, 46.524594493 ], [ -121.919347607, 46.523625597 ], [ -121.920438603, 46.523011595 ], [ -121.921819605, 46.522645496 ], [ -121.9228957, 46.522843495 ], [ -121.9238647, 46.523225494 ], [ -121.9244828, 46.523904495 ], [ -121.927587904, 46.525494494 ], [ -121.929373004, 46.526093498 ], [ -121.931921102, 46.526460394 ], [ -121.935088202, 46.525884397 ], [ -121.936331205, 46.5254374 ], [ -121.939230204, 46.523797393 ], [ -121.940367207, 46.523541398 ], [ -121.942374304, 46.523854397 ], [ -121.943770401, 46.524480395 ], [ -121.945860505, 46.526318394 ], [ -121.947478704, 46.528458297 ], [ -121.9481427, 46.529492296 ], [ -121.948302805, 46.530564293 ], [ -121.946967803, 46.532185294 ], [ -121.946768805, 46.532651298 ], [ -121.947234906, 46.533158295 ], [ -121.948233902, 46.533723295 ], [ -121.950973004, 46.533715196 ], [ -121.952873103, 46.534215197 ], [ -121.954452105, 46.533959195 ] ] } },
{ "type": "Feature", "properties": { "nhdplus_comid": 23744014 }, "geometry": { "type": "LineString", "coordinates": [ [ -121.9103835, 46.527772598 ], [ -121.911832601, 46.527783498 ], [ -121.912748605, 46.527676493 ], [ -121.914701603, 46.5276355 ], [ -121.917097703, 46.527020499 ], [ -121.917615704, 46.526788495 ], [ -121.917951703, 46.526429497 ] ] } },
{ "type": "Feature", "properties": { "nhdplus_comid": 23744016 }, "geometry": { "type": "LineString", "coordinates": [ [ -121.884068906, 46.531243697 ], [ -121.885449901, 46.530431695 ], [ -121.887539901, 46.529481694 ], [ -121.889080904, 46.528386697 ], [ -121.889714904, 46.527352698 ], [ -121.888913803, 46.526326694 ], [ -121.8873647, 46.525529698 ], [ -121.884571604, 46.525178693 ], [ -121.883473605, 46.524804793 ], [ -121.883152604, 46.5243738 ], [ -121.883358605, 46.523999795 ], [ -121.8842666, 46.523938797 ], [ -121.885594606, 46.524117798 ], [ -121.888050705, 46.523950696 ], [ -121.890004702, 46.523908697 ], [ -121.894116901, 46.525250696 ], [ -121.895566002, 46.525334693 ], [ -121.898267001, 46.5241597 ], [ -121.899679005, 46.523972698 ], [ -121.900846101, 46.524793595 ], [ -121.901220202, 46.525578596 ], [ -121.901288204, 46.527017593 ], [ -121.901212305, 46.528283596 ], [ -121.901792303, 46.528691597 ], [ -121.902837306, 46.528710596 ], [ -121.903402306, 46.528123595 ], [ -121.903715201, 46.525678597 ], [ -121.903768204, 46.524979599 ], [ -121.904088207, 46.524445593 ], [ -121.906110205, 46.524167597 ], [ -121.907300301, 46.524228595 ], [ -121.909063406, 46.525224596 ], [ -121.909513503, 46.526997596 ], [ -121.9103835, 46.527772598 ] ] } },
{ "type": "Feature", "properties": { "nhdplus_comid": 23744018 }, "geometry": { "type": "LineString", "coordinates": [ [ -121.866673104, 46.524228893 ], [ -121.867955104, 46.524953797 ], [ -121.868390203, 46.526185796 ], [ -121.868794203, 46.526841797 ], [ -121.869297303, 46.527024798 ], [ -121.872799404, 46.526879795 ], [ -121.874760501, 46.527825795 ], [ -121.876027502, 46.528458796 ], [ -121.878468603, 46.529103696 ], [ -121.881039806, 46.530640699 ], [ -121.882550806, 46.531171694 ], [ -121.884068906, 46.531243697 ] ] } },
{ "type": "Feature", "properties": { "nhdplus_comid": 23744020 }, "geometry": { "type": "LineString", "coordinates": [ [ -121.8413966, 46.531567894 ], [ -121.843173705, 46.532193899 ], [ -121.845676705, 46.532315895 ], [ -121.847408801, 46.531117894 ], [ -121.847659707, 46.530110896 ], [ -121.8467976, 46.527734898 ], [ -121.8472936, 46.526620895 ], [ -121.848941602, 46.526238896 ], [ -121.850192703, 46.526784897 ], [ -121.850910805, 46.528176896 ], [ -121.851085804, 46.529427893 ], [ -121.8516808, 46.529927894 ], [ -121.853107907, 46.5298329 ], [ -121.854549907, 46.528024897 ], [ -121.855998904, 46.527203895 ], [ -121.858714901, 46.527020894 ], [ -121.860463001, 46.527352899 ], [ -121.860989004, 46.527406894 ], [ -121.862034105, 46.5274259 ], [ -121.862622105, 46.526936896 ], [ -121.862431005, 46.5246979 ], [ -121.863018006, 46.524209894 ], [ -121.864956006, 46.523839898 ], [ -121.866673104, 46.524228893 ] ] } },
{ "type": "Feature", "properties": { "nhdplus_comid": 23744022 }, "geometry": { "type": "LineString", "coordinates": [ [ -121.841174603, 46.531335898 ], [ -121.8413966, 46.531567894 ] ] } },
{ "type": "Feature", "properties": { "nhdplus_comid": 23744024 }, "geometry": { "type": "LineString", "coordinates": [ [ -121.838443406, 46.528123997 ], [ -121.838832401, 46.528634995 ], [ -121.839656502, 46.52984 ], [ -121.841174603, 46.531335898 ] ] } },
{ "type": "Feature", "properties": { "nhdplus_comid": 23744026 }, "geometry": { "type": "LineString", "coordinates": [ [ -121.837344304, 46.526662998 ], [ -121.838443406, 46.528123997 ] ] } },
{ "type": "Feature", "properties": { "nhdplus_comid": 23744028 }, "geometry": { "type": "LineString", "coordinates": [ [ -121.825686902, 46.525938094 ], [ -121.827777006, 46.5262281 ], [ -121.829234004, 46.525408097 ], [ -121.830623001, 46.524145097 ], [ -121.831966005, 46.523512095 ], [ -121.833438106, 46.523775093 ], [ -121.835864201, 46.525231995 ], [ -121.837344304, 46.526662998 ] ] } },
{ "type": "Feature", "properties": { "nhdplus_comid": 23744030 }, "geometry": { "type": "LineString", "coordinates": [ [ -121.820658602, 46.520639196 ], [ -121.821886703, 46.521490194 ], [ -121.824526802, 46.523130096 ], [ -121.825327903, 46.524591096 ], [ -121.825686902, 46.525938094 ] ] } },
{ "type": "Feature", "properties": { "nhdplus_comid": 23744032 }, "geometry": { "type": "LineString", "coordinates": [ [ -121.811610304, 46.518789299 ], [ -121.811976306, 46.518824294 ], [ -121.817354403, 46.519003198 ], [ -121.820299603, 46.520426199 ], [ -121.820658602, 46.520639196 ] ] } },
{ "type": "Feature", "properties": { "nhdplus_comid": 23744034 }, "geometry": { "type": "LineString", "coordinates": [ [ -121.810175203, 46.518969297 ], [ -121.810908206, 46.518824294 ], [ -121.811610304, 46.518789299 ] ] } },
{ "type": "Feature", "properties": { "nhdplus_comid": 23744036 }, "geometry": { "type": "LineString", "coordinates": [ [ -121.788378201, 46.537397198 ], [ -121.789637201, 46.537256099 ], [ -121.793032207, 46.535406195 ], [ -121.794161201, 46.534159198 ], [ -121.794878207, 46.533663198 ], [ -121.795695201, 46.532076195 ], [ -121.7964122, 46.531576194 ], [ -121.797015205, 46.531267196 ], [ -121.801142305, 46.528109193 ], [ -121.803362302, 46.526247196 ], [ -121.8078942, 46.520060293 ], [ -121.809572205, 46.519346297 ], [ -121.810175203, 46.518969297 ] ] } },
{ "type": "Feature", "properties": { "nhdplus_comid": 23744038 }, "geometry": { "type": "LineString", "coordinates": [ [ -121.772920705, 46.538698196 ], [ -121.774431802, 46.538725197 ], [ -121.777414903, 46.539514199 ], [ -121.780062005, 46.539785199 ], [ -121.781061001, 46.539450198 ], [ -121.781458005, 46.538523197 ], [ -121.782168001, 46.538027197 ], [ -121.787707105, 46.5374742 ], [ -121.788378201, 46.537397198 ] ] } },
{ "type": "Feature", "properties": { "nhdplus_comid": 23744040 }, "geometry": { "type": "LineString", "coordinates": [ [ -121.771081902, 46.546385095 ], [ -121.771173902, 46.546236098 ], [ -121.773134902, 46.5443931 ], [ -121.7736459, 46.5433672 ], [ -121.773469806, 46.542120196 ], [ -121.772546701, 46.540201195 ], [ -121.772920705, 46.538698196 ] ] } },
{ "type": "Feature", "properties": { "nhdplus_comid": 23744042 }, "geometry": { "type": "LineString", "coordinates": [ [ -121.767640807, 46.549059093 ], [ -121.7690989, 46.548719093 ], [ -121.770433903, 46.547457099 ], [ -121.771081902, 46.546385095 ] ] } },
{ "type": "Feature", "properties": { "nhdplus_comid": 23744044 }, "geometry": { "type": "LineString", "coordinates": [ [ -121.763849705, 46.547678098 ], [ -121.764055707, 46.547613099 ], [ -121.766046807, 46.547838099 ], [ -121.766961806, 46.548769094 ], [ -121.767640807, 46.549059093 ] ] } },
{ "type": "Feature", "properties": { "nhdplus_comid": 23744046 }, "geometry": { "type": "LineString", "coordinates": [ [ -121.741960406, 46.559542194 ], [ -121.742807306, 46.555422194 ], [ -121.743722305, 46.554460198 ], [ -121.745050304, 46.554144196 ], [ -121.748338401, 46.554785199 ], [ -121.749894403, 46.554678097 ], [ -121.751275405, 46.554316096 ], [ -121.756929606, 46.551779099 ], [ -121.761308603, 46.548513196 ], [ -121.763849705, 46.547678098 ] ] } },
{ "type": "Feature", "properties": { "nhdplus_comid": 23744048 }, "geometry": { "type": "LineString", "coordinates": [ [ -121.7379544, 46.5613802 ], [ -121.739900403, 46.560747199 ], [ -121.740998402, 46.560224198 ], [ -121.741960406, 46.559542194 ] ] } },
{ "type": "Feature", "properties": { "nhdplus_comid": 23744050 }, "geometry": { "type": "LineString", "coordinates": [ [ -121.732751407, 46.563070193 ], [ -121.7379544, 46.5613802 ] ] } },
{ "type": "Feature", "properties": { "nhdplus_comid": 23744052 }, "geometry": { "type": "LineString", "coordinates": [ [ -121.7310884, 46.563608199 ], [ -121.732751407, 46.563070193 ] ] } },
{ "type": "Feature", "properties": { "nhdplus_comid": 23744054 }, "geometry": { "type": "LineString", "coordinates": [ [ -121.729135305, 46.564241193 ], [ -121.7310884, 46.563608199 ] ] } },
{ "type": "Feature", "properties": { "nhdplus_comid": 23744056 }, "geometry": { "type": "LineString", "coordinates": [ [ -121.727754302, 46.565157197 ], [ -121.728791304, 46.564459197 ], [ -121.729135305, 46.564241193 ] ] } },
{ "type": "Feature", "properties": { "nhdplus_comid": 23744058 }, "geometry": { "type": "LineString", "coordinates": [ [ -121.725618303, 46.566069297 ], [ -121.727754302, 46.565157197 ] ] } },
{ "type": "Feature", "properties": { "nhdplus_comid": 23744060 }, "geometry": { "type": "LineString", "coordinates": [ [ -121.712167203, 46.5695704 ], [ -121.713258207, 46.569273397 ], [ -121.716134205, 46.568361297 ], [ -121.7217113, 46.567091294 ], [ -121.724855304, 46.566252299 ], [ -121.725618303, 46.566069297 ] ] } },
{ "type": "Feature", "properties": { "nhdplus_comid": 23744062 }, "geometry": { "type": "LineString", "coordinates": [ [ -121.7101302, 46.570318393 ], [ -121.711000204, 46.569963396 ], [ -121.712167203, 46.5695704 ] ] } },
{ "type": "Feature", "properties": { "nhdplus_comid": 23744064 }, "geometry": { "type": "LineString", "coordinates": [ [ -121.706392206, 46.575205393 ], [ -121.706857204, 46.574274398 ], [ -121.708795205, 46.573027395 ], [ -121.708925202, 46.571901396 ], [ -121.709665202, 46.570681393 ], [ -121.7101302, 46.570318393 ] ] } },
{ "type": "Feature", "properties": { "nhdplus_comid": 23744088 }, "geometry": { "type": "LineString", "coordinates": [ [ -121.706041306, 46.575987294 ], [ -121.706231207, 46.575563394 ], [ -121.706392206, 46.575205393 ] ] } },
{ "type": "Feature", "properties": { "nhdplus_comid": 23744090 }, "geometry": { "type": "LineString", "coordinates": [ [ -121.699060507, 46.592092194 ], [ -121.698732503, 46.590673193 ], [ -121.697610401, 46.5882283 ], [ -121.697152302, 46.585916296 ], [ -121.697679304, 46.584082298 ], [ -121.698404305, 46.582682297 ], [ -121.699785307, 46.581331298 ], [ -121.704858303, 46.578382298 ], [ -121.706033304, 46.576506294 ], [ -121.706041306, 46.575987294 ] ] } },
{ "type": "Feature", "properties": { "nhdplus_comid": 23744092 }, "geometry": { "type": "LineString", "coordinates": [ [ -121.694261603, 46.598097198 ], [ -121.693803504, 46.5972232 ], [ -121.694108501, 46.595934197 ], [ -121.698266506, 46.592955194 ], [ -121.699060507, 46.592092194 ] ] } },
{ "type": "Feature", "properties": { "nhdplus_comid": 23744094 }, "geometry": { "type": "LineString", "coordinates": [ [ -121.695009604, 46.600885093 ], [ -121.6954666, 46.600073099 ], [ -121.695215605, 46.599192098 ], [ -121.694261603, 46.598097198 ] ] } },
{ "type": "Feature", "properties": { "nhdplus_comid": 23744096 }, "geometry": { "type": "LineString", "coordinates": [ [ -121.6885546, 46.6043761 ], [ -121.691766605, 46.602915093 ], [ -121.694940604, 46.601007096 ], [ -121.695009604, 46.600885093 ] ] } },
{ "type": "Feature", "properties": { "nhdplus_comid": 23744098 }, "geometry": { "type": "LineString", "coordinates": [ [ -121.686464503, 46.603643194 ], [ -121.687104605, 46.603868194 ], [ -121.6885546, 46.6043761 ] ] } },
{ "type": "Feature", "properties": { "nhdplus_comid": 23744100 }, "geometry": { "type": "LineString", "coordinates": [ [ -121.656648606, 46.631605096 ], [ -121.656846605, 46.630281195 ], [ -121.656404503, 46.628584199 ], [ -121.656427503, 46.627771199 ], [ -121.656984501, 46.627104193 ], [ -121.658723503, 46.6254602 ], [ -121.6611875, 46.6241972 ], [ -121.6635985, 46.6209962 ], [ -121.667154506, 46.619322196 ], [ -121.668718502, 46.6174182 ], [ -121.6743946, 46.613981195 ], [ -121.675996602, 46.613337196 ], [ -121.678544603, 46.612806097 ], [ -121.681184605, 46.611101098 ], [ -121.682107605, 46.610231094 ], [ -121.682817601, 46.608744197 ], [ -121.682977505, 46.605223194 ], [ -121.683557503, 46.603743196 ], [ -121.684533507, 46.603228197 ], [ -121.685594507, 46.603338197 ], [ -121.686464503, 46.603643194 ] ] } },
{ "type": "Feature", "properties": { "nhdplus_comid": 23744102 }, "geometry": { "type": "LineString", "coordinates": [ [ -121.643358506, 46.637827195 ], [ -121.646295503, 46.637709193 ], [ -121.648500606, 46.6375672 ], [ -121.649377607, 46.637327097 ], [ -121.650537603, 46.636263095 ], [ -121.651963606, 46.634275198 ], [ -121.655984603, 46.632120095 ], [ -121.656648606, 46.631605096 ] ] } },
{ "type": "Feature", "properties": { "nhdplus_comid": 23744144 }, "geometry": { "type": "LineString", "coordinates": [ [ -121.638177402, 46.640074193 ], [ -121.638582401, 46.639658198 ], [ -121.641038403, 46.638506196 ], [ -121.643358506, 46.637827195 ] ] } },
{ "type": "Feature", "properties": { "nhdplus_comid": 23744146 }, "geometry": { "type": "LineString", "coordinates": [ [ -121.630113401, 46.646883197 ], [ -121.631196305, 46.644876294 ], [ -121.634576403, 46.643793195 ], [ -121.638177402, 46.640074193 ] ] } },
{ "type": "Feature", "properties": { "nhdplus_comid": 23744148 }, "geometry": { "type": "LineString", "coordinates": [ [ -121.628381304, 46.647810295 ], [ -121.630113401, 46.646883197 ] ] } },
{ "type": "Feature", "properties": { "nhdplus_comid": 23744150 }, "geometry": { "type": "LineString", "coordinates": [ [ -121.627069302, 46.6480693 ], [ -121.628206305, 46.647901297 ], [ -121.628381304, 46.647810295 ] ] } },
{ "type": "Feature", "properties": { "nhdplus_comid": 23744152 }, "geometry": { "type": "LineString", "coordinates": [ [ -121.622598305, 46.649679296 ], [ -121.6233683, 46.648848295 ], [ -121.624612302, 46.648405299 ], [ -121.627069302, 46.6480693 ] ] } },
{ "type": "Feature", "properties": { "nhdplus_comid": 23744154 }, "geometry": { "type": "LineString", "coordinates": [ [ -121.621782303, 46.6510913 ], [ -121.621827304, 46.650515296 ], [ -121.622598305, 46.649679296 ] ] } },
{ "type": "Feature", "properties": { "nhdplus_comid": 23744166 }, "geometry": { "type": "LineString", "coordinates": [ [ -121.621766306, 46.653154299 ], [ -121.621850304, 46.652098298 ], [ -121.621782303, 46.6510913 ] ] } },
{ "type": "Feature", "properties": { "nhdplus_comid": 23744168 }, "geometry": { "type": "LineString", "coordinates": [ [ -121.613977104, 46.652689397 ], [ -121.619523302, 46.654142298 ], [ -121.621751301, 46.653273299 ], [ -121.621766306, 46.653154299 ] ] } },
{ "type": "Feature", "properties": { "nhdplus_comid": 23744170 }, "geometry": { "type": "LineString", "coordinates": [ [ -121.611955106, 46.652140394 ], [ -121.613977104, 46.652689397 ] ] } },
{ "type": "Feature", "properties": { "nhdplus_comid": 23744172 }, "geometry": { "type": "LineString", "coordinates": [ [ -121.607385106, 46.655874394 ], [ -121.608476102, 46.655672394 ], [ -121.609826103, 46.655046396 ], [ -121.611070104, 46.652624398 ], [ -121.611955106, 46.652140394 ] ] } },
{ "type": "Feature", "properties": { "nhdplus_comid": 23744174 }, "geometry": { "type": "LineString", "coordinates": [ [ -121.606446005, 46.656408399 ], [ -121.607385106, 46.655874394 ] ] } },
{ "type": "Feature", "properties": { "nhdplus_comid": 23744176 }, "geometry": { "type": "LineString", "coordinates": [ [ -121.604799107, 46.661463298 ], [ -121.604043104, 46.6605554 ], [ -121.604120001, 46.659197398 ], [ -121.604730003, 46.657869399 ], [ -121.606446005, 46.656408399 ] ] } },
{ "type": "Feature", "properties": { "nhdplus_comid": 23744178 }, "geometry": { "type": "LineString", "coordinates": [ [ -121.605432101, 46.662039295 ], [ -121.605096102, 46.661879294 ], [ -121.604799107, 46.661463298 ] ] } },
{ "type": "Feature", "properties": { "nhdplus_comid": 23744180 }, "geometry": { "type": "LineString", "coordinates": [ [ -121.593278006, 46.670294397 ], [ -121.593881004, 46.669744395 ], [ -121.595437005, 46.668852396 ], [ -121.595941007, 46.668482393 ], [ -121.596139006, 46.668215394 ], [ -121.596566007, 46.666887395 ], [ -121.597131006, 46.665628396 ], [ -121.598321006, 46.664236397 ], [ -121.598886006, 46.664190397 ], [ -121.599717006, 46.664301395 ], [ -121.6015791, 46.6642593 ], [ -121.603441104, 46.663893297 ], [ -121.604562104, 46.663519293 ], [ -121.605363101, 46.663107298 ], [ -121.605493106, 46.662855297 ], [ -121.605493106, 46.662199296 ], [ -121.605432101, 46.662039295 ] ] } },
{ "type": "Feature", "properties": { "nhdplus_comid": 23744182 }, "geometry": { "type": "LineString", "coordinates": [ [ -121.591455005, 46.673956297 ], [ -121.592187002, 46.673017293 ], [ -121.592653006, 46.672304295 ], [ -121.593248002, 46.670679398 ], [ -121.593278006, 46.670294397 ] ] } },
{ "type": "Feature", "properties": { "nhdplus_comid": 23744184 }, "geometry": { "type": "LineString", "coordinates": [ [ -121.584687002, 46.677767396 ], [ -121.585122004, 46.677725397 ], [ -121.586244002, 46.676805399 ], [ -121.586580001, 46.676485397 ], [ -121.587869003, 46.675692298 ], [ -121.590097003, 46.6748183 ], [ -121.590989001, 46.674154297 ], [ -121.591455005, 46.673956297 ] ] } },
{ "type": "Feature", "properties": { "nhdplus_comid": 23744186 }, "geometry": { "type": "LineString", "coordinates": [ [ -121.584489003, 46.677908398 ], [ -121.584687002, 46.677767396 ] ] } },
{ "type": "Feature", "properties": { "nhdplus_comid": 23744214 }, "geometry": { "type": "LineString", "coordinates": [ [ -121.581407204, 46.693968199 ], [ -121.581109107, 46.693190195 ], [ -121.581109107, 46.692347199 ], [ -121.581933104, 46.690294199 ], [ -121.5818341, 46.688051194 ], [ -121.581804104, 46.687803194 ], [ -121.581300005, 46.6867503 ], [ -121.581369005, 46.685472295 ], [ -121.581468001, 46.685312293 ], [ -121.581865005, 46.681719296 ], [ -121.582032003, 46.681379296 ], [ -121.582666002, 46.680693299 ], [ -121.582963005, 46.680506296 ], [ -121.583291002, 46.680143297 ], [ -121.584352002, 46.6782934 ], [ -121.584489003, 46.677908398 ] ] } },
{ "type": "Feature", "properties": { "nhdplus_comid": 23744250 }, "geometry": { "type": "LineString", "coordinates": [ [ -121.579248406, 46.713128895 ], [ -121.578950405, 46.711980894 ], [ -121.578920402, 46.711045995 ], [ -121.579484403, 46.710134 ], [ -121.5804464, 46.709191993 ], [ -121.580575407, 46.708897993 ], [ -121.580911405, 46.706975996 ], [ -121.581643403, 46.705789998 ], [ -121.581636302, 46.704717994 ], [ -121.581338301, 46.703984998 ], [ -121.581376307, 46.703301996 ], [ -121.582902305, 46.701653995 ], [ -121.584230304, 46.701192997 ], [ -121.584626302, 46.700787999 ], [ -121.584726304, 46.700028993 ], [ -121.585222304, 46.699208997 ], [ -121.585260302, 46.698706098 ], [ -121.584657304, 46.697744094 ], [ -121.5841313, 46.696623094 ], [ -121.583932206, 46.695757098 ], [ -121.583726205, 46.695414096 ], [ -121.582605205, 46.694479093 ], [ -121.581407204, 46.693968199 ] ] } },
{ "type": "Feature", "properties": { "nhdplus_comid": 23744252 }, "geometry": { "type": "LineString", "coordinates": [ [ -121.579118401, 46.713441893 ], [ -121.579248406, 46.713128895 ] ] } },
{ "type": "Feature", "properties": { "nhdplus_comid": 23744254 }, "geometry": { "type": "LineString", "coordinates": [ [ -121.576265603, 46.727979697 ], [ -121.576463602, 46.727708794 ], [ -121.576493606, 46.7274298 ], [ -121.577157602, 46.726376794 ], [ -121.577623606, 46.724709794 ], [ -121.577661604, 46.724114798 ], [ -121.578027606, 46.723092794 ], [ -121.578058504, 46.722196795 ], [ -121.578157507, 46.721837796 ], [ -121.578920506, 46.720593795 ], [ -121.578523502, 46.718835898 ], [ -121.579149507, 46.717832893 ], [ -121.5795535, 46.717397898 ], [ -121.579782501, 46.716897897 ], [ -121.579782501, 46.716599897 ], [ -121.579416506, 46.715497896 ], [ -121.579416402, 46.714154899 ], [ -121.579118401, 46.713441893 ] ] } },
{ "type": "Feature", "properties": { "nhdplus_comid": 23744256 }, "geometry": { "type": "LineString", "coordinates": [ [ -121.570146605, 46.736573696 ], [ -121.569917604, 46.736157693 ], [ -121.569917604, 46.735665694 ], [ -121.570047602, 46.735253699 ], [ -121.571046606, 46.734147698 ], [ -121.571878605, 46.733537696 ], [ -121.573175602, 46.732942693 ], [ -121.573739603, 46.732140698 ], [ -121.575196601, 46.7309817 ], [ -121.576364607, 46.729669698 ], [ -121.576493606, 46.729005694 ], [ -121.576265603, 46.727979697 ] ] } },
{ "type": "Feature", "properties": { "nhdplus_comid": 23744258 }, "geometry": { "type": "LineString", "coordinates": [ [ -121.564431503, 46.7375848 ], [ -121.565263502, 46.737264797 ], [ -121.567025505, 46.736916699 ], [ -121.569619603, 46.736688696 ], [ -121.570146605, 46.736573696 ] ] } },
{ "type": "Feature", "properties": { "nhdplus_comid": 23744260 }, "geometry": { "type": "LineString", "coordinates": [ [ -121.562333405, 46.739682794 ], [ -121.563371502, 46.738904797 ], [ -121.564431503, 46.7375848 ] ] } },
{ "type": "Feature", "properties": { "nhdplus_comid": 23744262 }, "geometry": { "type": "LineString", "coordinates": [ [ -121.561609507, 46.744092695 ], [ -121.561967507, 46.743817694 ], [ -121.562234506, 46.743153699 ], [ -121.562341504, 46.742471695 ], [ -121.562204406, 46.740067795 ], [ -121.562333405, 46.739682794 ] ] } },
{ "type": "Feature", "properties": { "nhdplus_comid": 23744264 }, "geometry": { "type": "LineString", "coordinates": [ [ -121.559411503, 46.748303697 ], [ -121.5598085, 46.747243695 ], [ -121.560609505, 46.7463357 ], [ -121.561074503, 46.7451187 ], [ -121.561609507, 46.744092695 ] ] } },
{ "type": "Feature", "properties": { "nhdplus_comid": 23744266 }, "geometry": { "type": "LineString", "coordinates": [ [ -121.559648603, 46.753262594 ], [ -121.559541605, 46.751733594 ], [ -121.559579507, 46.750230595 ], [ -121.559480503, 46.749844596 ], [ -121.559411503, 46.748303697 ] ] } },
{ "type": "Feature", "properties": { "nhdplus_comid": 23744268 }, "geometry": { "type": "LineString", "coordinates": [ [ -121.559747703, 46.756738596 ], [ -121.560174704, 46.756554596 ], [ -121.560411707, 46.756303594 ], [ -121.560510702, 46.7558496 ], [ -121.560273707, 46.755441599 ], [ -121.5600757, 46.755303599 ], [ -121.559739605, 46.754640594 ], [ -121.559648603, 46.753262594 ] ] } },
{ "type": "Feature", "properties": { "nhdplus_comid": 23744270 }, "geometry": { "type": "LineString", "coordinates": [ [ -121.556588702, 46.760560594 ], [ -121.5566497, 46.760075599 ], [ -121.556550607, 46.759324595 ], [ -121.556184605, 46.758458599 ], [ -121.556184605, 46.7572686 ], [ -121.556451604, 46.756966598 ], [ -121.557252601, 46.756627597 ], [ -121.558213606, 46.756558597 ], [ -121.559747703, 46.756738596 ] ] } },
{ "type": "Feature", "properties": { "nhdplus_comid": 23744272 }, "geometry": { "type": "LineString", "coordinates": [ [ -121.555452801, 46.766015597 ], [ -121.5557198, 46.765515596 ], [ -121.555688702, 46.764535598 ], [ -121.5555517, 46.764352597 ], [ -121.555520706, 46.763940595 ], [ -121.556123704, 46.763730593 ], [ -121.556222707, 46.763253599 ], [ -121.556115702, 46.762704596 ], [ -121.556253701, 46.761475593 ], [ -121.5565207, 46.761060596 ], [ -121.556588702, 46.760560594 ] ] } },
{ "type": "Feature", "properties": { "nhdplus_comid": 23744274 }, "geometry": { "type": "LineString", "coordinates": [ [ -121.551324703, 46.769402593 ], [ -121.551599704, 46.768666595 ], [ -121.552095704, 46.767892599 ], [ -121.5531637, 46.767114595 ], [ -121.553758703, 46.766957596 ], [ -121.555085704, 46.766110599 ], [ -121.555452801, 46.766015597 ] ] } },
{ "type": "Feature", "properties": { "nhdplus_comid": 23744276 }, "geometry": { "type": "LineString", "coordinates": [ [ -121.550065704, 46.771661595 ], [ -121.550599702, 46.771573596 ], [ -121.551164702, 46.771119595 ], [ -121.551095702, 46.770478599 ], [ -121.5510277, 46.7697846 ], [ -121.551324703, 46.769402593 ] ] } },
{ "type": "Feature", "properties": { "nhdplus_comid": 23744278 }, "geometry": { "type": "LineString", "coordinates": [ [ -121.551759802, 46.773610599 ], [ -121.551660806, 46.773267597 ], [ -121.551263802, 46.772965595 ], [ -121.550164804, 46.772485599 ], [ -121.550065704, 46.771661595 ] ] } },
{ "type": "Feature", "properties": { "nhdplus_comid": 23744280 }, "geometry": { "type": "LineString", "coordinates": [ [ -121.555819206, 46.785767399 ], [ -121.556216203, 46.785203397 ], [ -121.556284204, 46.784764394 ], [ -121.5546211, 46.783574499 ], [ -121.554285102, 46.783021495 ], [ -121.554285102, 46.781876497 ], [ -121.554423101, 46.781377494 ], [ -121.554354005, 46.779294498 ], [ -121.553957, 46.778634496 ], [ -121.553721003, 46.777974494 ], [ -121.553522006, 46.777764499 ], [ -121.553193904, 46.776921496 ], [ -121.552362904, 46.7755256 ], [ -121.5517978, 46.774724595 ], [ -121.551759802, 46.773610599 ] ] } },
{ "type": "Feature", "properties": { "nhdplus_comid": 23744282 }, "geometry": { "type": "LineString", "coordinates": [ [ -121.555880301, 46.793424398 ], [ -121.555781305, 46.793218397 ], [ -121.555750303, 46.792828396 ], [ -121.555918306, 46.792554393 ], [ -121.557184301, 46.791615397 ], [ -121.558314301, 46.790631399 ], [ -121.5585123, 46.790219396 ], [ -121.558749303, 46.788709395 ], [ -121.558680303, 46.787915394 ], [ -121.558276303, 46.787660398 ], [ -121.557444304, 46.787595399 ], [ -121.556612201, 46.786794394 ], [ -121.556147203, 46.7859964 ], [ -121.555819206, 46.785767399 ] ] } },
{ "type": "Feature", "properties": { "nhdplus_comid": 23744284 }, "geometry": { "type": "LineString", "coordinates": [ [ -121.559878603, 46.800412297 ], [ -121.559840605, 46.799867295 ], [ -121.559374504, 46.798768297 ], [ -121.559176505, 46.798543297 ], [ -121.558977507, 46.797738299 ], [ -121.558543503, 46.797059298 ], [ -121.557513401, 46.796147294 ], [ -121.555453405, 46.794724397 ], [ -121.555117302, 46.794377394 ], [ -121.555147305, 46.794064395 ], [ -121.555781305, 46.793675393 ], [ -121.555880301, 46.793424398 ] ] } },
{ "type": "Feature", "properties": { "nhdplus_comid": 23744286 }, "geometry": { "type": "LineString", "coordinates": [ [ -121.584308505, 46.811058894 ], [ -121.583476506, 46.811317898 ], [ -121.582713507, 46.811317898 ], [ -121.582073405, 46.811039895 ], [ -121.580310404, 46.809963897 ], [ -121.578685306, 46.809368998 ], [ -121.577518307, 46.808552995 ], [ -121.575450204, 46.808006994 ], [ -121.573818102, 46.807472996 ], [ -121.572154105, 46.8067941 ], [ -121.569599003, 46.806241095 ], [ -121.568430901, 46.805715099 ], [ -121.567164905, 46.804986194 ], [ -121.566500902, 46.804738194 ], [ -121.565768801, 46.8046012 ], [ -121.564829804, 46.8045092 ], [ -121.563837804, 46.804089196 ], [ -121.563235804, 46.803983197 ], [ -121.5626017, 46.804074198 ], [ -121.561869703, 46.804074198 ], [ -121.561571702, 46.803891197 ], [ -121.561304703, 46.803365193 ], [ -121.561137706, 46.802590296 ], [ -121.560641602, 46.801171295 ], [ -121.559878603, 46.800412297 ] ] } },
{ "type": "Feature", "properties": { "nhdplus_comid": 23744288 }, "geometry": { "type": "LineString", "coordinates": [ [ -121.618908904, 46.829353198 ], [ -121.618512906, 46.829197295 ], [ -121.617909804, 46.828647293 ], [ -121.617146805, 46.828190297 ], [ -121.616047703, 46.827350296 ], [ -121.615216702, 46.827167295 ], [ -121.613087706, 46.827259295 ], [ -121.611119606, 46.826965399 ], [ -121.609684601, 46.826549396 ], [ -121.607884504, 46.825893395 ], [ -121.607586503, 46.825725399 ], [ -121.606358401, 46.825477496 ], [ -121.604061402, 46.8247035 ], [ -121.602490306, 46.823852494 ], [ -121.6013612, 46.8230865 ], [ -121.600956202, 46.822601594 ], [ -121.600262202, 46.822098598 ], [ -121.599858202, 46.821392596 ], [ -121.599293105, 46.820892595 ], [ -121.597660102, 46.820015594 ], [ -121.597226001, 46.819397599 ], [ -121.596531004, 46.818668596 ], [ -121.595562004, 46.817390695 ], [ -121.595493905, 46.817180693 ], [ -121.595165901, 46.816906698 ], [ -121.591998801, 46.814880699 ], [ -121.590465702, 46.813644797 ], [ -121.588771701, 46.812752798 ], [ -121.587573603, 46.8125498 ], [ -121.586536601, 46.811844796 ], [ -121.585140504, 46.811428897 ], [ -121.584308505, 46.811058894 ] ] } },
{ "type": "Feature", "properties": { "nhdplus_comid": 23744740 }, "geometry": { "type": "LineString", "coordinates": [ [ -121.655837007, 46.833934695 ], [ -121.655074, 46.833133698 ], [ -121.654768005, 46.832724698 ], [ -121.653272904, 46.8317867 ], [ -121.652006902, 46.831172794 ], [ -121.651372805, 46.8306228 ], [ -121.651143804, 46.830233797 ], [ -121.650945805, 46.830004796 ], [ -121.649915807, 46.829543799 ], [ -121.649679706, 46.829314798 ], [ -121.649648704, 46.829108797 ], [ -121.6491457, 46.828608796 ], [ -121.648679703, 46.828402795 ], [ -121.647947706, 46.8282158 ], [ -121.647512704, 46.828173898 ], [ -121.646520607, 46.828288898 ], [ -121.645986602, 46.827803895 ], [ -121.645582601, 46.827674896 ], [ -121.642423503, 46.827464893 ], [ -121.641622506, 46.8273049 ], [ -121.640356407, 46.826686993 ], [ -121.639356405, 46.826412 ], [ -121.636732303, 46.826407999 ], [ -121.635900304, 46.826201998 ], [ -121.635061301, 46.8258131 ], [ -121.634366207, 46.8257441 ], [ -121.633962207, 46.8258361 ], [ -121.6337642, 46.826336093 ], [ -121.633230202, 46.826729096 ], [ -121.632963203, 46.827667095 ], [ -121.632833205, 46.827850096 ], [ -121.6322302, 46.828148097 ], [ -121.631963201, 46.828514099 ], [ -121.631231204, 46.828873098 ], [ -121.630430207, 46.829376094 ], [ -121.629232205, 46.829902098 ], [ -121.628835201, 46.829876095 ], [ -121.628400207, 46.829719096 ], [ -121.627599105, 46.829197094 ], [ -121.627302103, 46.829079099 ], [ -121.626203105, 46.828258194 ], [ -121.625303, 46.827503197 ], [ -121.624906003, 46.827301197 ], [ -121.624303006, 46.827320196 ], [ -121.624006003, 46.827461198 ], [ -121.622777, 46.828346193 ], [ -121.6211069, 46.828804195 ], [ -121.6205419, 46.829193197 ], [ -121.619908907, 46.829384193 ], [ -121.618908904, 46.829353198 ] ] } }
]
}
