{
"type": "FeatureCollection",
"name": "cowlitz_dm",
"crs": { "type": "name", "properties": { "name": "urn:ogc:def:crs:OGC:1.3:CRS84" } },
"features": [
{ "type": "Feature", "properties": { "nhdplus_comid": 24248512 }, "geometry": { "type": "LineString", "coordinates": [ [ -122.919843405, 46.310612395 ], [ -122.920194402, 46.310406394 ], [ -122.920332305, 46.309685498 ], [ -122.919759303, 46.308483496 ], [ -122.918897204, 46.3047226 ], [ -122.916921005, 46.301227696 ], [ -122.914616905, 46.298912697 ], [ -122.913922802, 46.293804795 ], [ -122.914685704, 46.290542893 ], [ -122.9145706, 46.287437998 ], [ -122.913807601, 46.285896994 ], [ -122.911847502, 46.284889996 ], [ -122.9108015, 46.283994094 ], [ -122.908673406, 46.281930096 ], [ -122.908932403, 46.281110197 ], [ -122.912747301, 46.276101194 ], [ -122.916005306, 46.273179196 ] ] } },
{ "type": "Feature", "properties": { "nhdplus_comid": 24248510 }, "geometry": { "type": "LineString", "coordinates": [ [ -122.916005306, 46.273179196 ], [ -122.9190033, 46.270280294 ], [ -122.919301301, 46.268922299 ], [ -122.918782204, 46.268071294 ], [ -122.916424103, 46.266206399 ] ] } },
{ "type": "Feature", "properties": { "nhdplus_comid": 24248508 }, "geometry": { "type": "LineString", "coordinates": [ [ -122.916424103, 46.266206399 ], [ -122.913617104, 46.266335398 ], [ -122.910107002, 46.266873397 ], [ -122.907727003, 46.267232396 ], [ -122.906391904, 46.2668925 ], [ -122.904201902, 46.265283495 ], [ -122.901821807, 46.264039598 ], [ -122.900592707, 46.262799598 ], [ -122.899929702, 46.261872694 ], [ -122.897899501, 46.258023798 ], [ -122.896297403, 46.255212799 ], [ -122.894840404, 46.253865898 ], [ -122.892589301, 46.252915896 ], [ -122.890674204, 46.252175994 ], [ -122.8885682, 46.251893997 ], [ -122.887447201, 46.251267999 ] ] } },
{ "type": "Feature", "properties": { "nhdplus_comid": 24248506 }, "geometry": { "type": "LineString", "coordinates": [ [ -122.887447201, 46.251267999 ], [ -122.887104101, 46.250760995 ], [ -122.887264103, 46.2493231 ], [ -122.8885151, 46.248338997 ], [ -122.889575101, 46.246923 ], [ -122.889827102, 46.245302096 ], [ -122.889644004, 46.242556095 ], [ -122.889827006, 46.241297096 ] ] } },
{ "type": "Feature", "properties": { "nhdplus_comid": 24248504 }, "geometry": { "type": "LineString", "coordinates": [ [ -122.889827006, 46.241297096 ], [ -122.890094005, 46.2409271 ], [ -122.890521005, 46.240396097 ], [ -122.891712002, 46.2394621 ] ] } },
{ "type": "Feature", "properties": { "nhdplus_comid": 24248502 }, "geometry": { "type": "LineString", "coordinates": [ [ -122.891712002, 46.2394621 ], [ -122.893405005, 46.238798097 ], [ -122.895320006, 46.238736995 ], [ -122.899860203, 46.240613997 ], [ -122.9012262, 46.241128899 ], [ -122.902774304, 46.241189897 ], [ -122.9039343, 46.2403889 ], [ -122.905673206, 46.237672895 ], [ -122.906551205, 46.235913895 ], [ -122.906612203, 46.234761894 ], [ -122.906337202, 46.233796895 ], [ -122.905139104, 46.232732996 ], [ -122.903224103, 46.231988996 ], [ -122.901592001, 46.232201993 ], [ -122.898914002, 46.232320994 ], [ -122.897265904, 46.232447095 ], [ -122.895564906, 46.232225098 ], [ -122.894450903, 46.231687099 ], [ -122.894099802, 46.231092095 ], [ -122.894854806, 46.230230093 ], [ -122.897944905, 46.228659093 ], [ -122.900149904, 46.226442099 ], [ -122.904704906, 46.222798996 ], [ -122.906451903, 46.220883995 ], [ -122.908282906, 46.218697995 ], [ -122.913943902, 46.214787997 ], [ -122.914851904, 46.214097999 ] ] } },
{ "type": "Feature", "properties": { "nhdplus_comid": 24248500 }, "geometry": { "type": "LineString", "coordinates": [ [ -122.914851904, 46.214097999 ], [ -122.915385902, 46.211831994 ], [ -122.914164804, 46.209790997 ], [ -122.911715701, 46.207308099 ], [ -122.910868704, 46.206041098 ], [ -122.9104186, 46.204828098 ], [ -122.910723604, 46.203558095 ], [ -122.9113416, 46.201822095 ], [ -122.912775606, 46.200376093 ] ] } },
{ "type": "Feature", "properties": { "nhdplus_comid": 24248498 }, "geometry": { "type": "LineString", "coordinates": [ [ -122.912775606, 46.200376093 ], [ -122.912875503, 46.198587097 ], [ -122.9122575, 46.197771199 ], [ -122.911105506, 46.1971232 ], [ -122.908572406, 46.195719197 ] ] } },
{ "type": "Feature", "properties": { "nhdplus_comid": 24248496 }, "geometry": { "type": "LineString", "coordinates": [ [ -122.908572406, 46.195719197 ], [ -122.906626306, 46.1947992 ], [ -122.900813207, 46.193735294 ], [ -122.899119101, 46.192797296 ], [ -122.898386106, 46.1922324 ] ] } },
{ "type": "Feature", "properties": { "nhdplus_comid": 24248484 }, "geometry": { "type": "LineString", "coordinates": [ [ -122.898386106, 46.1922324 ], [ -122.897997007, 46.190573394 ], [ -122.898150004, 46.189135395 ], [ -122.898463003, 46.188665397 ], [ -122.900385, 46.185492396 ], [ -122.901010901, 46.183756396 ], [ -122.9021319, 46.180376396 ] ] } },
{ "type": "Feature", "properties": { "nhdplus_comid": 24248482 }, "geometry": { "type": "LineString", "coordinates": [ [ -122.9021319, 46.180376396 ], [ -122.902864903, 46.179342397 ], [ -122.9040929, 46.178179398 ], [ -122.905267902, 46.177553393 ], [ -122.9073129, 46.177484393 ], [ -122.908793002, 46.1771034 ], [ -122.912783004, 46.174837299 ], [ -122.913493, 46.173624299 ], [ -122.913865902, 46.169592395 ] ] } },
{ "type": "Feature", "properties": { "nhdplus_comid": 24248480 }, "geometry": { "type": "LineString", "coordinates": [ [ -122.913865902, 46.169592395 ], [ -122.914781801, 46.164896399 ], [ -122.914644703, 46.157095499 ] ] } },
{ "type": "Feature", "properties": { "nhdplus_comid": 24248478 }, "geometry": { "type": "LineString", "coordinates": [ [ -122.914644703, 46.157095499 ], [ -122.913438506, 46.150480494 ], [ -122.9137595, 46.148851499 ], [ -122.914850406, 46.1430576 ], [ -122.9152923, 46.141321599 ], [ -122.916208304, 46.139849596 ], [ -122.917520307, 46.138143599 ], [ -122.918062307, 46.136099599 ], [ -122.919275306, 46.1338026 ], [ -122.920907207, 46.130468599 ], [ -122.921281204, 46.128336594 ], [ -122.920572102, 46.1238847 ], [ -122.919336006, 46.121576697 ], [ -122.916802905, 46.119268797 ], [ -122.913842805, 46.117895797 ], [ -122.909867704, 46.116499797 ], [ -122.902886502, 46.115236893 ], [ -122.899880402, 46.114466898 ], [ -122.897538304, 46.113344997 ], [ -122.893807203, 46.110727996 ], [ -122.892571107, 46.109320998 ], [ -122.891732, 46.107684098 ], [ -122.891594, 46.106795095 ] ] } },
{ "type": "Feature", "properties": { "nhdplus_comid": 24248390 }, "geometry": { "type": "LineString", "coordinates": [ [ -122.891594, 46.106795095 ], [ -122.892220005, 46.105342098 ], [ -122.893952005, 46.103507094 ], [ -122.895119004, 46.102714099 ], [ -122.898285002, 46.1008671 ], [ -122.902047105, 46.100077994 ], [ -122.907646202, 46.099043995 ], [ -122.913071305, 46.097438 ] ] } },
{ "type": "Feature", "properties": { "nhdplus_comid": 24521962 }, "geometry": { "type": "LineString", "coordinates": [ [ -122.913071305, 46.097438 ], [ -122.916725405, 46.095480897 ] ] } },
{ "type": "Feature", "properties": { "nhdplus_comid": 24521978 }, "geometry": { "type": "LineString", "coordinates": [ [ -122.916725405, 46.095480897 ], [ -122.926552601, 46.095762894 ] ] } },
{ "type": "Feature", "properties": { "nhdplus_comid": 24521980 }, "geometry": { "type": "LineString", "coordinates": [ [ -122.926552601, 46.095762894 ], [ -122.933297701, 46.093077794 ] ] } },
{ "type": "Feature", "properties": { "nhdplus_comid": 24520450 }, "geometry": { "type": "LineString", "coordinates": [ [ -122.933297701, 46.093077794 ], [ -122.936783805, 46.094274797 ] ] } },
{ "type": "Feature", "properties": { "nhdplus_comid": 24520448 }, "geometry": { "type": "LineString", "coordinates": [ [ -122.936783805, 46.094274797 ], [ -122.936867803, 46.094305798 ], [ -122.941171005, 46.0957857 ] ] } },
{ "type": "Feature", "properties": { "nhdplus_comid": 24520446 }, "geometry": { "type": "LineString", "coordinates": [ [ -122.941171005, 46.0957857 ], [ -122.941858001, 46.095999695 ], [ -122.959466606, 46.101648495 ], [ -122.968759902, 46.108004399 ], [ -122.974795103, 46.112127297 ] ] } },
{ "type": "Feature", "properties": { "nhdplus_comid": 24520444 }, "geometry": { "type": "LineString", "coordinates": [ [ -122.974795103, 46.112127297 ], [ -122.975115202, 46.112352297 ], [ -122.978243306, 46.114485294 ], [ -122.986681603, 46.119875096 ] ] } },
{ "type": "Feature", "properties": { "nhdplus_comid": 24520442 }, "geometry": { "type": "LineString", "coordinates": [ [ -122.986681603, 46.119875096 ], [ -122.9869036, 46.120020099 ], [ -122.989481702, 46.121984094 ], [ -122.991671801, 46.123537093 ], [ -122.993433803, 46.124833994 ], [ -123.006053403, 46.135205798 ], [ -123.028454304, 46.142026596 ], [ -123.032971501, 46.143739596 ], [ -123.042760007, 46.148961499 ] ] } },
{ "type": "Feature", "properties": { "nhdplus_comid": 24520440 }, "geometry": { "type": "LineString", "coordinates": [ [ -123.042760007, 46.148961499 ], [ -123.045126103, 46.150220394 ], [ -123.055502601, 46.155751295 ], [ -123.0605378, 46.157075293 ] ] } }
]
}
