{
"type": "FeatureCollection",
"name": "local_arkansas_um",
"crs": { "type": "name", "properties": { "name": "urn:ogc:def:crs:OGC:1.3:CRS84" } },
"features": [
{ "type": "Feature", "properties": { "nhdplus_comid": 24249178 }, "geometry": { "type": "LineString", "coordinates": [ [ -122.917172104, 46.265733398 ], [ -122.916424103, 46.266206399 ] ] } },
{ "type": "Feature", "properties": { "nhdplus_comid": 24249180 }, "geometry": { "type": "LineString", "coordinates": [ [ -122.935757704, 46.271038994 ], [ -122.935826704, 46.27076 ], [ -122.936154701, 46.270283997 ], [ -122.936154701, 46.269914098 ], [ -122.935795702, 46.269643098 ], [ -122.935299605, 46.269616097 ], [ -122.934536606, 46.269730099 ], [ -122.933911607, 46.270055093 ], [ -122.933384605, 46.269967094 ], [ -122.933354601, 46.269570097 ], [ -122.933850601, 46.269002095 ], [ -122.933850601, 46.268632099 ], [ -122.9325995, 46.2683191 ], [ -122.931973502, 46.268361099 ], [ -122.931706503, 46.268155098 ], [ -122.931637503, 46.267857097 ], [ -122.931736507, 46.267651096 ], [ -122.931736507, 46.267175198 ], [ -122.931408502, 46.266923197 ], [ -122.930851504, 46.266896196 ], [ -122.930218503, 46.267354198 ], [ -122.929661505, 46.267354198 ], [ -122.928936407, 46.266877197 ], [ -122.928868406, 46.265645199 ], [ -122.929165401, 46.265408196 ], [ -122.929760404, 46.265210196 ], [ -122.929860406, 46.264932193 ], [ -122.929593407, 46.264840193 ], [ -122.9288074, 46.264840193 ], [ -122.9283804, 46.264958195 ], [ -122.927914403, 46.265416197 ], [ -122.927845404, 46.265778199 ], [ -122.927487403, 46.266148195 ], [ -122.927060403, 46.2661452 ], [ -122.926663406, 46.265866198 ], [ -122.925938301, 46.265687294 ], [ -122.925511301, 46.265668295 ], [ -122.924260303, 46.266118295 ], [ -122.9236653, 46.266145296 ], [ -122.922810301, 46.265843295 ], [ -122.920666203, 46.264478296 ], [ -122.920140207, 46.264295399 ], [ -122.918026105, 46.264180399 ], [ -122.917531103, 46.264340393 ], [ -122.917141102, 46.2646074 ], [ -122.917172104, 46.265733398 ] ] } },
{ "type": "Feature", "properties": { "nhdplus_comid": 24249182 }, "geometry": { "type": "LineString", "coordinates": [ [ -122.9558696, 46.288544498 ], [ -122.955045603, 46.288181499 ], [ -122.954618603, 46.287884496 ], [ -122.954160601, 46.287769496 ], [ -122.953733504, 46.287769496 ], [ -122.953466505, 46.287884496 ], [ -122.9526425, 46.288524494 ], [ -122.952474505, 46.288891494 ], [ -122.952077501, 46.289253496 ], [ -122.951688506, 46.289253496 ], [ -122.950895503, 46.288803495 ], [ -122.949972503, 46.288772494 ], [ -122.949842505, 46.2885665 ], [ -122.950368501, 46.288227499 ], [ -122.950368501, 46.287746496 ], [ -122.950002402, 46.287334599 ], [ -122.950002402, 46.286949597 ], [ -122.950201407, 46.286697596 ], [ -122.951322407, 46.286102593 ], [ -122.9515514, 46.285599597 ], [ -122.951353401, 46.284290597 ], [ -122.9508643, 46.282898597 ], [ -122.950826302, 46.281990595 ], [ -122.951093301, 46.281250693 ], [ -122.9509563, 46.281116694 ], [ -122.950628303, 46.2810717 ], [ -122.950300306, 46.281250693 ], [ -122.949842304, 46.281204693 ], [ -122.949903205, 46.2792897 ], [ -122.9497732, 46.279037699 ], [ -122.949575201, 46.278919697 ], [ -122.9492772, 46.278900698 ], [ -122.9486522, 46.279362693 ], [ -122.948354207, 46.279449694 ], [ -122.947828203, 46.279423699 ], [ -122.9468062, 46.279125698 ], [ -122.9461421, 46.279125795 ], [ -122.945417106, 46.279449798 ], [ -122.944334105, 46.279476799 ], [ -122.944097102, 46.279564798 ], [ -122.943906106, 46.279770799 ], [ -122.943609104, 46.280430794 ], [ -122.943281107, 46.280617796 ], [ -122.942846105, 46.280636795 ], [ -122.942220107, 46.280529797 ], [ -122.941625103, 46.280159794 ], [ -122.941526003, 46.279564798 ], [ -122.942091003, 46.277943797 ], [ -122.942121007, 46.277366795 ], [ -122.941991001, 46.276749797 ], [ -122.941762, 46.276546896 ], [ -122.941098906, 46.276359893 ], [ -122.940075904, 46.276314899 ], [ -122.9381999, 46.275970899 ], [ -122.938069902, 46.275837898 ], [ -122.9381309, 46.275268897 ], [ -122.936551802, 46.274441995 ], [ -122.935795806, 46.274509996 ], [ -122.935559802, 46.274441995 ], [ -122.935299806, 46.274143994 ], [ -122.935101703, 46.273250997 ], [ -122.934605703, 46.273098998 ], [ -122.934475705, 46.272911996 ], [ -122.934575707, 46.272640996 ], [ -122.935330704, 46.271747999 ], [ -122.935757704, 46.271038994 ] ] } },
{ "type": "Feature", "properties": { "nhdplus_comid": 24249184 }, "geometry": { "type": "LineString", "coordinates": [ [ -122.973494403, 46.301528998 ], [ -122.972998403, 46.301001996 ], [ -122.970854305, 46.300339095 ], [ -122.9706183, 46.300068095 ], [ -122.970587306, 46.299518093 ], [ -122.9706873, 46.299282096 ], [ -122.970687203, 46.298809096 ], [ -122.9704502, 46.298626095 ], [ -122.969199203, 46.298599094 ], [ -122.967383102, 46.2978701 ], [ -122.965605102, 46.296757199 ], [ -122.964781001, 46.296314195 ], [ -122.963957004, 46.296085194 ], [ -122.963194005, 46.296013199 ], [ -122.962767005, 46.296112195 ], [ -122.962241001, 46.296387196 ], [ -122.962172002, 46.296566196 ], [ -122.961783007, 46.296978198 ], [ -122.961417004, 46.297050193 ], [ -122.961257003, 46.296932198 ], [ -122.960821904, 46.295997299 ], [ -122.960462905, 46.295772299 ], [ -122.959730901, 46.295681298 ], [ -122.959341906, 46.295788296 ], [ -122.958746903, 46.296276294 ], [ -122.958280906, 46.296528295 ], [ -122.957593903, 46.2965893 ], [ -122.9572969, 46.296158299 ], [ -122.957494803, 46.295383297 ], [ -122.957357801, 46.294926293 ], [ -122.956564806, 46.293854393 ], [ -122.955839805, 46.293621399 ], [ -122.9556797, 46.293365397 ], [ -122.955709703, 46.292980395 ], [ -122.955907702, 46.292549394 ], [ -122.955808707, 46.292087398 ], [ -122.955511704, 46.291611396 ], [ -122.955640703, 46.2911264 ], [ -122.9566027, 46.291080393 ], [ -122.956899703, 46.290962398 ], [ -122.9569607, 46.290279396 ], [ -122.956502706, 46.290008396 ], [ -122.955679603, 46.289711393 ], [ -122.955640607, 46.2893904 ], [ -122.955877602, 46.289001495 ], [ -122.9558696, 46.288544498 ] ] } },
{ "type": "Feature", "properties": { "nhdplus_comid": 24249186 }, "geometry": { "type": "LineString", "coordinates": [ [ -122.979758605, 46.304541893 ], [ -122.9792016, 46.304515898 ], [ -122.978903607, 46.304614894 ], [ -122.978278607, 46.305018894 ], [ -122.977683604, 46.305064894 ], [ -122.977255605, 46.304705895 ], [ -122.976958506, 46.303992897 ], [ -122.976622507, 46.303561896 ], [ -122.976195507, 46.303424895 ], [ -122.975470506, 46.303469993 ], [ -122.975104503, 46.303237997 ], [ -122.974021405, 46.301776998 ], [ -122.973754406, 46.301596999 ], [ -122.973494403, 46.301528998 ] ] } },
{ "type": "Feature", "properties": { "nhdplus_comid": 24249188 }, "geometry": { "type": "LineString", "coordinates": [ [ -122.998939402, 46.314017497 ], [ -122.998176306, 46.313697495 ], [ -122.997024305, 46.313445494 ], [ -122.996360302, 46.313201495 ], [ -122.995765202, 46.312762596 ], [ -122.995399207, 46.311393596 ], [ -122.995239206, 46.311168596 ], [ -122.994575202, 46.310962595 ], [ -122.994049102, 46.310664594 ], [ -122.993980102, 46.310088597 ], [ -122.9935221, 46.309195593 ], [ -122.992530003, 46.308242694 ], [ -122.991569005, 46.3079447 ], [ -122.990348004, 46.307799697 ], [ -122.990019903, 46.307620697 ], [ -122.990050904, 46.307235695 ], [ -122.990813904, 46.306388699 ], [ -122.991042905, 46.305957697 ], [ -122.991103902, 46.305426694 ], [ -122.9907149, 46.305316694 ], [ -122.989325903, 46.305316798 ], [ -122.988898903, 46.305217795 ], [ -122.988600805, 46.305064797 ], [ -122.988570802, 46.304236799 ], [ -122.988364801, 46.304148793 ], [ -122.988234803, 46.3039658 ], [ -122.988234803, 46.302501798 ], [ -122.988104701, 46.302321799 ], [ -122.987639703, 46.302111797 ], [ -122.986617707, 46.3019059 ], [ -122.986159705, 46.301886894 ], [ -122.984610707, 46.302157894 ], [ -122.983718701, 46.302508898 ], [ -122.983191602, 46.302848898 ], [ -122.982794605, 46.302871898 ], [ -122.982070602, 46.302462898 ], [ -122.981703602, 46.302554898 ], [ -122.981536604, 46.302825898 ], [ -122.981474601, 46.303443894 ], [ -122.981345601, 46.303714894 ], [ -122.981017604, 46.304038897 ], [ -122.980322607, 46.304423898 ], [ -122.979758605, 46.304541893 ] ] } },
{ "type": "Feature", "properties": { "nhdplus_comid": 24249190 }, "geometry": { "type": "LineString", "coordinates": [ [ -122.999168403, 46.314112499 ], [ -122.998939402, 46.314017497 ] ] } },
{ "type": "Feature", "properties": { "nhdplus_comid": 24249192 }, "geometry": { "type": "LineString", "coordinates": [ [ -123.014069401, 46.327674098 ], [ -123.013802402, 46.327216096 ], [ -123.013703406, 46.326846197 ], [ -123.0132154, 46.326392196 ], [ -123.0121243, 46.3260912 ], [ -123.0115292, 46.325610198 ], [ -123.010308206, 46.325244196 ], [ -123.009751104, 46.324900195 ], [ -123.0087291, 46.324469194 ], [ -123.008591101, 46.324145198 ], [ -123.008065, 46.323741198 ], [ -123.0064549, 46.3231913 ], [ -123.006088905, 46.322959296 ], [ -123.005066805, 46.321444295 ], [ -123.0047388, 46.321101293 ], [ -123.003784701, 46.3205553 ], [ -123.003776707, 46.320391297 ], [ -123.004013702, 46.320300296 ], [ -123.004211701, 46.320006296 ], [ -123.004043706, 46.319781296 ], [ -123.003021702, 46.319350399 ], [ -123.002792604, 46.319114394 ], [ -123.002762601, 46.318847395 ], [ -123.003288604, 46.3183854 ], [ -123.003288604, 46.3182064 ], [ -123.002594605, 46.317748398 ], [ -123.001228504, 46.316298395 ], [ -122.999168403, 46.314112499 ] ] } },
{ "type": "Feature", "properties": { "nhdplus_comid": 24249194 }, "geometry": { "type": "LineString", "coordinates": [ [ -123.021065801, 46.3292301 ], [ -123.019746706, 46.328952096 ], [ -123.019051701, 46.328906097 ], [ -123.017930701, 46.329112098 ], [ -123.0171066, 46.328994095 ], [ -123.015855506, 46.328196093 ], [ -123.014992505, 46.3278341 ], [ -123.014069401, 46.327674098 ] ] } },
{ "type": "Feature", "properties": { "nhdplus_comid": 24249196 }, "geometry": { "type": "LineString", "coordinates": [ [ -123.076076306, 46.325102799 ], [ -123.074261203, 46.325742796 ], [ -123.072941206, 46.326013796 ], [ -123.071918204, 46.326425798 ], [ -123.071384102, 46.326471798 ], [ -123.070827104, 46.326372795 ], [ -123.070232101, 46.326448798 ], [ -123.069576107, 46.326742798 ], [ -123.069080107, 46.3274258 ], [ -123.068653107, 46.328092694 ], [ -123.067661107, 46.3292377 ], [ -123.066868104, 46.329939693 ], [ -123.065517001, 46.330930695 ], [ -123.061320901, 46.333055697 ], [ -123.059901901, 46.334039696 ], [ -123.0588798, 46.334383696 ], [ -123.058055803, 46.334490694 ], [ -123.057261802, 46.334444694 ], [ -123.056109704, 46.334085695 ], [ -123.055148602, 46.334104694 ], [ -123.054324605, 46.334310696 ], [ -123.053439602, 46.334356695 ], [ -123.052478507, 46.334562697 ], [ -123.046931304, 46.334718794 ], [ -123.046046205, 46.3345128 ], [ -123.0441311, 46.333326794 ], [ -123.043406002, 46.333048798 ], [ -123.042781003, 46.333101794 ], [ -123.041590005, 46.333505794 ], [ -123.0390798, 46.333624795 ], [ -123.038027801, 46.334055796 ], [ -123.036073804, 46.335317798 ], [ -123.035349704, 46.335199796 ], [ -123.0345257, 46.334860899 ], [ -123.033602603, 46.334921896 ], [ -123.032579601, 46.334654897 ], [ -123.031618506, 46.334673896 ], [ -123.030664504, 46.334806897 ], [ -123.0295434, 46.334123895 ], [ -123.028421305, 46.333662897 ], [ -123.026933201, 46.331953995 ], [ -123.027132206, 46.330991998 ], [ -123.027101204, 46.330602996 ], [ -123.026804104, 46.330309995 ], [ -123.026308104, 46.330054 ], [ -123.024988003, 46.329847999 ], [ -123.023966007, 46.329569995 ], [ -123.022057906, 46.329660997 ], [ -123.021462806, 46.329500996 ], [ -123.021065801, 46.3292301 ] ] } }
]
}
