{
"type": "FeatureCollection",
"name": "local_coweeman_dm",
"crs": { "type": "name", "properties": { "name": "urn:ogc:def:crs:OGC:1.3:CRS84" } },
"features": [
{ "type": "Feature", "properties": { "nhdplus_comid": 24248412 }, "geometry": { "type": "LineString", "coordinates": [ [ -122.820029601, 46.120715596 ], [ -122.820593603, 46.121119596 ], [ -122.820692606, 46.121463597 ], [ -122.820555605, 46.121650599 ], [ -122.8202966, 46.121783599 ], [ -122.8183586, 46.122355595 ], [ -122.817663603, 46.1229776 ], [ -122.817404605, 46.123363599 ], [ -122.817465603, 46.123679593 ], [ -122.817892604, 46.124209598 ], [ -122.819311701, 46.124618597 ], [ -122.819655702, 46.124850594 ], [ -122.819899701, 46.125121593 ], [ -122.820326701, 46.125781596 ], [ -122.820425801, 46.126422599 ], [ -122.820296802, 46.126861595 ], [ -122.820723802, 46.128390498 ], [ -122.821120806, 46.128852494 ], [ -122.8223029, 46.129737496 ], [ -122.823286906, 46.130313493 ], [ -122.824508004, 46.130702496 ], [ -122.825919002, 46.131362498 ], [ -122.826904006, 46.132071495 ], [ -122.827430107, 46.1319765 ], [ -122.828521103, 46.131083496 ], [ -122.829208106, 46.130763493 ], [ -122.831611104, 46.129947394 ], [ -122.833282106, 46.129210398 ], [ -122.833511107, 46.129050396 ], [ -122.833747104, 46.1285474 ], [ -122.834266104, 46.128070399 ], [ -122.834861107, 46.127910398 ], [ -122.837493204, 46.127933398 ], [ -122.838744201, 46.127727397 ], [ -122.839660205, 46.127429396 ], [ -122.840186305, 46.127360396 ], [ -122.8410713, 46.127585396 ], [ -122.841995306, 46.128047399 ], [ -122.8425593, 46.128432393 ], [ -122.8432464, 46.128688298 ], [ -122.844627403, 46.128932297 ], [ -122.847358502, 46.131221294 ], [ -122.848472603, 46.1325453 ], [ -122.849166602, 46.133021295 ], [ -122.850250602, 46.134124197 ], [ -122.851341702, 46.134688199 ], [ -122.851470701, 46.134852193 ] ] } },
{ "type": "Feature", "properties": { "nhdplus_comid": 24248410 }, "geometry": { "type": "LineString", "coordinates": [ [ -122.851470701, 46.134852193 ], [ -122.850944705, 46.135264196 ], [ -122.850684702, 46.136291198 ], [ -122.8508147, 46.136527196 ] ] } },
{ "type": "Feature", "properties": { "nhdplus_comid": 24248408 }, "geometry": { "type": "LineString", "coordinates": [ [ -122.8508147, 46.136527196 ], [ -122.8507457, 46.137389198 ], [ -122.8509828, 46.138030194 ], [ -122.851440802, 46.138625197 ], [ -122.852126807, 46.139144197 ], [ -122.853347905, 46.140662193 ], [ -122.853614904, 46.140868194 ], [ -122.853843905, 46.1409292 ], [ -122.855285905, 46.140773199 ], [ -122.855682902, 46.140655197 ], [ -122.856506906, 46.139880195 ], [ -122.857261904, 46.139449097 ], [ -122.857757904, 46.139010094 ], [ -122.857818902, 46.138846099 ], [ -122.858215906, 46.138507098 ], [ -122.858413905, 46.138164096 ], [ -122.858703904, 46.136634193 ], [ -122.859000906, 46.136222199 ], [ -122.859397903, 46.135924093 ], [ -122.859954901, 46.1357181 ], [ -122.860778905, 46.1357181 ], [ -122.861931004, 46.135856099 ], [ -122.8645631, 46.137271099 ], [ -122.865021102, 46.137660094 ], [ -122.865021102, 46.138030097 ], [ -122.864853106, 46.138255097 ], [ -122.863739103, 46.1389651 ], [ -122.863343105, 46.139377095 ], [ -122.863213107, 46.139674097 ], [ -122.863213107, 46.1400171 ], [ -122.8635711, 46.140491098 ], [ -122.8640671, 46.140910096 ], [ -122.8647312, 46.141044095 ], [ -122.867493205, 46.141344994 ], [ -122.8719263, 46.141062997 ], [ -122.872818306, 46.140856996 ], [ -122.873246305, 46.140242994 ], [ -122.873375304, 46.139460996 ], [ -122.873635307, 46.139162995 ], [ -122.873932302, 46.139070995 ], [ -122.874726303, 46.139181994 ], [ -122.875283405, 46.139597997 ], [ -122.875977404, 46.140310995 ], [ -122.876229405, 46.140444994 ], [ -122.876671404, 46.140562996 ], [ -122.877159402, 46.140463993 ], [ -122.877388403, 46.140285 ], [ -122.877556406, 46.139895 ], [ -122.8775874, 46.138797 ], [ -122.877953403, 46.138590999 ], [ -122.878380403, 46.138521999 ], [ -122.879006401, 46.138681896 ], [ -122.879402407, 46.138979897 ], [ -122.879792504, 46.1396669 ], [ -122.879921503, 46.140329897 ], [ -122.880150504, 46.1407189 ], [ -122.880417503, 46.140924893 ], [ -122.880478501, 46.141195893 ] ] } },
{ "type": "Feature", "properties": { "nhdplus_comid": 24248406 }, "geometry": { "type": "LineString", "coordinates": [ [ -122.880478501, 46.141195893 ], [ -122.883240603, 46.142000899 ], [ -122.883637607, 46.1420279 ], [ -122.884003602, 46.141954899 ], [ -122.8844916, 46.141729899 ], [ -122.885712601, 46.1405169 ], [ -122.888771601, 46.138163894 ], [ -122.890023701, 46.137522899 ], [ -122.891175702, 46.137316793 ], [ -122.891533703, 46.137407795 ], [ -122.892128706, 46.137796797 ], [ -122.893074803, 46.138716795 ], [ -122.893441804, 46.139173798 ], [ -122.893868804, 46.139471799 ], [ -122.8943948, 46.139471799 ], [ -122.895020805, 46.139219798 ], [ -122.897850901, 46.137621798 ], [ -122.898705907, 46.137045793 ], [ -122.900940903, 46.135858797 ], [ -122.901696905, 46.135015793 ], [ -122.9020629, 46.134142794 ], [ -122.902024806, 46.133116797 ], [ -122.901764803, 46.132612795 ], [ -122.900215805, 46.1323388 ], [ -122.899201803, 46.132017799 ], [ -122.898407705, 46.131494798 ], [ -122.898178704, 46.131060794 ], [ -122.897988707, 46.130396798 ], [ -122.897095606, 46.1285659 ], [ -122.896637604, 46.127901897 ], [ -122.8950276, 46.1271239 ], [ -122.893875502, 46.126234896 ], [ -122.893547505, 46.125845894 ], [ -122.893349506, 46.125357896 ], [ -122.892929405, 46.124838896 ], [ -122.892403401, 46.123899899 ], [ -122.891877405, 46.123232894 ], [ -122.890923306, 46.122503996 ], [ -122.8906563, 46.122164994 ] ] } },
{ "type": "Feature", "properties": { "nhdplus_comid": 24248404 }, "geometry": { "type": "LineString", "coordinates": [ [ -122.8906563, 46.122164994 ], [ -122.8901373, 46.121126994 ], [ -122.888535202, 46.118345998 ], [ -122.888314202, 46.116960995 ], [ -122.888375103, 46.115553997 ] ] } },
{ "type": "Feature", "properties": { "nhdplus_comid": 24248402 }, "geometry": { "type": "LineString", "coordinates": [ [ -122.888375103, 46.115553997 ], [ -122.888298102, 46.114157997 ], [ -122.887841105, 46.113093093 ], [ -122.886704005, 46.112281099 ], [ -122.885659002, 46.111159094 ], [ -122.885261901, 46.110488094 ] ] } },
{ "type": "Feature", "properties": { "nhdplus_comid": 24248400 }, "geometry": { "type": "LineString", "coordinates": [ [ -122.885261901, 46.110488094 ], [ -122.886765003, 46.109969094 ], [ -122.887368001, 46.109221093 ], [ -122.888161004, 46.107860096 ] ] } },
{ "type": "Feature", "properties": { "nhdplus_comid": 24248398 }, "geometry": { "type": "LineString", "coordinates": [ [ -122.888161004, 46.107860096 ], [ -122.888771005, 46.107696094 ] ] } },
{ "type": "Feature", "properties": { "nhdplus_comid": 24248396 }, "geometry": { "type": "LineString", "coordinates": [ [ -122.888771005, 46.107696094 ], [ -122.889267005, 46.107573099 ] ] } },
{ "type": "Feature", "properties": { "nhdplus_comid": 24248394 }, "geometry": { "type": "LineString", "coordinates": [ [ -122.889267005, 46.107573099 ], [ -122.890084006, 46.107356094 ], [ -122.890511006, 46.1071961 ] ] } },
{ "type": "Feature", "properties": { "nhdplus_comid": 24248392 }, "geometry": { "type": "LineString", "coordinates": [ [ -122.890511006, 46.1071961 ], [ -122.891594, 46.106795095 ] ] } },
{ "type": "Feature", "properties": { "nhdplus_comid": 24248390 }, "geometry": { "type": "LineString", "coordinates": [ [ -122.891594, 46.106795095 ], [ -122.892220005, 46.105342098 ], [ -122.893952005, 46.103507094 ], [ -122.895119004, 46.102714099 ], [ -122.898285002, 46.1008671 ], [ -122.902047105, 46.100077994 ], [ -122.907646202, 46.099043995 ], [ -122.913071305, 46.097438 ] ] } },
{ "type": "Feature", "properties": { "nhdplus_comid": 24521962 }, "geometry": { "type": "LineString", "coordinates": [ [ -122.913071305, 46.097438 ], [ -122.916725405, 46.095480897 ] ] } },
{ "type": "Feature", "properties": { "nhdplus_comid": 24521978 }, "geometry": { "type": "LineString", "coordinates": [ [ -122.916725405, 46.095480897 ], [ -122.926552601, 46.095762894 ] ] } },
{ "type": "Feature", "properties": { "nhdplus_comid": 24521980 }, "geometry": { "type": "LineString", "coordinates": [ [ -122.926552601, 46.095762894 ], [ -122.933297701, 46.093077794 ] ] } },
{ "type": "Feature", "properties": { "nhdplus_comid": 24520450 }, "geometry": { "type": "LineString", "coordinates": [ [ -122.933297701, 46.093077794 ], [ -122.936783805, 46.094274797 ] ] } },
{ "type": "Feature", "properties": { "nhdplus_comid": 24520448 }, "geometry": { "type": "LineString", "coordinates": [ [ -122.936783805, 46.094274797 ], [ -122.936867803, 46.094305798 ], [ -122.941171005, 46.0957857 ] ] } },
{ "type": "Feature", "properties": { "nhdplus_comid": 24520446 }, "geometry": { "type": "LineString", "coordinates": [ [ -122.941171005, 46.0957857 ], [ -122.941858001, 46.095999695 ], [ -122.959466606, 46.101648495 ], [ -122.968759902, 46.108004399 ], [ -122.974795103, 46.112127297 ] ] } },
{ "type": "Feature", "properties": { "nhdplus_comid": 24520444 }, "geometry": { "type": "LineString", "coordinates": [ [ -122.974795103, 46.112127297 ], [ -122.975115202, 46.112352297 ], [ -122.978243306, 46.114485294 ], [ -122.986681603, 46.119875096 ] ] } },
{ "type": "Feature", "properties": { "nhdplus_comid": 24520442 }, "geometry": { "type": "LineString", "coordinates": [ [ -122.986681603, 46.119875096 ], [ -122.9869036, 46.120020099 ], [ -122.989481702, 46.121984094 ], [ -122.991671801, 46.123537093 ], [ -122.993433803, 46.124833994 ], [ -123.006053403, 46.135205798 ], [ -123.028454304, 46.142026596 ], [ -123.032971501, 46.143739596 ], [ -123.042760007, 46.148961499 ] ] } },
{ "type": "Feature", "properties": { "nhdplus_comid": 24520440 }, "geometry": { "type": "LineString", "coordinates": [ [ -123.042760007, 46.148961499 ], [ -123.045126103, 46.150220394 ], [ -123.055502601, 46.155751295 ], [ -123.0605378, 46.157075293 ] ] } }
]
}
