{
"type": "FeatureCollection",
"name": "local_coweeman_um",
"crs": { "type": "name", "properties": { "name": "urn:ogc:def:crs:OGC:1.3:CRS84" } },
"features": [
{ "type": "Feature", "properties": { "nhdplus_comid": 24248412 }, "geometry": { "type": "LineString", "coordinates": [ [ -122.820029601, 46.120715596 ], [ -122.820593603, 46.121119596 ], [ -122.820692606, 46.121463597 ], [ -122.820555605, 46.121650599 ], [ -122.8202966, 46.121783599 ], [ -122.8183586, 46.122355595 ], [ -122.817663603, 46.1229776 ], [ -122.817404605, 46.123363599 ], [ -122.817465603, 46.123679593 ], [ -122.817892604, 46.124209598 ], [ -122.819311701, 46.124618597 ], [ -122.819655702, 46.124850594 ], [ -122.819899701, 46.125121593 ], [ -122.820326701, 46.125781596 ], [ -122.820425801, 46.126422599 ], [ -122.820296802, 46.126861595 ], [ -122.820723802, 46.128390498 ], [ -122.821120806, 46.128852494 ], [ -122.8223029, 46.129737496 ], [ -122.823286906, 46.130313493 ], [ -122.824508004, 46.130702496 ], [ -122.825919002, 46.131362498 ], [ -122.826904006, 46.132071495 ], [ -122.827430107, 46.1319765 ], [ -122.828521103, 46.131083496 ], [ -122.829208106, 46.130763493 ], [ -122.831611104, 46.129947394 ], [ -122.833282106, 46.129210398 ], [ -122.833511107, 46.129050396 ], [ -122.833747104, 46.1285474 ], [ -122.834266104, 46.128070399 ], [ -122.834861107, 46.127910398 ], [ -122.837493204, 46.127933398 ], [ -122.838744201, 46.127727397 ], [ -122.839660205, 46.127429396 ], [ -122.840186305, 46.127360396 ], [ -122.8410713, 46.127585396 ], [ -122.841995306, 46.128047399 ], [ -122.8425593, 46.128432393 ], [ -122.8432464, 46.128688298 ], [ -122.844627403, 46.128932297 ], [ -122.847358502, 46.131221294 ], [ -122.848472603, 46.1325453 ], [ -122.849166602, 46.133021295 ], [ -122.850250602, 46.134124197 ], [ -122.851341702, 46.134688199 ], [ -122.851470701, 46.134852193 ] ] } },
{ "type": "Feature", "properties": { "nhdplus_comid": 24248414 }, "geometry": { "type": "LineString", "coordinates": [ [ -122.800307401, 46.130221695 ], [ -122.800406404, 46.129985698 ], [ -122.804022402, 46.127635695 ], [ -122.804152407, 46.126952693 ], [ -122.803564303, 46.125716694 ], [ -122.803564303, 46.125167698 ], [ -122.803900301, 46.124846697 ], [ -122.804381303, 46.124442697 ], [ -122.805372305, 46.124072693 ], [ -122.806555405, 46.123275697 ], [ -122.807181403, 46.123023696 ], [ -122.807997406, 46.123088695 ], [ -122.808462404, 46.123385698 ], [ -122.808623403, 46.1238897 ], [ -122.808722407, 46.124850698 ], [ -122.809042506, 46.125136696 ], [ -122.809645504, 46.125026695 ], [ -122.809935503, 46.124850698 ], [ -122.810988501, 46.123984694 ], [ -122.811316505, 46.123382695 ], [ -122.8115834, 46.121600695 ], [ -122.811842404, 46.121184699 ], [ -122.812338404, 46.120936699 ], [ -122.812865406, 46.120891698 ], [ -122.814184502, 46.121028595 ], [ -122.816023506, 46.120986596 ], [ -122.819044605, 46.120666593 ], [ -122.820029601, 46.120715596 ] ] } },
{ "type": "Feature", "properties": { "nhdplus_comid": 24248416 }, "geometry": { "type": "LineString", "coordinates": [ [ -122.7942563, 46.132758796 ], [ -122.795965306, 46.132552795 ], [ -122.798529401, 46.1315227 ], [ -122.798956402, 46.131244697 ], [ -122.799681403, 46.130588695 ], [ -122.800307401, 46.130221695 ] ] } },
{ "type": "Feature", "properties": { "nhdplus_comid": 24248434 }, "geometry": { "type": "LineString", "coordinates": [ [ -122.792052306, 46.136317797 ], [ -122.791395307, 46.1355858 ], [ -122.791395307, 46.135226794 ], [ -122.791723303, 46.134830795 ], [ -122.7926393, 46.134475797 ], [ -122.793265305, 46.134124793 ], [ -122.7936313, 46.1337808 ], [ -122.793829307, 46.133235797 ], [ -122.7942563, 46.132758796 ] ] } },
{ "type": "Feature", "properties": { "nhdplus_comid": 24248436 }, "geometry": { "type": "LineString", "coordinates": [ [ -122.781424403, 46.147792794 ], [ -122.781882405, 46.147475794 ], [ -122.782149404, 46.1473618 ], [ -122.7826754, 46.147288799 ], [ -122.783529401, 46.147571795 ], [ -122.784155406, 46.148021795 ], [ -122.785010502, 46.149119794 ], [ -122.785536505, 46.149554797 ], [ -122.786062501, 46.149787799 ], [ -122.7864905, 46.149734795 ], [ -122.786947504, 46.149531797 ], [ -122.787077501, 46.148990795 ], [ -122.786780506, 46.148410797 ], [ -122.786787502, 46.147433795 ], [ -122.786978506, 46.1470908 ], [ -122.787375502, 46.146838799 ], [ -122.788199507, 46.146811798 ], [ -122.788855501, 46.146884799 ], [ -122.789122507, 46.146815799 ], [ -122.789511502, 46.1465187 ], [ -122.7904725, 46.146033697 ], [ -122.790602505, 46.145736694 ], [ -122.790304504, 46.144935697 ], [ -122.790274501, 46.144412793 ], [ -122.791128501, 46.142947696 ], [ -122.792868502, 46.141143695 ], [ -122.793036506, 46.140780695 ], [ -122.792906404, 46.140204698 ], [ -122.792708404, 46.139865696 ], [ -122.792708404, 46.138648793 ], [ -122.7933034, 46.137122795 ], [ -122.793165401, 46.136661798 ], [ -122.793005407, 46.136481799 ], [ -122.792052306, 46.136317797 ] ] } },
{ "type": "Feature", "properties": { "nhdplus_comid": 24248438 }, "geometry": { "type": "LineString", "coordinates": [ [ -122.779211506, 46.154193796 ], [ -122.779776506, 46.152755797 ], [ -122.780104406, 46.150100797 ], [ -122.781355403, 46.148086794 ], [ -122.781424403, 46.147792794 ] ] } },
{ "type": "Feature", "properties": { "nhdplus_comid": 24248440 }, "geometry": { "type": "LineString", "coordinates": [ [ -122.772658706, 46.168345794 ], [ -122.773840703, 46.167685799 ], [ -122.774176702, 46.167289793 ], [ -122.774275705, 46.1667208 ], [ -122.774344601, 46.163203798 ], [ -122.773779504, 46.161509797 ], [ -122.773222506, 46.160590798 ], [ -122.772368506, 46.159797899 ], [ -122.7710554, 46.1582179 ], [ -122.770758405, 46.157714896 ], [ -122.770758405, 46.157416895 ], [ -122.7711244, 46.1571199 ], [ -122.772406407, 46.156520896 ], [ -122.773291402, 46.156478897 ], [ -122.775465503, 46.156733796 ], [ -122.777075507, 46.156730793 ], [ -122.778158501, 46.1565248 ], [ -122.778723501, 46.1562998 ], [ -122.779112503, 46.155631796 ], [ -122.779082507, 46.155112796 ], [ -122.778723501, 46.1547428 ], [ -122.778723501, 46.1545178 ], [ -122.779211506, 46.154193796 ] ] } },
{ "type": "Feature", "properties": { "nhdplus_comid": 24248442 }, "geometry": { "type": "LineString", "coordinates": [ [ -122.757384501, 46.174075998 ], [ -122.757750504, 46.174094997 ], [ -122.760611601, 46.174693897 ], [ -122.761366606, 46.174712896 ], [ -122.763373606, 46.174006894 ], [ -122.765318602, 46.173076898 ], [ -122.766073607, 46.172889896 ], [ -122.767950706, 46.172774896 ], [ -122.768316701, 46.172660798 ], [ -122.768446706, 46.1725078 ], [ -122.768477701, 46.172091797 ], [ -122.767554604, 46.171035893 ], [ -122.767462604, 46.170424893 ], [ -122.767592601, 46.169921897 ], [ -122.767851606, 46.169642895 ], [ -122.768316604, 46.169436894 ], [ -122.769369602, 46.169169895 ], [ -122.770224601, 46.168754794 ], [ -122.772658706, 46.168345794 ] ] } },
{ "type": "Feature", "properties": { "nhdplus_comid": 24248444 }, "geometry": { "type": "LineString", "coordinates": [ [ -122.743376203, 46.174190894 ], [ -122.744070202, 46.173480898 ], [ -122.7450542, 46.172797896 ], [ -122.745810203, 46.172431894 ], [ -122.746733204, 46.172198899 ], [ -122.7493653, 46.172034994 ], [ -122.751219302, 46.172244996 ], [ -122.752653301, 46.172492996 ], [ -122.754133403, 46.173293993 ], [ -122.757384501, 46.174075998 ] ] } },
{ "type": "Feature", "properties": { "nhdplus_comid": 24248446 }, "geometry": { "type": "LineString", "coordinates": [ [ -122.736761101, 46.171725698 ], [ -122.737120107, 46.171878695 ], [ -122.738081105, 46.172458798 ], [ -122.739691205, 46.173091799 ], [ -122.7410032, 46.173915796 ], [ -122.741896205, 46.174212798 ], [ -122.743376203, 46.174190894 ] ] } },
{ "type": "Feature", "properties": { "nhdplus_comid": 24248448 }, "geometry": { "type": "LineString", "coordinates": [ [ -122.715474904, 46.173446298 ], [ -122.7158029, 46.173469298 ], [ -122.716458902, 46.173648298 ], [ -122.717252903, 46.173675299 ], [ -122.719815902, 46.173171394 ], [ -122.7205109, 46.173099399 ], [ -122.720899902, 46.173354395 ], [ -122.721457005, 46.174243398 ], [ -122.721464001, 46.174750395 ], [ -122.721327007, 46.175109394 ], [ -122.721266001, 46.175757393 ], [ -122.721525006, 46.175937399 ], [ -122.721892007, 46.176028393 ], [ -122.722288005, 46.176002398 ], [ -122.722876005, 46.175754398 ], [ -122.723433003, 46.175292395 ], [ -122.724196002, 46.175063394 ], [ -122.727186002, 46.175014496 ], [ -122.727682106, 46.174926497 ], [ -122.728110105, 46.174720496 ], [ -122.729887001, 46.173228599 ], [ -122.730871007, 46.171973594 ], [ -122.732321002, 46.170627594 ], [ -122.732649006, 46.170535594 ], [ -122.734060004, 46.170539699 ], [ -122.735373005, 46.170833699 ], [ -122.736632101, 46.171538696 ], [ -122.736761101, 46.171725698 ] ] } },
{ "type": "Feature", "properties": { "nhdplus_comid": 24248450 }, "geometry": { "type": "LineString", "coordinates": [ [ -122.669903904, 46.1588884 ], [ -122.671909906, 46.159250394 ], [ -122.672895007, 46.160391398 ], [ -122.673421003, 46.160643496 ], [ -122.673848003, 46.160734497 ], [ -122.675756, 46.160711497 ], [ -122.676023006, 46.160643496 ], [ -122.677076004, 46.159410499 ], [ -122.677404001, 46.159296498 ], [ -122.678785004, 46.159433596 ], [ -122.682798102, 46.161009699 ], [ -122.683850102, 46.161508694 ], [ -122.685361207, 46.162954696 ], [ -122.685628206, 46.163073696 ], [ -122.686223201, 46.163092695 ], [ -122.688321203, 46.162241794 ], [ -122.688985206, 46.162081793 ], [ -122.689840205, 46.162130795 ], [ -122.690297201, 46.162382796 ], [ -122.6907553, 46.163347796 ], [ -122.691053301, 46.164122798 ], [ -122.691549301, 46.1645118 ], [ -122.6935554, 46.164938897 ], [ -122.694379404, 46.164942898 ], [ -122.695005402, 46.164782897 ], [ -122.6954934, 46.164370894 ], [ -122.696614407, 46.163801894 ], [ -122.6969124, 46.1635269 ], [ -122.697171405, 46.162996896 ], [ -122.697835304, 46.162386999 ], [ -122.698125303, 46.162287995 ], [ -122.698491402, 46.162332997 ], [ -122.6995444, 46.162813999 ], [ -122.700299405, 46.162680998 ], [ -122.701184407, 46.162340999 ], [ -122.7014824, 46.162287995 ], [ -122.701780401, 46.162386999 ], [ -122.702008404, 46.162565999 ], [ -122.702275403, 46.163160995 ], [ -122.702237405, 46.163523994 ], [ -122.7019784, 46.163637996 ], [ -122.700895406, 46.163687997 ], [ -122.700368404, 46.164072998 ], [ -122.699773505, 46.165880993 ], [ -122.699842505, 46.166285999 ], [ -122.700170502, 46.166567996 ], [ -122.700696506, 46.166677997 ], [ -122.7012235, 46.166632995 ], [ -122.702047504, 46.166204996 ], [ -122.702245504, 46.165537998 ], [ -122.702573501, 46.165304996 ], [ -122.702863507, 46.165304996 ], [ -122.703199506, 46.165442094 ], [ -122.703328505, 46.165694095 ], [ -122.703031503, 46.166593999 ], [ -122.703000501, 46.167158999 ], [ -122.703489602, 46.167726994 ], [ -122.704053603, 46.168056093 ], [ -122.705106601, 46.1683001 ], [ -122.706159607, 46.168094099 ], [ -122.707769603, 46.167594098 ], [ -122.710332602, 46.166316196 ], [ -122.7107976, 46.166362196 ], [ -122.711583607, 46.166560195 ], [ -122.712438703, 46.1671822 ], [ -122.713002704, 46.168372199 ], [ -122.713399701, 46.168735199 ], [ -122.713956706, 46.168944299 ], [ -122.7162918, 46.1692193 ], [ -122.7167188, 46.169742294 ], [ -122.7167188, 46.170650296 ], [ -122.716855802, 46.1708593 ], [ -122.716756806, 46.171775296 ], [ -122.716520801, 46.172103293 ], [ -122.715436801, 46.173034295 ], [ -122.715474904, 46.173446298 ] ] } },
{ "type": "Feature", "properties": { "nhdplus_comid": 24248452 }, "geometry": { "type": "LineString", "coordinates": [ [ -122.648090705, 46.160565898 ], [ -122.648419701, 46.160569899 ], [ -122.649601705, 46.160203993 ], [ -122.651348703, 46.160092995 ], [ -122.653523706, 46.159819096 ], [ -122.656773806, 46.160280094 ], [ -122.657993801, 46.160158098 ], [ -122.6592758, 46.160341196 ], [ -122.659931801, 46.160639197 ], [ -122.660923801, 46.161329195 ], [ -122.6614509, 46.161535196 ], [ -122.662075907, 46.161554195 ], [ -122.662434906, 46.161440194 ], [ -122.662830904, 46.161169194 ], [ -122.663288906, 46.160597295 ], [ -122.663914904, 46.160166293 ], [ -122.664738901, 46.159887299 ], [ -122.666576907, 46.159841299 ], [ -122.667668901, 46.159548298 ], [ -122.667996906, 46.159342393 ], [ -122.6685839, 46.158766396 ], [ -122.669018902, 46.158705398 ], [ -122.669903904, 46.1588884 ] ] } },
{ "type": "Feature", "properties": { "nhdplus_comid": 24248454 }, "geometry": { "type": "LineString", "coordinates": [ [ -122.628941603, 46.166688494 ], [ -122.629665501, 46.166188493 ], [ -122.630352505, 46.165479496 ], [ -122.631504506, 46.164700598 ], [ -122.631901503, 46.164540596 ], [ -122.632885501, 46.164426595 ], [ -122.633610606, 46.164544597 ], [ -122.634007603, 46.164697595 ], [ -122.634991601, 46.165387593 ], [ -122.636212602, 46.166074693 ], [ -122.637028702, 46.166642696 ], [ -122.637264706, 46.166943699 ], [ -122.637852706, 46.1674207 ], [ -122.639134705, 46.168774694 ], [ -122.639790706, 46.168794699 ], [ -122.640415706, 46.1687067 ], [ -122.640911706, 46.168500699 ], [ -122.641506702, 46.167973794 ], [ -122.642361701, 46.167397797 ], [ -122.644306704, 46.166531794 ], [ -122.644833706, 46.166165799 ], [ -122.645519704, 46.165456899 ], [ -122.646214701, 46.164403893 ], [ -122.646740705, 46.1623099 ], [ -122.647038706, 46.161805898 ], [ -122.648090705, 46.160565898 ] ] } },
{ "type": "Feature", "properties": { "nhdplus_comid": 24248456 }, "geometry": { "type": "LineString", "coordinates": [ [ -122.615337402, 46.166879199 ], [ -122.616062403, 46.1670352 ], [ -122.618733406, 46.1679703 ], [ -122.619747505, 46.168214299 ], [ -122.620442502, 46.168454297 ], [ -122.620899506, 46.168561295 ], [ -122.6219225, 46.168492295 ], [ -122.623303503, 46.168172397 ], [ -122.625637501, 46.168084398 ], [ -122.626217507, 46.167935394 ], [ -122.627621502, 46.167397499 ], [ -122.628544502, 46.166779496 ], [ -122.628941603, 46.166688494 ] ] } },
{ "type": "Feature", "properties": { "nhdplus_comid": 24248458 }, "geometry": { "type": "LineString", "coordinates": [ [ -122.611981302, 46.166715093 ], [ -122.615009405, 46.166760199 ], [ -122.615337402, 46.166879199 ] ] } },
{ "type": "Feature", "properties": { "nhdplus_comid": 24248460 }, "geometry": { "type": "LineString", "coordinates": [ [ -122.600399107, 46.163376898 ], [ -122.600498103, 46.163837895 ], [ -122.600926101, 46.164345898 ], [ -122.601688206, 46.164841898 ], [ -122.604313202, 46.165779993 ], [ -122.606526203, 46.166324995 ], [ -122.609417304, 46.166806094 ], [ -122.611981302, 46.166715093 ] ] } },
{ "type": "Feature", "properties": { "nhdplus_comid": 24248462 }, "geometry": { "type": "LineString", "coordinates": [ [ -122.586940601, 46.150837697 ], [ -122.587764703, 46.151131794 ], [ -122.589671701, 46.152267799 ], [ -122.590724707, 46.1525428 ], [ -122.592105806, 46.153259799 ], [ -122.593059801, 46.153625898 ], [ -122.593783803, 46.153778896 ], [ -122.594012804, 46.153915897 ], [ -122.594241805, 46.154404894 ], [ -122.594241805, 46.154835895 ], [ -122.593654804, 46.155632794 ], [ -122.593654804, 46.156109795 ], [ -122.5937839, 46.156479798 ], [ -122.594043903, 46.156685799 ], [ -122.594836906, 46.157097898 ], [ -122.595332906, 46.157467894 ], [ -122.595759906, 46.158096895 ], [ -122.595889904, 46.158790894 ], [ -122.596844003, 46.160045899 ], [ -122.597210005, 46.160343893 ], [ -122.597836003, 46.161075898 ], [ -122.598721005, 46.161465898 ], [ -122.599873103, 46.1617589 ], [ -122.600399107, 46.162071899 ], [ -122.600567102, 46.162327893 ], [ -122.600399107, 46.163376898 ] ] } },
{ "type": "Feature", "properties": { "nhdplus_comid": 24248464 }, "geometry": { "type": "LineString", "coordinates": [ [ -122.570132501, 46.152485393 ], [ -122.571712501, 46.153168395 ], [ -122.572139502, 46.153213397 ], [ -122.572368503, 46.153126396 ], [ -122.572925501, 46.152668394 ], [ -122.573649503, 46.151886493 ], [ -122.575099505, 46.151020497 ], [ -122.576579504, 46.150703497 ], [ -122.582370602, 46.150398694 ], [ -122.586940601, 46.150837697 ] ] } },
{ "type": "Feature", "properties": { "nhdplus_comid": 24248466 }, "geometry": { "type": "LineString", "coordinates": [ [ -122.565524407, 46.1504253 ], [ -122.566051401, 46.150635295 ], [ -122.567302406, 46.1507193 ], [ -122.568423405, 46.150978394 ], [ -122.569110401, 46.151386395 ], [ -122.569636405, 46.151954398 ], [ -122.569865406, 46.152088396 ], [ -122.570132501, 46.152485393 ] ] } },
{ "type": "Feature", "properties": { "nhdplus_comid": 24248468 }, "geometry": { "type": "LineString", "coordinates": [ [ -122.537044004, 46.1524387 ], [ -122.539210103, 46.152293794 ], [ -122.541217104, 46.152346797 ], [ -122.542140104, 46.152072795 ], [ -122.542697102, 46.152045794 ], [ -122.543391101, 46.152453795 ], [ -122.546710201, 46.153437898 ], [ -122.547664203, 46.153579898 ], [ -122.548854202, 46.153582893 ], [ -122.554050207, 46.151733093 ], [ -122.555232204, 46.151405096 ], [ -122.555530205, 46.151226096 ], [ -122.555957206, 46.1506771 ], [ -122.558292307, 46.150085196 ], [ -122.561679304, 46.150017194 ], [ -122.564014301, 46.1501773 ], [ -122.565524407, 46.1504253 ] ] } },
{ "type": "Feature", "properties": { "nhdplus_comid": 24248470 }, "geometry": { "type": "LineString", "coordinates": [ [ -122.519907802, 46.149730399 ], [ -122.521120802, 46.149680398 ], [ -122.521982804, 46.149684399 ], [ -122.524874806, 46.1501645 ], [ -122.528521903, 46.150325596 ], [ -122.531908907, 46.1508056 ], [ -122.533160001, 46.151313595 ], [ -122.535365, 46.151835695 ], [ -122.537044004, 46.1524387 ] ] } },
{ "type": "Feature", "properties": { "nhdplus_comid": 24248472 }, "geometry": { "type": "LineString", "coordinates": [ [ -122.494905606, 46.163389899 ], [ -122.495829701, 46.163141899 ], [ -122.496782705, 46.162527896 ], [ -122.497507706, 46.162252896 ], [ -122.497538701, 46.161978893 ], [ -122.497797705, 46.161566898 ], [ -122.497438602, 46.159944899 ], [ -122.4974996, 46.1588239 ], [ -122.4979956, 46.158525899 ], [ -122.498293601, 46.158174895 ], [ -122.498323604, 46.157564893 ], [ -122.498156607, 46.157194994 ], [ -122.498156607, 46.156896994 ], [ -122.498285607, 46.156717993 ], [ -122.499804601, 46.155916996 ], [ -122.501223601, 46.155359998 ], [ -122.502863601, 46.154730998 ], [ -122.503817603, 46.153997995 ], [ -122.504671603, 46.153453 ], [ -122.505724706, 46.153197095 ], [ -122.506418601, 46.152720094 ], [ -122.512407705, 46.151076198 ], [ -122.513987705, 46.150550298 ], [ -122.515169702, 46.150260299 ], [ -122.517374702, 46.150142297 ], [ -122.519907802, 46.149730399 ] ] } },
{ "type": "Feature", "properties": { "nhdplus_comid": 24248474 }, "geometry": { "type": "LineString", "coordinates": [ [ -122.492273606, 46.162756898 ], [ -122.493097603, 46.163328893 ], [ -122.494051605, 46.163412899 ], [ -122.494905606, 46.163389899 ] ] } },
{ "type": "Feature", "properties": { "nhdplus_comid": 24248476 }, "geometry": { "type": "LineString", "coordinates": [ [ -122.4637383, 46.140776299 ], [ -122.463975303, 46.141387299 ], [ -122.464005306, 46.141875297 ], [ -122.464303404, 46.142649196 ], [ -122.4654174, 46.144023195 ], [ -122.466638505, 46.145938195 ], [ -122.4682476, 46.147078194 ], [ -122.469537601, 46.148436196 ], [ -122.470651701, 46.148799196 ], [ -122.472657703, 46.149203099 ], [ -122.4746648, 46.149459094 ], [ -122.475358807, 46.149730094 ], [ -122.476670906, 46.150737099 ], [ -122.480753005, 46.153205097 ], [ -122.484995201, 46.154867999 ], [ -122.488024302, 46.155897997 ], [ -122.488680303, 46.156332999 ], [ -122.489176303, 46.156858996 ], [ -122.489740402, 46.157637 ], [ -122.490824401, 46.158594996 ], [ -122.490992405, 46.158888996 ], [ -122.491152503, 46.160612896 ], [ -122.492273606, 46.162756898 ] ] } }
]
}
