{
"type": "FeatureCollection",
"name": "local_ostrander_um",
"crs": { "type": "name", "properties": { "name": "urn:ogc:def:crs:OGC:1.3:CRS84" } },
"features": [
{ "type": "Feature", "properties": { "nhdplus_comid": 24248488 }, "geometry": { "type": "LineString", "coordinates": [ [ -122.881082803, 46.196501493 ], [ -122.881212801, 46.196310498 ], [ -122.881448805, 46.1961805 ], [ -122.885003805, 46.195173495 ], [ -122.886545904, 46.195131496 ], [ -122.888330907, 46.194540396 ], [ -122.889146902, 46.194509394 ], [ -122.890139006, 46.1953144 ], [ -122.890795, 46.195520394 ], [ -122.892443001, 46.195494398 ], [ -122.893031001, 46.1953144 ], [ -122.893755004, 46.194883399 ], [ -122.895800106, 46.194384396 ], [ -122.896357104, 46.193987399 ], [ -122.896983102, 46.193079397 ], [ -122.897684105, 46.192640394 ] ] } },
{ "type": "Feature", "properties": { "nhdplus_comid": 24248490 }, "geometry": { "type": "LineString", "coordinates": [ [ -122.852579504, 46.209654696 ], [ -122.852640502, 46.209463693 ], [ -122.853303507, 46.208944693 ], [ -122.854654506, 46.208353698 ], [ -122.855996504, 46.208048694 ], [ -122.856920503, 46.208029695 ], [ -122.859491602, 46.208322696 ], [ -122.859750606, 46.208231695 ], [ -122.859788604, 46.207861699 ], [ -122.859689601, 46.207708694 ], [ -122.859689601, 46.207357697 ], [ -122.859819606, 46.207132697 ], [ -122.860216603, 46.206881694 ], [ -122.860940605, 46.206793696 ], [ -122.861528605, 46.206945695 ], [ -122.861764602, 46.207109697 ], [ -122.861993603, 46.208387598 ], [ -122.862253703, 46.208963595 ], [ -122.862520702, 46.209074594 ], [ -122.863275707, 46.209074594 ], [ -122.864923701, 46.208525598 ], [ -122.865648702, 46.208155595 ], [ -122.866243705, 46.207701594 ], [ -122.867158704, 46.206694596 ], [ -122.868707702, 46.2043176 ], [ -122.869195707, 46.203787595 ], [ -122.870843701, 46.203375593 ], [ -122.871736705, 46.203016594 ], [ -122.872720703, 46.202738598 ], [ -122.875223801, 46.201822497 ], [ -122.876230806, 46.201254494 ], [ -122.878976807, 46.199144498 ], [ -122.880357802, 46.198374495 ], [ -122.881212801, 46.197527498 ], [ -122.881082803, 46.196501493 ] ] } },
{ "type": "Feature", "properties": { "nhdplus_comid": 24248492 }, "geometry": { "type": "LineString", "coordinates": [ [ -122.780457102, 46.219665498 ], [ -122.782204203, 46.219531499 ], [ -122.784050204, 46.2197145 ], [ -122.786026306, 46.220401496 ], [ -122.787506305, 46.221339397 ], [ -122.790009402, 46.2236204 ], [ -122.790963501, 46.224338397 ], [ -122.791718505, 46.225615397 ], [ -122.791786507, 46.225909397 ], [ -122.792969607, 46.226661295 ], [ -122.793923602, 46.226844296 ], [ -122.796395704, 46.228404298 ], [ -122.796959706, 46.228469297 ], [ -122.799195804, 46.228446297 ], [ -122.800774805, 46.228972197 ], [ -122.802391902, 46.2299072 ], [ -122.804100901, 46.231353194 ], [ -122.806115001, 46.234092094 ], [ -122.806970105, 46.234595098 ], [ -122.808320105, 46.234599099 ], [ -122.809472106, 46.234439097 ], [ -122.809968106, 46.234504096 ], [ -122.810624205, 46.2348281 ], [ -122.810922205, 46.235396095 ], [ -122.811220206, 46.235675097 ], [ -122.811548203, 46.235740095 ], [ -122.8123722, 46.235534094 ], [ -122.8128682, 46.235648096 ], [ -122.814615302, 46.236353993 ], [ -122.816850305, 46.236700997 ], [ -122.818170406, 46.236677997 ], [ -122.822152406, 46.235422894 ], [ -122.822877407, 46.235262893 ], [ -122.823869504, 46.2352819 ], [ -122.825418502, 46.234663896 ], [ -122.826013505, 46.234274894 ], [ -122.826272503, 46.233755894 ], [ -122.826402403, 46.232763894 ], [ -122.826570407, 46.232496895 ], [ -122.827127405, 46.2320619 ], [ -122.827524506, 46.231901899 ], [ -122.829240501, 46.231554896 ], [ -122.829797506, 46.231375895 ], [ -122.831415504, 46.2306199 ], [ -122.833680503, 46.230211794 ], [ -122.837900601, 46.229731798 ], [ -122.838594601, 46.229589798 ], [ -122.8392196, 46.229319796 ], [ -122.839944601, 46.228788793 ], [ -122.840570606, 46.2272598 ], [ -122.840928607, 46.226728797 ], [ -122.841623604, 46.226091795 ], [ -122.841913603, 46.225542799 ], [ -122.841882505, 46.223047793 ], [ -122.841882505, 46.222246796 ], [ -122.8419815, 46.221476793 ], [ -122.841318503, 46.220995799 ], [ -122.841089502, 46.220716797 ], [ -122.8411275, 46.219942793 ], [ -122.841356501, 46.219648793 ], [ -122.842141502, 46.219252795 ], [ -122.8434925, 46.218046799 ], [ -122.8446135, 46.217131793 ], [ -122.845209502, 46.216806799 ], [ -122.845994502, 46.216558799 ], [ -122.848962501, 46.216505699 ], [ -122.849489607, 46.2163307 ], [ -122.849977605, 46.215940699 ], [ -122.850931503, 46.214521699 ], [ -122.850831501, 46.212305695 ], [ -122.851030506, 46.211729698 ], [ -122.851655506, 46.2104977 ], [ -122.852579504, 46.209654696 ] ] } },
{ "type": "Feature", "properties": { "nhdplus_comid": 24248494 }, "geometry": { "type": "LineString", "coordinates": [ [ -122.756042302, 46.205691896 ], [ -122.757781304, 46.206099793 ], [ -122.760642402, 46.207293794 ], [ -122.761794403, 46.207950793 ], [ -122.763183504, 46.208919793 ], [ -122.763541505, 46.209281795 ], [ -122.764526606, 46.210811697 ], [ -122.764922604, 46.211043693 ], [ -122.768935703, 46.211963698 ], [ -122.770454705, 46.212390698 ], [ -122.771407805, 46.212852694 ], [ -122.772231802, 46.2133286 ], [ -122.773811907, 46.215095595 ], [ -122.774368905, 46.215529598 ], [ -122.775719002, 46.2160566 ], [ -122.776673004, 46.216620594 ], [ -122.778054103, 46.217994593 ], [ -122.778321102, 46.218337595 ], [ -122.7793051, 46.219211496 ], [ -122.780457102, 46.219665498 ] ] } }
]
}
