{
"type": "FeatureCollection",
"name": "local_arkansas_dm",
"crs": { "type": "name", "properties": { "name": "urn:ogc:def:crs:OGC:1.3:CRS84" } },
"features": [
{ "type": "Feature", "properties": { "nhdplus_comid": 24249178 }, "geometry": { "type": "LineString", "coordinates": [ [ -122.917172104, 46.265733398 ], [ -122.916424103, 46.266206399 ] ] } },
{ "type": "Feature", "properties": { "nhdplus_comid": 24248508 }, "geometry": { "type": "LineString", "coordinates": [ [ -122.916424103, 46.266206399 ], [ -122.913617104, 46.266335398 ], [ -122.910107002, 46.266873397 ], [ -122.907727003, 46.267232396 ], [ -122.906391904, 46.2668925 ], [ -122.904201902, 46.265283495 ], [ -122.901821807, 46.264039598 ], [ -122.900592707, 46.262799598 ], [ -122.899929702, 46.261872694 ], [ -122.897899501, 46.258023798 ], [ -122.896297403, 46.255212799 ], [ -122.894840404, 46.253865898 ], [ -122.892589301, 46.252915896 ], [ -122.890674204, 46.252175994 ], [ -122.8885682, 46.251893997 ], [ -122.887447201, 46.251267999 ] ] } },
{ "type": "Feature", "properties": { "nhdplus_comid": 24248506 }, "geometry": { "type": "LineString", "coordinates": [ [ -122.887447201, 46.251267999 ], [ -122.887104101, 46.250760995 ], [ -122.887264103, 46.2493231 ], [ -122.8885151, 46.248338997 ], [ -122.889575101, 46.246923 ], [ -122.889827102, 46.245302096 ], [ -122.889644004, 46.242556095 ], [ -122.889827006, 46.241297096 ] ] } },
{ "type": "Feature", "properties": { "nhdplus_comid": 24248504 }, "geometry": { "type": "LineString", "coordinates": [ [ -122.889827006, 46.241297096 ], [ -122.890094005, 46.2409271 ], [ -122.890521005, 46.240396097 ], [ -122.891712002, 46.2394621 ] ] } },
{ "type": "Feature", "properties": { "nhdplus_comid": 24248502 }, "geometry": { "type": "LineString", "coordinates": [ [ -122.891712002, 46.2394621 ], [ -122.893405005, 46.238798097 ], [ -122.895320006, 46.238736995 ], [ -122.899860203, 46.240613997 ], [ -122.9012262, 46.241128899 ], [ -122.902774304, 46.241189897 ], [ -122.9039343, 46.2403889 ], [ -122.905673206, 46.237672895 ], [ -122.906551205, 46.235913895 ], [ -122.906612203, 46.234761894 ], [ -122.906337202, 46.233796895 ], [ -122.905139104, 46.232732996 ], [ -122.903224103, 46.231988996 ], [ -122.901592001, 46.232201993 ], [ -122.898914002, 46.232320994 ], [ -122.897265904, 46.232447095 ], [ -122.895564906, 46.232225098 ], [ -122.894450903, 46.231687099 ], [ -122.894099802, 46.231092095 ], [ -122.894854806, 46.230230093 ], [ -122.897944905, 46.228659093 ], [ -122.900149904, 46.226442099 ], [ -122.904704906, 46.222798996 ], [ -122.906451903, 46.220883995 ], [ -122.908282906, 46.218697995 ], [ -122.913943902, 46.214787997 ], [ -122.914851904, 46.214097999 ] ] } },
{ "type": "Feature", "properties": { "nhdplus_comid": 24248500 }, "geometry": { "type": "LineString", "coordinates": [ [ -122.914851904, 46.214097999 ], [ -122.915385902, 46.211831994 ], [ -122.914164804, 46.209790997 ], [ -122.911715701, 46.207308099 ], [ -122.910868704, 46.206041098 ], [ -122.9104186, 46.204828098 ], [ -122.910723604, 46.203558095 ], [ -122.9113416, 46.201822095 ], [ -122.912775606, 46.200376093 ] ] } },
{ "type": "Feature", "properties": { "nhdplus_comid": 24248498 }, "geometry": { "type": "LineString", "coordinates": [ [ -122.912775606, 46.200376093 ], [ -122.912875503, 46.198587097 ], [ -122.9122575, 46.197771199 ], [ -122.911105506, 46.1971232 ], [ -122.908572406, 46.195719197 ] ] } }
]
}
