{
"type": "FeatureCollection",
"name": "local_ostrander_dm",
"crs": { "type": "name", "properties": { "name": "urn:ogc:def:crs:OGC:1.3:CRS84" } },
"features": [
{ "type": "Feature", "properties": { "nhdplus_comid": 24248488 }, "geometry": { "type": "LineString", "coordinates": [ [ -122.881082803, 46.196501493 ], [ -122.881212801, 46.196310498 ], [ -122.881448805, 46.1961805 ], [ -122.885003805, 46.195173495 ], [ -122.886545904, 46.195131496 ], [ -122.888330907, 46.194540396 ], [ -122.889146902, 46.194509394 ], [ -122.890139006, 46.1953144 ], [ -122.890795, 46.195520394 ], [ -122.892443001, 46.195494398 ], [ -122.893031001, 46.1953144 ], [ -122.893755004, 46.194883399 ], [ -122.895800106, 46.194384396 ], [ -122.896357104, 46.193987399 ], [ -122.896983102, 46.193079397 ], [ -122.897684105, 46.192640394 ] ] } },
{ "type": "Feature", "properties": { "nhdplus_comid": 24248486 }, "geometry": { "type": "LineString", "coordinates": [ [ -122.897684105, 46.192640394 ], [ -122.898386106, 46.1922324 ] ] } },
{ "type": "Feature", "properties": { "nhdplus_comid": 24248484 }, "geometry": { "type": "LineString", "coordinates": [ [ -122.898386106, 46.1922324 ], [ -122.897997007, 46.190573394 ], [ -122.898150004, 46.189135395 ], [ -122.898463003, 46.188665397 ], [ -122.900385, 46.185492396 ], [ -122.901010901, 46.183756396 ], [ -122.9021319, 46.180376396 ] ] } },
{ "type": "Feature", "properties": { "nhdplus_comid": 24248482 }, "geometry": { "type": "LineString", "coordinates": [ [ -122.9021319, 46.180376396 ], [ -122.902864903, 46.179342397 ], [ -122.9040929, 46.178179398 ], [ -122.905267902, 46.177553393 ], [ -122.9073129, 46.177484393 ], [ -122.908793002, 46.1771034 ], [ -122.912783004, 46.174837299 ], [ -122.913493, 46.173624299 ], [ -122.913865902, 46.169592395 ] ] } },
{ "type": "Feature", "properties": { "nhdplus_comid": 24248480 }, "geometry": { "type": "LineString", "coordinates": [ [ -122.913865902, 46.169592395 ], [ -122.914781801, 46.164896399 ], [ -122.914644703, 46.157095499 ] ] } },
{ "type": "Feature", "properties": { "nhdplus_comid": 24248478 }, "geometry": { "type": "LineString", "coordinates": [ [ -122.914644703, 46.157095499 ], [ -122.913438506, 46.150480494 ], [ -122.9137595, 46.148851499 ], [ -122.914850406, 46.1430576 ], [ -122.9152923, 46.141321599 ], [ -122.916208304, 46.139849596 ], [ -122.917520307, 46.138143599 ], [ -122.918062307, 46.136099599 ], [ -122.919275306, 46.1338026 ], [ -122.920907207, 46.130468599 ], [ -122.921281204, 46.128336594 ], [ -122.920572102, 46.1238847 ], [ -122.919336006, 46.121576697 ], [ -122.916802905, 46.119268797 ], [ -122.913842805, 46.117895797 ], [ -122.909867704, 46.116499797 ], [ -122.902886502, 46.115236893 ], [ -122.899880402, 46.114466898 ], [ -122.897538304, 46.113344997 ], [ -122.893807203, 46.110727996 ], [ -122.892571107, 46.109320998 ], [ -122.891732, 46.107684098 ], [ -122.891594, 46.106795095 ] ] } }
]
}
