{
"type": "FeatureCollection",
"name": "tilton_dm",
"crs": { "type": "name", "properties": { "name": "urn:ogc:def:crs:OGC:1.3:CRS84" } },
"features": [
{ "type": "Feature", "properties": { "nhdplus_comid": 24249044 }, "geometry": { "type": "LineString", "coordinates": [ [ -122.270502903, 46.568529896 ], [ -122.270464905, 46.567339897 ], [ -122.270929903, 46.566972896 ], [ -122.2711289, 46.566427894 ], [ -122.271463901, 46.566087894 ], [ -122.272959903, 46.5647109 ], [ -122.2741189, 46.563818894 ], [ -122.274614803, 46.562200993 ], [ -122.2750118, 46.561941996 ], [ -122.2756759, 46.561945997 ], [ -122.276735902, 46.562357895 ], [ -122.277330905, 46.562452897 ], [ -122.278063901, 46.562177896 ], [ -122.278888002, 46.561723895 ], [ -122.279750004, 46.561441898 ], [ -122.282039002, 46.561014898 ], [ -122.2826721, 46.560964897 ], [ -122.283465102, 46.561239898 ], [ -122.283992104, 46.561170898 ], [ -122.285052106, 46.560468897 ], [ -122.287868202, 46.559683897 ], [ -122.288272202, 46.559507899 ], [ -122.289859205, 46.5583179 ], [ -122.292178303, 46.557066895 ], [ -122.294002302, 46.556463897 ], [ -122.2943983, 46.556123897 ], [ -122.294726305, 46.555227898 ] ] } },
{ "type": "Feature", "properties": { "nhdplus_comid": 24249042 }, "geometry": { "type": "LineString", "coordinates": [ [ -122.294726305, 46.555227898 ], [ -122.295062304, 46.555094898 ], [ -122.295726307, 46.554979898 ], [ -122.296657301, 46.555181898 ], [ -122.301227607, 46.557310797 ], [ -122.303874701, 46.5585237 ], [ -122.304240704, 46.558595695 ] ] } },
{ "type": "Feature", "properties": { "nhdplus_comid": 24249040 }, "geometry": { "type": "LineString", "coordinates": [ [ -122.304240704, 46.558595695 ], [ -122.306262806, 46.559644699 ], [ -122.309109002, 46.560785696 ], [ -122.311199106, 46.561701596 ], [ -122.312130101, 46.562181599 ], [ -122.313854203, 46.563207597 ], [ -122.314510301, 46.563734598 ], [ -122.314976305, 46.564359598 ], [ -122.3151443, 46.564672597 ], [ -122.315411307, 46.565313496 ], [ -122.3154414, 46.566000499 ], [ -122.315571405, 46.566366494 ], [ -122.315571405, 46.567259498 ], [ -122.314976402, 46.568174496 ], [ -122.313816406, 46.569128498 ], [ -122.313954405, 46.569723494 ], [ -122.314480506, 46.570131496 ], [ -122.317829601, 46.571619399 ], [ -122.318462707, 46.571829394 ], [ -122.319019705, 46.571924396 ], [ -122.3203777, 46.571924396 ], [ -122.320843704, 46.572080396 ], [ -122.3215378, 46.572649397 ], [ -122.321842805, 46.5730654 ], [ -122.322270803, 46.573354393 ], [ -122.322834902, 46.573564395 ], [ -122.324627906, 46.573793299 ], [ -122.327603102, 46.574846298 ], [ -122.328969106, 46.575021297 ], [ -122.329663105, 46.574957296 ], [ -122.3302892, 46.575121298 ], [ -122.331121206, 46.5756393 ], [ -122.331655204, 46.576280199 ], [ -122.332082301, 46.576627195 ], [ -122.334439404, 46.577493198 ], [ -122.334668405, 46.577810198 ], [ -122.334935404, 46.579191193 ], [ -122.335164502, 46.579759195 ], [ -122.335599504, 46.5800111 ], [ -122.336026505, 46.580007099 ], [ -122.336957507, 46.579778098 ], [ -122.337751605, 46.579801098 ], [ -122.339177601, 46.5802131 ], [ -122.340009704, 46.580831096 ], [ -122.340375803, 46.584008999 ], [ -122.3407038, 46.584325999 ], [ -122.341436803, 46.584763996 ], [ -122.3418639, 46.584809996 ], [ -122.342130907, 46.584714994 ], [ -122.342130907, 46.584515996 ], [ -122.341802806, 46.584214993 ], [ -122.341703802, 46.584050998 ], [ -122.341703802, 46.583573997 ], [ -122.341832802, 46.583367996 ], [ -122.342366807, 46.583165996 ], [ -122.342992805, 46.583070993 ], [ -122.3433588, 46.582525 ], [ -122.347006001, 46.583909996 ], [ -122.349058107, 46.585400894 ], [ -122.349890202, 46.585835896 ], [ -122.350821204, 46.586175896 ], [ -122.351980202, 46.586064897 ], [ -122.352209203, 46.585919894 ], [ -122.352247201, 46.5851909 ], [ -122.352476202, 46.584466897 ], [ -122.353003204, 46.583775893 ], [ -122.353735201, 46.583272897 ], [ -122.354864202, 46.582974896 ], [ -122.355124205, 46.582993895 ] ] } },
{ "type": "Feature", "properties": { "nhdplus_comid": 24249038 }, "geometry": { "type": "LineString", "coordinates": [ [ -122.355124205, 46.582993895 ], [ -122.356383301, 46.582902893 ], [ -122.358305305, 46.582398899 ], [ -122.358702302, 46.5822239 ], [ -122.362051405, 46.581414893 ], [ -122.363676503, 46.580846898 ], [ -122.365072504, 46.580548897 ], [ -122.366125502, 46.580453895 ], [ -122.367560603, 46.580704793 ], [ -122.369215705, 46.581258796 ], [ -122.371504806, 46.581734799 ], [ -122.3731298, 46.581845798 ], [ -122.375014901, 46.582097799 ], [ -122.3762279, 46.582417697 ], [ -122.376631901, 46.582528695 ], [ -122.378021002, 46.5832837 ], [ -122.378356002, 46.583287694 ], [ -122.378722005, 46.582799695 ], [ -122.379318006, 46.5816627 ], [ -122.379951, 46.580865696 ], [ -122.380378, 46.580544695 ], [ -122.381171003, 46.580178693 ], [ -122.383064106, 46.5790077 ], [ -122.384063102, 46.578553699 ], [ -122.384757102, 46.5784427 ], [ -122.385886103, 46.578492694 ], [ -122.386749201, 46.5787137 ], [ -122.388969302, 46.580247596 ], [ -122.389297307, 46.580365598 ], [ -122.390090302, 46.580414593 ], [ -122.390655406, 46.580300599 ], [ -122.391250402, 46.579953596 ], [ -122.391387403, 46.579793595 ], [ -122.392181404, 46.579320595 ], [ -122.392646402, 46.5793126 ], [ -122.393340401, 46.579884596 ], [ -122.394035503, 46.580022596 ], [ -122.395797506, 46.579678595 ] ] } },
{ "type": "Feature", "properties": { "nhdplus_comid": 24249036 }, "geometry": { "type": "LineString", "coordinates": [ [ -122.395797506, 46.579678595 ], [ -122.397552602, 46.579472594 ], [ -122.400237605, 46.578946598 ], [ -122.403487705, 46.577832498 ], [ -122.403884701, 46.577561595 ], [ -122.404617704, 46.576756597 ], [ -122.405044705, 46.576550595 ], [ -122.408057801, 46.577100493 ], [ -122.411141001, 46.5778175 ], [ -122.411843002, 46.5781985 ], [ -122.412072003, 46.578450494 ], [ -122.412369005, 46.578568496 ], [ -122.413361102, 46.579591393 ], [ -122.414322205, 46.580399394 ], [ -122.414887205, 46.580582395 ], [ -122.416016206, 46.5804144 ], [ -122.417244203, 46.579919398 ], [ -122.418137304, 46.579434395 ], [ -122.418869302, 46.578908399 ], [ -122.420060307, 46.578519396 ], [ -122.421784304, 46.578088395 ], [ -122.423012406, 46.578156397 ], [ -122.423409402, 46.578335397 ], [ -122.423737407, 46.578637399 ], [ -122.423706405, 46.5796903 ], [ -122.423439503, 46.581334293 ], [ -122.423470505, 46.582181297 ], [ -122.423806503, 46.582589298 ], [ -122.424431607, 46.582867295 ], [ -122.426789701, 46.583440296 ], [ -122.427513704, 46.583848193 ], [ -122.428116702, 46.584717199 ], [ -122.428246707, 46.5850842 ], [ -122.428543806, 46.585473195 ], [ -122.430001803, 46.5863012 ], [ -122.430695906, 46.586934194 ], [ -122.430962905, 46.587304197 ], [ -122.433351003, 46.588647097 ], [ -122.4346781, 46.589589097 ], [ -122.435075104, 46.589978099 ], [ -122.435411103, 46.590638094 ], [ -122.435708106, 46.591008097 ], [ -122.436372206, 46.591325 ], [ -122.438058205, 46.591785997 ], [ -122.4385923, 46.592010997 ], [ -122.440545402, 46.593425997 ], [ -122.441041403, 46.594005994 ], [ -122.441408403, 46.594497994 ], [ -122.442239501, 46.595096894 ], [ -122.442766502, 46.5952539 ], [ -122.446214601, 46.594703898 ], [ -122.447145604, 46.594707899 ], [ -122.448999703, 46.595119894 ], [ -122.450830705, 46.595123895 ], [ -122.452386804, 46.595211796 ], [ -122.453744903, 46.595413797 ], [ -122.455469906, 46.595325798 ], [ -122.457362004, 46.595394798 ] ] } },
{ "type": "Feature", "properties": { "nhdplus_comid": 24249034 }, "geometry": { "type": "LineString", "coordinates": [ [ -122.457362004, 46.595394798 ], [ -122.458918005, 46.595249794 ], [ -122.459910005, 46.595047794 ], [ -122.460841104, 46.594757795 ], [ -122.461802103, 46.5947228 ], [ -122.463091202, 46.595279694 ], [ -122.464518204, 46.595619693 ], [ -122.465647206, 46.5955237 ], [ -122.467410304, 46.594452694 ], [ -122.468699306, 46.594043694 ], [ -122.469393305, 46.594131693 ], [ -122.470553406, 46.594883695 ], [ -122.471621402, 46.595184699 ], [ -122.472178504, 46.595436595 ], [ -122.4726815, 46.595935598 ], [ -122.473307505, 46.596351594 ], [ -122.474802606, 46.597080596 ] ] } },
{ "type": "Feature", "properties": { "nhdplus_comid": 24249032 }, "geometry": { "type": "LineString", "coordinates": [ [ -122.474802606, 46.597080596 ], [ -122.475535601, 46.597335599 ], [ -122.475733601, 46.597561598 ], [ -122.4769627, 46.5979736 ], [ -122.477618702, 46.5979736 ], [ -122.478480704, 46.597717598 ], [ -122.479311705, 46.597099595 ], [ -122.479311705, 46.596828595 ], [ -122.478846706, 46.596592598 ], [ -122.478350706, 46.596141599 ], [ -122.478251703, 46.595295593 ], [ -122.4788156, 46.593830593 ], [ -122.479174607, 46.593418598 ], [ -122.479968704, 46.5932616 ], [ -122.480570704, 46.593471594 ], [ -122.480997704, 46.593742594 ], [ -122.481600702, 46.594745599 ], [ -122.481829807, 46.594970599 ], [ -122.482165806, 46.595638596 ], [ -122.482790805, 46.5960465 ], [ -122.483492807, 46.596019499 ], [ -122.4843859, 46.595817499 ], [ -122.485575907, 46.595203497 ], [ -122.487269901, 46.594074495 ], [ -122.487765901, 46.593853496 ], [ -122.489688002, 46.593322493 ], [ -122.490352005, 46.593441494 ], [ -122.491611101, 46.593872495 ], [ -122.492107101, 46.594261497 ] ] } },
{ "type": "Feature", "properties": { "nhdplus_comid": 24249030 }, "geometry": { "type": "LineString", "coordinates": [ [ -122.492107101, 46.594261497 ], [ -122.493236102, 46.593509495 ], [ -122.4946931, 46.592022493 ], [ -122.494991101, 46.591446497 ], [ -122.494922101, 46.590122499 ], [ -122.494861104, 46.589801498 ] ] } },
{ "type": "Feature", "properties": { "nhdplus_comid": 24249028 }, "geometry": { "type": "LineString", "coordinates": [ [ -122.494861104, 46.589801498 ], [ -122.494823106, 46.589348495 ], [ -122.494495004, 46.588611498 ], [ -122.494495004, 46.587494597 ], [ -122.494754001, 46.587082595 ], [ -122.495182, 46.586830594 ], [ -122.498004101, 46.586094499 ], [ -122.499233104, 46.585987493 ], [ -122.501224205, 46.585479498 ], [ -122.501667202, 46.585411496 ], [ -122.5024902, 46.585045494 ], [ -122.502826206, 46.584793493 ], [ -122.504016206, 46.584358498 ], [ -122.504749201, 46.584289499 ], [ -122.505344205, 46.584385499 ], [ -122.508258305, 46.585251495 ], [ -122.508922301, 46.585685499 ], [ -122.509456307, 46.5857585 ], [ -122.5097543, 46.585617498 ], [ -122.509883307, 46.585392497 ], [ -122.509784304, 46.584366493 ], [ -122.509952307, 46.584041499 ], [ -122.510753304, 46.583198495 ], [ -122.511615306, 46.581665598 ], [ -122.514827304, 46.580040596 ], [ -122.5152473, 46.579746597 ] ] } },
{ "type": "Feature", "properties": { "nhdplus_comid": 24249026 }, "geometry": { "type": "LineString", "coordinates": [ [ -122.5152473, 46.579746597 ], [ -122.516590305, 46.579155594 ] ] } },
{ "type": "Feature", "properties": { "nhdplus_comid": 24248960 }, "geometry": { "type": "LineString", "coordinates": [ [ -122.516590305, 46.579155594 ], [ -122.519214302, 46.577461593 ], [ -122.522609301, 46.575912595 ], [ -122.526027203, 46.570552699 ], [ -122.533565305, 46.5682678 ], [ -122.536006302, 46.565105796 ], [ -122.538799301, 46.5631378 ], [ -122.537288107, 46.556854896 ], [ -122.534679003, 46.554588996 ], [ -122.535090804, 46.545655094 ] ] } },
{ "type": "Feature", "properties": { "nhdplus_comid": 24248956 }, "geometry": { "type": "LineString", "coordinates": [ [ -122.535090804, 46.545655094 ], [ -122.547503904, 46.5417412 ] ] } },
{ "type": "Feature", "properties": { "nhdplus_comid": 24248954 }, "geometry": { "type": "LineString", "coordinates": [ [ -122.547503904, 46.5417412 ], [ -122.558238007, 46.540078193 ], [ -122.561351001, 46.537324198 ], [ -122.564028703, 46.523617499 ], [ -122.5659815, 46.515023597 ], [ -122.574633405, 46.508111693 ] ] } },
{ "type": "Feature", "properties": { "nhdplus_comid": 24248952 }, "geometry": { "type": "LineString", "coordinates": [ [ -122.574633405, 46.508111693 ], [ -122.579516403, 46.505398795 ] ] } },
{ "type": "Feature", "properties": { "nhdplus_comid": 24248950 }, "geometry": { "type": "LineString", "coordinates": [ [ -122.579516403, 46.505398795 ], [ -122.588320501, 46.503178798 ] ] } },
{ "type": "Feature", "properties": { "nhdplus_comid": 24248948 }, "geometry": { "type": "LineString", "coordinates": [ [ -122.588320501, 46.503178798 ], [ -122.589480504, 46.502946794 ], [ -122.590937503, 46.502953798 ], [ -122.591860503, 46.502721794 ], [ -122.593119502, 46.502907798 ], [ -122.594111502, 46.503182799 ], [ -122.5951415, 46.503068797 ], [ -122.595866606, 46.503087796 ], [ -122.596362606, 46.503251798 ], [ -122.597292602, 46.5039308 ], [ -122.597956605, 46.504254796 ], [ -122.598612607, 46.504323795 ] ] } },
{ "type": "Feature", "properties": { "nhdplus_comid": 24248946 }, "geometry": { "type": "LineString", "coordinates": [ [ -122.598612607, 46.504323795 ], [ -122.600710705, 46.505223796 ], [ -122.601984702, 46.506085798 ], [ -122.603327706, 46.506596796 ], [ -122.606013805, 46.506833799 ], [ -122.606600806, 46.506528795 ], [ -122.6077528, 46.506619796 ], [ -122.609934904, 46.507676698 ], [ -122.612582907, 46.508439697 ], [ -122.614017002, 46.509553693 ], [ -122.61507, 46.509824693 ], [ -122.616352007, 46.509904698 ], [ -122.618404001, 46.509312697 ], [ -122.620143004, 46.508313693 ], [ -122.622447006, 46.507706799 ], [ -122.625469103, 46.507657796 ], [ -122.627941102, 46.5080847 ], [ -122.630779207, 46.509267695 ], [ -122.633098304, 46.511185698 ], [ -122.634342305, 46.512662694 ], [ -122.6364474, 46.514409594 ] ] } },
{ "type": "Feature", "properties": { "nhdplus_comid": 24248944 }, "geometry": { "type": "LineString", "coordinates": [ [ -122.6364474, 46.514409594 ], [ -122.637821503, 46.515538596 ], [ -122.6380345, 46.515893593 ], [ -122.638042502, 46.515904598 ] ] } },
{ "type": "Feature", "properties": { "nhdplus_comid": 24248942 }, "geometry": { "type": "LineString", "coordinates": [ [ -122.638042502, 46.515904598 ], [ -122.638629504, 46.516225599 ] ] } },
{ "type": "Feature", "properties": { "nhdplus_comid": 24248940 }, "geometry": { "type": "LineString", "coordinates": [ [ -122.638629504, 46.516225599 ], [ -122.639293507, 46.5162936 ], [ -122.639888503, 46.516221598 ], [ -122.640216507, 46.516015597 ] ] } },
{ "type": "Feature", "properties": { "nhdplus_comid": 24248938 }, "geometry": { "type": "LineString", "coordinates": [ [ -122.640216507, 46.516015597 ], [ -122.641231507, 46.515546598 ], [ -122.641300507, 46.515523598 ] ] } },
{ "type": "Feature", "properties": { "nhdplus_comid": 24248936 }, "geometry": { "type": "LineString", "coordinates": [ [ -122.641300507, 46.515523598 ], [ -122.643260501, 46.514786594 ], [ -122.644016504, 46.513947599 ], [ -122.644245401, 46.509747699 ], [ -122.643596202, 46.505612798 ] ] } },
{ "type": "Feature", "properties": { "nhdplus_comid": 24248934 }, "geometry": { "type": "LineString", "coordinates": [ [ -122.643596202, 46.505612798 ], [ -122.6441532, 46.504349798 ], [ -122.645946205, 46.501252897 ], [ -122.646259107, 46.500008896 ], [ -122.645168103, 46.498696893 ], [ -122.644535102, 46.497872896 ], [ -122.644496001, 46.496831894 ], [ -122.645496003, 46.495969996 ], [ -122.647190005, 46.495496996 ], [ -122.649158105, 46.495175995 ] ] } },
{ "type": "Feature", "properties": { "nhdplus_comid": 24248932 }, "geometry": { "type": "LineString", "coordinates": [ [ -122.649158105, 46.495175995 ], [ -122.651409104, 46.495007999 ], [ -122.651409104, 46.495003998 ] ] } },
{ "type": "Feature", "properties": { "nhdplus_comid": 24248930 }, "geometry": { "type": "LineString", "coordinates": [ [ -122.651409104, 46.495003998 ], [ -122.652790107, 46.495774999 ], [ -122.654125206, 46.496197999 ], [ -122.6582902, 46.497021995 ], [ -122.659450203, 46.497014999 ] ] } },
{ "type": "Feature", "properties": { "nhdplus_comid": 24248928 }, "geometry": { "type": "LineString", "coordinates": [ [ -122.659450203, 46.497014999 ], [ -122.659557201, 46.497014999 ], [ -122.664272301, 46.498929895 ], [ -122.670474507, 46.502213895 ], [ -122.672710605, 46.504399799 ], [ -122.675044701, 46.507188797 ], [ -122.677257806, 46.509198695 ], [ -122.678668804, 46.509354696 ], [ -122.679958805, 46.509141698 ], [ -122.681323804, 46.508546799 ] ] } },
{ "type": "Feature", "properties": { "nhdplus_comid": 24248926 }, "geometry": { "type": "LineString", "coordinates": [ [ -122.681323804, 46.508546799 ], [ -122.6824148, 46.5066958 ], [ -122.682559803, 46.506234795 ], [ -122.682941802, 46.505200796 ], [ -122.682659701, 46.5041788 ], [ -122.681079701, 46.502988897 ], [ -122.678211607, 46.501633897 ], [ -122.677661501, 46.500542894 ], [ -122.677768506, 46.499573894 ], [ -122.6784705, 46.497605994 ], [ -122.6795085, 46.496220998 ], [ -122.681545503, 46.494675994 ] ] } },
{ "type": "Feature", "properties": { "nhdplus_comid": 24248924 }, "geometry": { "type": "LineString", "coordinates": [ [ -122.681545503, 46.494675994 ], [ -122.683124505, 46.494294994 ], [ -122.685871504, 46.494089 ], [ -122.6881596, 46.494179994 ], [ -122.6910896, 46.493524 ], [ -122.693599604, 46.492639095 ], [ -122.699054606, 46.490400098 ], [ -122.701137707, 46.489965096 ] ] } },
{ "type": "Feature", "properties": { "nhdplus_comid": 24248922 }, "geometry": { "type": "LineString", "coordinates": [ [ -122.701137707, 46.489965096 ], [ -122.701595701, 46.4899121 ], [ -122.7028547, 46.489576094 ], [ -122.704082705, 46.489137098 ], [ -122.706661701, 46.487814195 ] ] } },
{ "type": "Feature", "properties": { "nhdplus_comid": 24248920 }, "geometry": { "type": "LineString", "coordinates": [ [ -122.706661701, 46.487814195 ], [ -122.707790703, 46.4873062 ], [ -122.710704707, 46.4865622 ], [ -122.711719707, 46.486265197 ] ] } },
{ "type": "Feature", "properties": { "nhdplus_comid": 24248918 }, "geometry": { "type": "LineString", "coordinates": [ [ -122.711719707, 46.486265197 ], [ -122.712535702, 46.486166194 ], [ -122.716510803, 46.4865622 ], [ -122.719997801, 46.486215197 ], [ -122.725460902, 46.484846294 ], [ -122.729648903, 46.483396299 ], [ -122.732036904, 46.483305298 ], [ -122.733243003, 46.4829503 ], [ -122.737416007, 46.482984297 ], [ -122.740788102, 46.483518295 ], [ -122.741894104, 46.483347297 ] ] } },
{ "type": "Feature", "properties": { "nhdplus_comid": 24248916 }, "geometry": { "type": "LineString", "coordinates": [ [ -122.741894104, 46.483347297 ], [ -122.742466107, 46.482954293 ], [ -122.742650107, 46.4817224 ], [ -122.741597004, 46.479883395 ], [ -122.740658, 46.478731394 ], [ -122.739513904, 46.477861397 ], [ -122.7369119, 46.475790493 ], [ -122.735546805, 46.473539494 ], [ -122.734996803, 46.471662596 ], [ -122.735332802, 46.469808593 ], [ -122.737018704, 46.467676699 ], [ -122.738513701, 46.466779694 ], [ -122.740138806, 46.466657698 ], [ -122.744541802, 46.467371695 ] ] } },
{ "type": "Feature", "properties": { "nhdplus_comid": 24248914 }, "geometry": { "type": "LineString", "coordinates": [ [ -122.744541802, 46.467371695 ], [ -122.745044805, 46.467333697 ], [ -122.748859905, 46.465914696 ], [ -122.749637902, 46.464460798 ], [ -122.749851801, 46.461828798 ] ] } },
{ "type": "Feature", "properties": { "nhdplus_comid": 24248912 }, "geometry": { "type": "LineString", "coordinates": [ [ -122.749851801, 46.461828798 ], [ -122.751819804, 46.461504795 ], [ -122.753864907, 46.460829794 ], [ -122.758854002, 46.458097897 ], [ -122.7614941, 46.457201898 ] ] } }
]
}
