{
"type": "FeatureCollection",
"name": "tilton_um",
"crs": { "type": "name", "properties": { "name": "urn:ogc:def:crs:OGC:1.3:CRS84" } },
"features": [
{ "type": "Feature", "properties": { "nhdplus_comid": 24249044 }, "geometry": { "type": "LineString", "coordinates": [ [ -122.270502903, 46.568529896 ], [ -122.270464905, 46.567339897 ], [ -122.270929903, 46.566972896 ], [ -122.2711289, 46.566427894 ], [ -122.271463901, 46.566087894 ], [ -122.272959903, 46.5647109 ], [ -122.2741189, 46.563818894 ], [ -122.274614803, 46.562200993 ], [ -122.2750118, 46.561941996 ], [ -122.2756759, 46.561945997 ], [ -122.276735902, 46.562357895 ], [ -122.277330905, 46.562452897 ], [ -122.278063901, 46.562177896 ], [ -122.278888002, 46.561723895 ], [ -122.279750004, 46.561441898 ], [ -122.282039002, 46.561014898 ], [ -122.2826721, 46.560964897 ], [ -122.283465102, 46.561239898 ], [ -122.283992104, 46.561170898 ], [ -122.285052106, 46.560468897 ], [ -122.287868202, 46.559683897 ], [ -122.288272202, 46.559507899 ], [ -122.289859205, 46.5583179 ], [ -122.292178303, 46.557066895 ], [ -122.294002302, 46.556463897 ], [ -122.2943983, 46.556123897 ], [ -122.294726305, 46.555227898 ] ] } },
{ "type": "Feature", "properties": { "nhdplus_comid": 24249046 }, "geometry": { "type": "LineString", "coordinates": [ [ -122.252588801, 46.581316896 ], [ -122.252619706, 46.580911897 ], [ -122.252955705, 46.580518894 ], [ -122.252886705, 46.579447895 ], [ -122.253054701, 46.579195894 ], [ -122.253855705, 46.579084896 ], [ -122.254816703, 46.5787149 ], [ -122.2574948, 46.578310899 ], [ -122.258196801, 46.578031898 ], [ -122.258791804, 46.577638894 ], [ -122.2590288, 46.577390894 ], [ -122.2593868, 46.576666899 ], [ -122.2593868, 46.575998895 ], [ -122.259127803, 46.575105898 ], [ -122.258799702, 46.574465893 ], [ -122.258730702, 46.573869899 ], [ -122.259226702, 46.573045999 ], [ -122.260225706, 46.572504893 ], [ -122.260721706, 46.572317898 ], [ -122.261812702, 46.572271898 ], [ -122.262476802, 46.572389893 ], [ -122.263369806, 46.572866894 ], [ -122.2640028, 46.572843894 ], [ -122.267481901, 46.571775898 ], [ -122.267649904, 46.570040897 ], [ -122.267778903, 46.569849893 ], [ -122.268610902, 46.569261894 ], [ -122.270502903, 46.568529896 ] ] } },
{ "type": "Feature", "properties": { "nhdplus_comid": 24249048 }, "geometry": { "type": "LineString", "coordinates": [ [ -122.245577902, 46.589182794 ], [ -122.246637903, 46.589025795 ], [ -122.2475999, 46.5886098 ], [ -122.248064905, 46.588064797 ], [ -122.248819806, 46.586675897 ], [ -122.249414802, 46.586031899 ], [ -122.251261905, 46.5858908 ], [ -122.252581902, 46.5857528 ], [ -122.253679901, 46.585096799 ], [ -122.2539469, 46.584493794 ], [ -122.2539469, 46.584196799 ], [ -122.253511801, 46.582945898 ], [ -122.253412805, 46.582529895 ], [ -122.2528558, 46.581434898 ], [ -122.252588801, 46.581316896 ] ] } },
{ "type": "Feature", "properties": { "nhdplus_comid": 24249068 }, "geometry": { "type": "LineString", "coordinates": [ [ -122.237459905, 46.596391797 ], [ -122.237955905, 46.596395798 ], [ -122.238650002, 46.596571796 ], [ -122.239116006, 46.596590795 ], [ -122.239818007, 46.596208796 ], [ -122.240343906, 46.594949797 ], [ -122.239809901, 46.5944888 ], [ -122.239809901, 46.594011799 ], [ -122.240839906, 46.592642799 ], [ -122.245508902, 46.589346796 ], [ -122.245577902, 46.589182794 ] ] } },
{ "type": "Feature", "properties": { "nhdplus_comid": 24249070 }, "geometry": { "type": "LineString", "coordinates": [ [ -122.237033002, 46.599657796 ], [ -122.237032905, 46.597070798 ], [ -122.237459905, 46.596391797 ] ] } },
{ "type": "Feature", "properties": { "nhdplus_comid": 24249072 }, "geometry": { "type": "LineString", "coordinates": [ [ -122.234515004, 46.601850696 ], [ -122.235309005, 46.6007137 ], [ -122.235744007, 46.6002758 ], [ -122.236438006, 46.599840797 ], [ -122.237033002, 46.599657796 ] ] } },
{ "type": "Feature", "properties": { "nhdplus_comid": 24249074 }, "geometry": { "type": "LineString", "coordinates": [ [ -122.216548406, 46.622427598 ], [ -122.219470404, 46.621172599 ], [ -122.2211264, 46.620371595 ], [ -122.225207403, 46.617716596 ], [ -122.2266654, 46.616026595 ], [ -122.227428406, 46.614862598 ], [ -122.227786303, 46.613813594 ], [ -122.228953302, 46.612669595 ], [ -122.230472304, 46.610796593 ], [ -122.230868302, 46.609834693 ], [ -122.231135204, 46.608785696 ], [ -122.232066207, 46.606336698 ], [ -122.2321961, 46.605608694 ], [ -122.232562102, 46.604990698 ], [ -122.232890107, 46.604757696 ], [ -122.233951107, 46.604574695 ], [ -122.234218106, 46.603494696 ], [ -122.234248102, 46.602838695 ], [ -122.234447107, 46.6023397 ], [ -122.234515004, 46.601850696 ] ] } },
{ "type": "Feature", "properties": { "nhdplus_comid": 24249076 }, "geometry": { "type": "LineString", "coordinates": [ [ -122.227262005, 46.65687 ], [ -122.226696901, 46.656820096 ], [ -122.223805904, 46.657011099 ], [ -122.222942904, 46.656938098 ], [ -122.221417807, 46.656957097 ], [ -122.220059805, 46.656568095 ], [ -122.218395703, 46.655836098 ], [ -122.217297703, 46.655630097 ], [ -122.214878604, 46.655065194 ], [ -122.214344606, 46.6550202 ], [ -122.213482603, 46.655290194 ], [ -122.212620601, 46.656069197 ], [ -122.212155603, 46.656210199 ], [ -122.212025605, 46.656343199 ], [ -122.211727604, 46.656397194 ], [ -122.211460605, 46.656599194 ], [ -122.210659601, 46.657053195 ], [ -122.209599607, 46.657118194 ], [ -122.209004603, 46.657240197 ], [ -122.2082716, 46.657812193 ], [ -122.207638606, 46.657942198 ], [ -122.206745602, 46.657926194 ], [ -122.204617605, 46.658857197 ], [ -122.2022596, 46.660028197 ], [ -122.200573504, 46.660322197 ], [ -122.198940501, 46.660391197 ], [ -122.1970485, 46.660116196 ], [ -122.196224406, 46.659929194 ], [ -122.195522405, 46.659612194 ], [ -122.195095405, 46.6592042 ], [ -122.194996402, 46.658655196 ], [ -122.195889302, 46.656778298 ], [ -122.196552306, 46.6557943 ], [ -122.1976512, 46.653627299 ], [ -122.198048204, 46.653211296 ], [ -122.198277205, 46.652757294 ], [ -122.1986432, 46.652326293 ], [ -122.199574105, 46.650560297 ], [ -122.202992007, 46.645994395 ], [ -122.203190006, 46.6458534 ], [ -122.204121001, 46.6444804 ], [ -122.204487003, 46.6441864 ], [ -122.205280006, 46.643293396 ], [ -122.205311, 46.643129393 ], [ -122.206706904, 46.641420394 ], [ -122.2077979, 46.639566399 ], [ -122.207797803, 46.638971396 ], [ -122.207637802, 46.638288394 ], [ -122.206508704, 46.636667497 ], [ -122.206401706, 46.636163495 ], [ -122.206637703, 46.635362498 ], [ -122.207164705, 46.634466499 ], [ -122.207927704, 46.633970499 ], [ -122.208530702, 46.633829497 ], [ -122.209155701, 46.633535497 ], [ -122.209788702, 46.6329365 ], [ -122.210017607, 46.631635495 ], [ -122.210452601, 46.631059498 ], [ -122.211146504, 46.629553497 ], [ -122.211574502, 46.628965497 ], [ -122.212146506, 46.6284125 ], [ -122.213336505, 46.627859496 ], [ -122.214427501, 46.626978494 ], [ -122.215091504, 46.626169495 ], [ -122.215648502, 46.624841593 ], [ -122.2159914, 46.623506598 ], [ -122.2164184, 46.622823596 ], [ -122.216548406, 46.622427598 ] ] } }
]
}
