{
"type": "FeatureCollection",
"name": "toutle_um",
"crs": { "type": "name", "properties": { "name": "urn:ogc:def:crs:OGC:1.3:CRS84" } },
"features": [
{ "type": "Feature", "properties": { "nhdplus_comid": 24248524 }, "geometry": { "type": "LineString", "coordinates": [ [ -122.833469704, 46.331714995 ], [ -122.835704803, 46.3315439 ], [ -122.838054806, 46.3320629 ], [ -122.839450903, 46.3329129 ], [ -122.840558, 46.334312797 ], [ -122.841626003, 46.334667794 ], [ -122.846142106, 46.334583797 ], [ -122.851193205, 46.335045695 ], [ -122.852314301, 46.3352587 ], [ -122.853222303, 46.335522696 ], [ -122.855618402, 46.336296596 ] ] } },
{ "type": "Feature", "properties": { "nhdplus_comid": 24248526 }, "geometry": { "type": "LineString", "coordinates": [ [ -122.831630707, 46.332813993 ], [ -122.833469704, 46.331714995 ] ] } },
{ "type": "Feature", "properties": { "nhdplus_comid": 24248528 }, "geometry": { "type": "LineString", "coordinates": [ [ -122.815784603, 46.347267799 ], [ -122.816646606, 46.346783794 ], [ -122.818347603, 46.345943794 ], [ -122.818492606, 46.345234796 ], [ -122.817760602, 46.343807898 ], [ -122.817554601, 46.343300894 ], [ -122.818897605, 46.341457896 ], [ -122.819889605, 46.340595894 ], [ -122.823696606, 46.3391729 ], [ -122.8273357, 46.336716898 ], [ -122.829624705, 46.335235894 ], [ -122.830760702, 46.334110893 ], [ -122.831630707, 46.332813993 ] ] } },
{ "type": "Feature", "properties": { "nhdplus_comid": 24248530 }, "geometry": { "type": "LineString", "coordinates": [ [ -122.805606402, 46.351086795 ], [ -122.805988401, 46.351192795 ], [ -122.806598403, 46.351360798 ], [ -122.807376504, 46.351398796 ], [ -122.808650501, 46.351181798 ], [ -122.8100015, 46.351044796 ], [ -122.811054505, 46.350769795 ], [ -122.812358603, 46.3499268 ], [ -122.814617604, 46.347797796 ], [ -122.815784603, 46.347267799 ] ] } },
{ "type": "Feature", "properties": { "nhdplus_comid": 24248532 }, "geometry": { "type": "LineString", "coordinates": [ [ -122.7893712, 46.360481799 ], [ -122.792232201, 46.360802799 ], [ -122.794376306, 46.360832699 ], [ -122.795764305, 46.360763699 ], [ -122.7971154, 46.360576697 ], [ -122.797679402, 46.360397696 ], [ -122.798046403, 46.360073693 ], [ -122.798046403, 46.359615698 ], [ -122.797183305, 46.358616799 ], [ -122.796916306, 46.357975796 ], [ -122.796985306, 46.357101798 ], [ -122.797847301, 46.356022798 ], [ -122.798671305, 46.355476797 ], [ -122.802135304, 46.351890899 ], [ -122.802898303, 46.351227894 ], [ -122.803989403, 46.350857899 ], [ -122.804973401, 46.350860894 ], [ -122.805606402, 46.351086795 ] ] } },
{ "type": "Feature", "properties": { "nhdplus_comid": 24248534 }, "geometry": { "type": "LineString", "coordinates": [ [ -122.7846791, 46.365589693 ], [ -122.785877101, 46.362011798 ], [ -122.786624104, 46.361168794 ], [ -122.787525102, 46.360489793 ], [ -122.789104104, 46.360107794 ], [ -122.7893712, 46.360481799 ] ] } },
{ "type": "Feature", "properties": { "nhdplus_comid": 24248536 }, "geometry": { "type": "LineString", "coordinates": [ [ -122.7601045, 46.366402999 ], [ -122.760157503, 46.367531896 ], [ -122.760722503, 46.368709899 ], [ -122.760592602, 46.371071897 ], [ -122.7611726, 46.372337796 ], [ -122.762278602, 46.372951798 ], [ -122.763842702, 46.372482799 ], [ -122.765635706, 46.372696795 ], [ -122.766840801, 46.373127699 ], [ -122.768221803, 46.373894699 ], [ -122.769106902, 46.374698699 ], [ -122.7701829, 46.375141695 ], [ -122.771578901, 46.375210598 ], [ -122.772373006, 46.374626696 ], [ -122.773013905, 46.373096697 ], [ -122.773959905, 46.3718917 ], [ -122.774997003, 46.371288694 ], [ -122.778209001, 46.370087698 ], [ -122.780399106, 46.368790694 ], [ -122.782962106, 46.366676696 ], [ -122.7846791, 46.365589693 ] ] } },
{ "type": "Feature", "properties": { "nhdplus_comid": 24248538 }, "geometry": { "type": "LineString", "coordinates": [ [ -122.726411305, 46.331735499 ], [ -122.726175301, 46.3326234 ], [ -122.724840306, 46.334554397 ], [ -122.724862404, 46.335511394 ], [ -122.726411402, 46.336526394 ], [ -122.728242502, 46.338567398 ], [ -122.729265504, 46.3394484 ], [ -122.729661502, 46.339593396 ], [ -122.731271505, 46.339387394 ], [ -122.7321795, 46.339578398 ], [ -122.735483602, 46.342118397 ], [ -122.7374667, 46.343537398 ], [ -122.738420703, 46.343987398 ], [ -122.739663705, 46.343892395 ], [ -122.742181703, 46.343095496 ], [ -122.743799701, 46.342973493 ], [ -122.7448368, 46.343156494 ], [ -122.747171804, 46.345158495 ], [ -122.747690804, 46.3460785 ], [ -122.747606903, 46.348699398 ], [ -122.748552904, 46.350716397 ], [ -122.749285005, 46.351361394 ], [ -122.751284003, 46.352078393 ], [ -122.751994006, 46.352551393 ], [ -122.752352007, 46.353219293 ], [ -122.7532681, 46.355069295 ], [ -122.753336102, 46.356282294 ], [ -122.750689104, 46.357877195 ], [ -122.750430107, 46.358483195 ], [ -122.750498101, 46.359025195 ], [ -122.751505107, 46.359822199 ], [ -122.752840206, 46.360330194 ], [ -122.757449307, 46.3615501 ], [ -122.759287402, 46.362019099 ], [ -122.760142401, 46.362652995 ], [ -122.760844506, 46.364693999 ], [ -122.760355502, 46.365600996 ], [ -122.7601045, 46.366402999 ] ] } },
{ "type": "Feature", "properties": { "nhdplus_comid": 24248558 }, "geometry": { "type": "LineString", "coordinates": [ [ -122.717019103, 46.328084394 ], [ -122.717615105, 46.327866398 ], [ -122.720430203, 46.327371493 ], [ -122.722551204, 46.328015499 ], [ -122.723733202, 46.329148494 ], [ -122.725625306, 46.3307475 ], [ -122.726411305, 46.331735499 ] ] } },
{ "type": "Feature", "properties": { "nhdplus_comid": 24248632 }, "geometry": { "type": "LineString", "coordinates": [ [ -122.709710203, 46.336499095 ], [ -122.711801104, 46.334142193 ], [ -122.712617204, 46.333730198 ], [ -122.714349203, 46.333512194 ], [ -122.716249205, 46.332761295 ], [ -122.717080206, 46.331654295 ], [ -122.716714107, 46.328542396 ], [ -122.717019103, 46.328084394 ] ] } },
{ "type": "Feature", "properties": { "nhdplus_comid": 24248634 }, "geometry": { "type": "LineString", "coordinates": [ [ -122.709154204, 46.337582096 ], [ -122.709710203, 46.336499095 ] ] } },
{ "type": "Feature", "properties": { "nhdplus_comid": 24248636 }, "geometry": { "type": "LineString", "coordinates": [ [ -122.694696203, 46.351230599 ], [ -122.695688203, 46.351177596 ], [ -122.6968472, 46.350956693 ], [ -122.698755205, 46.350288697 ], [ -122.700441204, 46.349033698 ], [ -122.701333307, 46.348801799 ], [ -122.703546301, 46.3485118 ], [ -122.704530306, 46.348141797 ], [ -122.705064304, 46.347702794 ], [ -122.705789305, 46.346680894 ], [ -122.706216305, 46.345699899 ], [ -122.707208306, 46.344692893 ], [ -122.707635306, 46.343983896 ], [ -122.708200201, 46.341671996 ], [ -122.708230205, 46.341095999 ], [ -122.708719201, 46.339432999 ], [ -122.708787203, 46.338838093 ], [ -122.709154204, 46.337582096 ] ] } },
{ "type": "Feature", "properties": { "nhdplus_comid": 24248638 }, "geometry": { "type": "LineString", "coordinates": [ [ -122.689348102, 46.350197598 ], [ -122.691896103, 46.349441595 ], [ -122.692781106, 46.349441595 ], [ -122.693246201, 46.349605598 ], [ -122.693643205, 46.350067593 ], [ -122.693742201, 46.350704595 ], [ -122.694169201, 46.351112597 ], [ -122.694696203, 46.351230599 ] ] } },
{ "type": "Feature", "properties": { "nhdplus_comid": 24248640 }, "geometry": { "type": "LineString", "coordinates": [ [ -122.688096106, 46.352939494 ], [ -122.688363105, 46.352878496 ], [ -122.688791104, 46.352573499 ], [ -122.689088106, 46.352096498 ], [ -122.689149104, 46.351726495 ], [ -122.688920103, 46.351295494 ], [ -122.688920103, 46.350731596 ], [ -122.689348102, 46.350197598 ] ] } },
{ "type": "Feature", "properties": { "nhdplus_comid": 24248642 }, "geometry": { "type": "LineString", "coordinates": [ [ -122.673967004, 46.355526298 ], [ -122.674234003, 46.355522297 ], [ -122.675752006, 46.355156295 ], [ -122.676706001, 46.355141297 ], [ -122.678422004, 46.3556403 ], [ -122.679117106, 46.356071293 ], [ -122.679742105, 46.356186293 ], [ -122.680337101, 46.356186293 ], [ -122.6815961, 46.356029399 ], [ -122.682222106, 46.355823398 ], [ -122.683076106, 46.355232395 ], [ -122.683740102, 46.354980394 ], [ -122.685090102, 46.354866393 ], [ -122.685853101, 46.354652397 ], [ -122.687997103, 46.353126496 ], [ -122.688096106, 46.352939494 ] ] } },
{ "type": "Feature", "properties": { "nhdplus_comid": 24248644 }, "geometry": { "type": "LineString", "coordinates": [ [ -122.668648906, 46.355800197 ], [ -122.668846905, 46.356098197 ], [ -122.670495003, 46.357265197 ], [ -122.671258003, 46.357418194 ], [ -122.671525002, 46.357349195 ], [ -122.672418006, 46.356846198 ], [ -122.673738003, 46.355869293 ], [ -122.673967004, 46.355526298 ] ] } },
{ "type": "Feature", "properties": { "nhdplus_comid": 24248646 }, "geometry": { "type": "LineString", "coordinates": [ [ -122.664391801, 46.354431197 ], [ -122.665581904, 46.354633197 ], [ -122.667725906, 46.355385199 ], [ -122.668648906, 46.355800197 ] ] } },
{ "type": "Feature", "properties": { "nhdplus_comid": 24248648 }, "geometry": { "type": "LineString", "coordinates": [ [ -122.635559604, 46.364936598 ], [ -122.635987602, 46.364997596 ], [ -122.6365216, 46.365226597 ], [ -122.637116604, 46.365271598 ], [ -122.637772605, 46.3650207 ], [ -122.638863705, 46.364295699 ], [ -122.639923602, 46.363280699 ], [ -122.640183605, 46.362807699 ], [ -122.640251607, 46.362391695 ], [ -122.6410456, 46.361132696 ], [ -122.6411146, 46.360431798 ], [ -122.640816607, 46.359854795 ], [ -122.640747607, 46.359172799 ], [ -122.641182601, 46.358695798 ], [ -122.642899603, 46.3578448 ], [ -122.643624604, 46.357318796 ], [ -122.644120604, 46.356845796 ], [ -122.644585602, 46.356204897 ], [ -122.644783601, 46.355513893 ], [ -122.645279601, 46.3551099 ], [ -122.645867601, 46.354876898 ], [ -122.6464696, 46.354789898 ], [ -122.647156604, 46.354827896 ], [ -122.648773603, 46.355334893 ], [ -122.649468601, 46.355384894 ], [ -122.650193706, 46.355269894 ], [ -122.651482701, 46.354811996 ], [ -122.653069705, 46.354378 ], [ -122.654816702, 46.354193993 ], [ -122.656502701, 46.353653096 ], [ -122.657326706, 46.353626095 ], [ -122.658943705, 46.353947096 ], [ -122.662216805, 46.354263097 ], [ -122.663040802, 46.354442097 ], [ -122.664391801, 46.354431197 ] ] } },
{ "type": "Feature", "properties": { "nhdplus_comid": 24248650 }, "geometry": { "type": "LineString", "coordinates": [ [ -122.615639605, 46.377440199 ], [ -122.615837604, 46.3775132 ], [ -122.6167996, 46.378085196 ], [ -122.618050605, 46.378035299 ], [ -122.620659605, 46.377662294 ], [ -122.622475602, 46.376975298 ], [ -122.624955706, 46.375518396 ], [ -122.626091704, 46.3748274 ], [ -122.626931705, 46.374259397 ], [ -122.627495706, 46.373545393 ], [ -122.628357604, 46.371299498 ], [ -122.628189601, 46.370253496 ], [ -122.627991602, 46.369632497 ], [ -122.627999604, 46.368975498 ], [ -122.628723606, 46.367762499 ], [ -122.629387505, 46.364398599 ], [ -122.630013503, 46.363734595 ], [ -122.630677506, 46.363471597 ], [ -122.631668501, 46.363417596 ], [ -122.632523604, 46.363627598 ], [ -122.635063604, 46.364589594 ], [ -122.635559604, 46.364936598 ] ] } },
{ "type": "Feature", "properties": { "nhdplus_comid": 24248652 }, "geometry": { "type": "LineString", "coordinates": [ [ -122.595825307, 46.377039999 ], [ -122.5961923, 46.377149999 ], [ -122.597481303, 46.377996996 ], [ -122.598664403, 46.378633998 ], [ -122.600479402, 46.379369996 ], [ -122.601609401, 46.380030096 ], [ -122.602166407, 46.380937994 ], [ -122.602471404, 46.381174996 ], [ -122.602860503, 46.381266095 ], [ -122.6035925, 46.3810791 ], [ -122.604546502, 46.380580097 ], [ -122.605110504, 46.379710093 ], [ -122.605698407, 46.378154099 ], [ -122.6069194, 46.377169095 ], [ -122.608078405, 46.376597196 ], [ -122.608902507, 46.3763652 ], [ -122.609993502, 46.376208194 ], [ -122.612137504, 46.376277193 ], [ -122.613495506, 46.376437195 ], [ -122.614518501, 46.376799196 ], [ -122.615639605, 46.377440199 ] ] } },
{ "type": "Feature", "properties": { "nhdplus_comid": 24248654 }, "geometry": { "type": "LineString", "coordinates": [ [ -122.582909003, 46.372392893 ], [ -122.584229, 46.3726869 ], [ -122.584923103, 46.372690894 ], [ -122.585419104, 46.372572899 ], [ -122.586045101, 46.371908896 ], [ -122.585877001, 46.371179894 ], [ -122.585450001, 46.3707029 ], [ -122.584397003, 46.369745895 ], [ -122.58416, 46.369417898 ], [ -122.58416, 46.368761897 ], [ -122.584694006, 46.368276998 ], [ -122.585648, 46.367868997 ], [ -122.586602002, 46.367132999 ], [ -122.587166004, 46.366449997 ], [ -122.587235004, 46.366171993 ], [ -122.587464005, 46.365900993 ], [ -122.588455006, 46.365213998 ], [ -122.588852003, 46.365034997 ], [ -122.590172, 46.3647331 ], [ -122.591919005, 46.3648021 ], [ -122.593407005, 46.3650961 ], [ -122.593972102, 46.365512095 ], [ -122.594429106, 46.366351098 ], [ -122.594696105, 46.366927095 ], [ -122.595063105, 46.3693491 ], [ -122.594925202, 46.371661097 ], [ -122.594437204, 46.373029999 ], [ -122.594300203, 46.373903997 ], [ -122.594368204, 46.374838993 ], [ -122.594567202, 46.375433996 ], [ -122.595002301, 46.375963993 ], [ -122.595825307, 46.377039999 ] ] } },
{ "type": "Feature", "properties": { "nhdplus_comid": 24248656 }, "geometry": { "type": "LineString", "coordinates": [ [ -122.559890606, 46.369119599 ], [ -122.561279707, 46.370149694 ], [ -122.561805703, 46.370153695 ], [ -122.562301703, 46.369993694 ], [ -122.564185701, 46.369039699 ], [ -122.5660327, 46.368620694 ], [ -122.567390703, 46.368646696 ], [ -122.568771802, 46.368849799 ], [ -122.569366805, 46.369013794 ], [ -122.570030801, 46.369402796 ], [ -122.570983805, 46.370359793 ], [ -122.571578801, 46.370794795 ], [ -122.5729369, 46.371500798 ], [ -122.573531903, 46.371729799 ], [ -122.575050905, 46.3719128 ], [ -122.577194907, 46.372030795 ], [ -122.578812003, 46.371908896 ], [ -122.579933003, 46.371706896 ], [ -122.581719004, 46.371820897 ], [ -122.582909003, 46.372392893 ] ] } },
{ "type": "Feature", "properties": { "nhdplus_comid": 24248658 }, "geometry": { "type": "LineString", "coordinates": [ [ -122.558372602, 46.367018595 ], [ -122.558639601, 46.367117599 ], [ -122.559562601, 46.368551597 ], [ -122.559860602, 46.368875593 ], [ -122.559890606, 46.369119599 ] ] } },
{ "type": "Feature", "properties": { "nhdplus_comid": 24248660 }, "geometry": { "type": "LineString", "coordinates": [ [ -122.547874302, 46.358812496 ], [ -122.548171304, 46.358885594 ], [ -122.5497583, 46.360189594 ], [ -122.550483406, 46.361814596 ], [ -122.550781406, 46.362291597 ], [ -122.551833406, 46.363275595 ], [ -122.552596502, 46.363756597 ], [ -122.553985506, 46.364328593 ], [ -122.556754507, 46.365354598 ], [ -122.557746604, 46.365946598 ], [ -122.558074601, 46.3662396 ], [ -122.558372602, 46.366747595 ], [ -122.558372602, 46.367018595 ] ] } },
{ "type": "Feature", "properties": { "nhdplus_comid": 24248662 }, "geometry": { "type": "LineString", "coordinates": [ [ -122.545303106, 46.350198597 ], [ -122.546325102, 46.350534596 ], [ -122.546851106, 46.3508626 ], [ -122.5475462, 46.351541594 ], [ -122.548011206, 46.351839595 ], [ -122.548301205, 46.351930596 ], [ -122.5500862, 46.352091596 ], [ -122.550514206, 46.3522816 ], [ -122.551276207, 46.352808595 ], [ -122.551376201, 46.353033595 ], [ -122.551307201, 46.353491597 ], [ -122.550849304, 46.354040593 ], [ -122.548637204, 46.354219593 ], [ -122.547843203, 46.354521595 ], [ -122.546455204, 46.355451494 ], [ -122.5459892, 46.355932496 ], [ -122.545593202, 46.356687494 ], [ -122.5456312, 46.357374497 ], [ -122.546188302, 46.357763499 ], [ -122.547546305, 46.358381495 ], [ -122.547874302, 46.358812496 ] ] } },
{ "type": "Feature", "properties": { "nhdplus_comid": 24248676 }, "geometry": { "type": "LineString", "coordinates": [ [ -122.530623704, 46.337641396 ], [ -122.531180702, 46.337732397 ], [ -122.531874701, 46.338167399 ], [ -122.532240704, 46.338510394 ], [ -122.532400705, 46.338789396 ], [ -122.532400705, 46.339426398 ], [ -122.5312417, 46.3410514 ], [ -122.530981705, 46.341528393 ], [ -122.530981801, 46.342214398 ], [ -122.5314098, 46.342737399 ], [ -122.5318368, 46.343061395 ], [ -122.533919804, 46.343656398 ], [ -122.534773901, 46.344251394 ], [ -122.535399906, 46.344938397 ], [ -122.5359639, 46.345670395 ], [ -122.536558904, 46.3469254 ], [ -122.537017003, 46.348070398 ], [ -122.537811004, 46.348821498 ], [ -122.538070001, 46.348894499 ], [ -122.539855003, 46.348665498 ], [ -122.540580004, 46.348776497 ], [ -122.542793103, 46.349874496 ], [ -122.543258101, 46.349993497 ], [ -122.545303106, 46.350198597 ] ] } },
{ "type": "Feature", "properties": { "nhdplus_comid": 24248678 }, "geometry": { "type": "LineString", "coordinates": [ [ -122.515265301, 46.329416193 ], [ -122.515379302, 46.329797193 ], [ -122.515875302, 46.330366194 ], [ -122.5164323, 46.330732197 ], [ -122.517355405, 46.330732197 ], [ -122.518378407, 46.330370195 ], [ -122.518774405, 46.330297194 ], [ -122.519339405, 46.330435194 ], [ -122.520064406, 46.330755197 ], [ -122.521315403, 46.331671298 ], [ -122.522772506, 46.332243294 ], [ -122.523192503, 46.332700297 ], [ -122.523756504, 46.333597295 ], [ -122.526037604, 46.335336298 ], [ -122.5279456, 46.336431399 ], [ -122.530623704, 46.337641396 ] ] } },
{ "type": "Feature", "properties": { "nhdplus_comid": 24248680 }, "geometry": { "type": "LineString", "coordinates": [ [ -122.504797004, 46.320306994 ], [ -122.505057007, 46.320378996 ], [ -122.505621001, 46.320901997 ], [ -122.506079003, 46.321291 ], [ -122.506674007, 46.321534999 ], [ -122.507467106, 46.3217481 ], [ -122.509413101, 46.323068097 ], [ -122.510206103, 46.323755093 ], [ -122.510435104, 46.324217096 ], [ -122.5108632, 46.324579097 ], [ -122.511755206, 46.324953094 ], [ -122.512739204, 46.325792097 ], [ -122.512808204, 46.326002099 ], [ -122.5132052, 46.326372094 ], [ -122.514197201, 46.326277196 ], [ -122.514624201, 46.326528199 ], [ -122.514754303, 46.3267802 ], [ -122.514624305, 46.327780195 ], [ -122.514715306, 46.328150198 ], [ -122.515349306, 46.329015195 ], [ -122.515379302, 46.329351194 ], [ -122.515265301, 46.329416193 ] ] } },
{ "type": "Feature", "properties": { "nhdplus_comid": 24248682 }, "geometry": { "type": "LineString", "coordinates": [ [ -122.493116602, 46.313672997 ], [ -122.494931601, 46.313786998 ], [ -122.495259605, 46.313882999 ], [ -122.496053703, 46.314522997 ], [ -122.498265803, 46.314866997 ], [ -122.498731807, 46.315137997 ], [ -122.499288805, 46.315663993 ], [ -122.500211805, 46.316025995 ], [ -122.501226902, 46.316254996 ], [ -122.502492905, 46.316415995 ], [ -122.503247902, 46.316716999 ], [ -122.503942907, 46.317284994 ], [ -122.504270904, 46.317879997 ], [ -122.504469, 46.318726994 ], [ -122.504629001, 46.318890996 ], [ -122.504629001, 46.319112994 ], [ -122.504797004, 46.320306994 ] ] } },
{ "type": "Feature", "properties": { "nhdplus_comid": 24248684 }, "geometry": { "type": "LineString", "coordinates": [ [ -122.482000306, 46.314596094 ], [ -122.483220302, 46.314783096 ], [ -122.483686306, 46.314981095 ], [ -122.484311305, 46.315031096 ], [ -122.484838307, 46.314691097 ], [ -122.485730402, 46.313585095 ], [ -122.486417405, 46.313204095 ], [ -122.488828406, 46.312760994 ], [ -122.490804501, 46.312943995 ], [ -122.492261507, 46.313496999 ], [ -122.493116602, 46.313672997 ] ] } },
{ "type": "Feature", "properties": { "nhdplus_comid": 24248686 }, "geometry": { "type": "LineString", "coordinates": [ [ -122.479161203, 46.314142093 ], [ -122.480222203, 46.314119093 ], [ -122.481374204, 46.314295098 ], [ -122.482000306, 46.314596094 ] ] } },
{ "type": "Feature", "properties": { "nhdplus_comid": 24248688 }, "geometry": { "type": "LineString", "coordinates": [ [ -122.475568101, 46.313963093 ], [ -122.475652106, 46.314039096 ], [ -122.475965105, 46.3141151 ], [ -122.4773461, 46.313936099 ], [ -122.478772104, 46.314050093 ], [ -122.479161203, 46.314142093 ] ] } },
{ "type": "Feature", "properties": { "nhdplus_comid": 24248690 }, "geometry": { "type": "LineString", "coordinates": [ [ -122.470417902, 46.312113196 ], [ -122.4704559, 46.312410198 ], [ -122.470913902, 46.312978193 ], [ -122.471645907, 46.313577197 ], [ -122.472263902, 46.313848197 ], [ -122.473523006, 46.313757196 ], [ -122.475568101, 46.313963093 ] ] } },
{ "type": "Feature", "properties": { "nhdplus_comid": 24248692 }, "geometry": { "type": "LineString", "coordinates": [ [ -122.445942007, 46.306722298 ], [ -122.447064102, 46.306925297 ], [ -122.447628103, 46.307199299 ], [ -122.447926104, 46.3075433 ], [ -122.4484521, 46.307859294 ], [ -122.449436203, 46.308271296 ], [ -122.449970201, 46.308660299 ], [ -122.450398207, 46.309236296 ], [ -122.450657204, 46.309896298 ], [ -122.451389305, 46.3102853 ], [ -122.451878302, 46.3103773 ], [ -122.452572301, 46.310327299 ], [ -122.453327306, 46.310079299 ], [ -122.454456307, 46.309572294 ], [ -122.455509402, 46.309324294 ], [ -122.456135407, 46.309374295 ], [ -122.457523406, 46.309786297 ], [ -122.459568501, 46.310056195 ], [ -122.459995501, 46.310262196 ], [ -122.460720606, 46.311220199 ], [ -122.461247601, 46.311521195 ], [ -122.4618726, 46.311468199 ], [ -122.4623686, 46.311266199 ], [ -122.462635607, 46.310926199 ], [ -122.4629336, 46.310716197 ], [ -122.463459603, 46.310606197 ], [ -122.464016601, 46.310652196 ], [ -122.464710705, 46.310854197 ], [ -122.465870701, 46.311586194 ], [ -122.466457702, 46.3117432 ], [ -122.467350803, 46.311678194 ], [ -122.468342803, 46.311445199 ], [ -122.469036803, 46.3114492 ], [ -122.469792806, 46.311723195 ], [ -122.470417902, 46.312113196 ] ] } },
{ "type": "Feature", "properties": { "nhdplus_comid": 24248694 }, "geometry": { "type": "LineString", "coordinates": [ [ -122.442775905, 46.305616394 ], [ -122.443569005, 46.305551395 ], [ -122.444882005, 46.3059403 ], [ -122.445912004, 46.306513295 ], [ -122.445942007, 46.306722298 ] ] } },
{ "type": "Feature", "properties": { "nhdplus_comid": 24248696 }, "geometry": { "type": "LineString", "coordinates": [ [ -122.440959901, 46.304250397 ], [ -122.441257901, 46.304727398 ], [ -122.442020901, 46.3052544 ], [ -122.442775905, 46.305616394 ] ] } },
{ "type": "Feature", "properties": { "nhdplus_comid": 24248698 }, "geometry": { "type": "LineString", "coordinates": [ [ -122.4390148, 46.302583396 ], [ -122.439143807, 46.302881397 ], [ -122.439776801, 46.3034954 ], [ -122.440661803, 46.304159395 ], [ -122.440959901, 46.304250397 ] ] } },
{ "type": "Feature", "properties": { "nhdplus_comid": 24248700 }, "geometry": { "type": "LineString", "coordinates": [ [ -122.434070602, 46.3006154 ], [ -122.436145701, 46.300958395 ], [ -122.437038705, 46.301206395 ], [ -122.438060701, 46.302030399 ], [ -122.4390148, 46.302583396 ] ] } },
{ "type": "Feature", "properties": { "nhdplus_comid": 24248702 }, "geometry": { "type": "LineString", "coordinates": [ [ -122.427173406, 46.298971497 ], [ -122.429118402, 46.299150497 ], [ -122.434070602, 46.3006154 ] ] } },
{ "type": "Feature", "properties": { "nhdplus_comid": 24248704 }, "geometry": { "type": "LineString", "coordinates": [ [ -122.383286901, 46.286402799 ], [ -122.3835539, 46.286539793 ], [ -122.384347901, 46.286470696 ], [ -122.384904906, 46.286653697 ], [ -122.386553004, 46.287779696 ], [ -122.387644, 46.288324699 ], [ -122.388300106, 46.288465694 ], [ -122.389223106, 46.288488694 ], [ -122.390078105, 46.2883287 ], [ -122.390474103, 46.288511693 ], [ -122.390673101, 46.288767695 ], [ -122.3914662, 46.289381698 ], [ -122.391863205, 46.289446697 ], [ -122.393580206, 46.289472699 ], [ -122.394564301, 46.289675698 ], [ -122.395159304, 46.289858699 ], [ -122.395716302, 46.290251695 ], [ -122.396082304, 46.290640697 ], [ -122.3968684, 46.291101694 ], [ -122.3978604, 46.291349694 ], [ -122.399378404, 46.291284598 ], [ -122.4000725, 46.291578598 ], [ -122.400560506, 46.292146593 ], [ -122.401094504, 46.292475596 ], [ -122.4020795, 46.292810597 ], [ -122.402872607, 46.292925596 ], [ -122.404459603, 46.292680599 ], [ -122.404947601, 46.292700596 ], [ -122.407984704, 46.2932496 ], [ -122.408640705, 46.293459594 ], [ -122.409700803, 46.294050597 ], [ -122.410494804, 46.294306599 ], [ -122.412142806, 46.294325598 ], [ -122.413126901, 46.294508599 ], [ -122.413752906, 46.294763595 ], [ -122.414278902, 46.295404598 ], [ -122.414943002, 46.296747498 ], [ -122.415629007, 46.297094494 ], [ -122.4177121, 46.297113493 ], [ -122.418368101, 46.2972515 ], [ -122.419231102, 46.297895499 ], [ -122.4202151, 46.298441499 ], [ -122.420940205, 46.298696496 ], [ -122.423282206, 46.298647493 ], [ -122.424571306, 46.298486494 ], [ -122.425654307, 46.298513494 ], [ -122.426578306, 46.298715495 ], [ -122.427173406, 46.298971497 ] ] } },
{ "type": "Feature", "properties": { "nhdplus_comid": 24248706 }, "geometry": { "type": "LineString", "coordinates": [ [ -122.369134404, 46.277693793 ], [ -122.3691644, 46.277929798 ], [ -122.370255403, 46.278608799 ], [ -122.3706524, 46.278970793 ], [ -122.371110506, 46.280145794 ], [ -122.371346503, 46.281011797 ], [ -122.371575505, 46.281324796 ], [ -122.372003503, 46.281626798 ], [ -122.373887606, 46.2816718 ], [ -122.374284603, 46.281763799 ], [ -122.374772601, 46.282263793 ], [ -122.375298604, 46.282633796 ], [ -122.376214601, 46.282881796 ], [ -122.378411703, 46.283388793 ], [ -122.380685806, 46.284437798 ], [ -122.382035807, 46.285307795 ], [ -122.3824329, 46.286039799 ], [ -122.382897906, 46.286340795 ], [ -122.383286901, 46.286402799 ] ] } },
{ "type": "Feature", "properties": { "nhdplus_comid": 24248708 }, "geometry": { "type": "LineString", "coordinates": [ [ -122.368440405, 46.277654797 ], [ -122.369134404, 46.277693793 ] ] } },
{ "type": "Feature", "properties": { "nhdplus_comid": 24248710 }, "geometry": { "type": "LineString", "coordinates": [ [ -122.347572803, 46.278761998 ], [ -122.347870804, 46.278917998 ], [ -122.348366804, 46.278917998 ], [ -122.348625802, 46.278822996 ], [ -122.349548802, 46.278205 ], [ -122.350143805, 46.278139994 ], [ -122.3521889, 46.2785559 ], [ -122.354730003, 46.278478898 ], [ -122.355058007, 46.278364897 ], [ -122.356080003, 46.2776739 ], [ -122.356507003, 46.2775869 ], [ -122.357362002, 46.277567893 ], [ -122.359406106, 46.278227895 ], [ -122.360169105, 46.278246894 ], [ -122.360955104, 46.277929895 ], [ -122.3616492, 46.277815893 ], [ -122.362206206, 46.2775869 ], [ -122.362901203, 46.277014896 ], [ -122.363397203, 46.276926897 ], [ -122.3637252, 46.277059898 ], [ -122.364419207, 46.277902894 ], [ -122.364984304, 46.278318897 ], [ -122.365670301, 46.278433897 ], [ -122.366464302, 46.278425895 ], [ -122.367715307, 46.278082795 ], [ -122.368440405, 46.277654797 ] ] } },
{ "type": "Feature", "properties": { "nhdplus_comid": 24248712 }, "geometry": { "type": "LineString", "coordinates": [ [ -122.302863501, 46.283126295 ], [ -122.304252602, 46.283400297 ], [ -122.307189703, 46.284411199 ], [ -122.308303706, 46.284591198 ], [ -122.308967702, 46.284503199 ], [ -122.309821703, 46.284110196 ], [ -122.310813807, 46.284018196 ], [ -122.312194802, 46.284297198 ], [ -122.3131558, 46.284293197 ], [ -122.315657906, 46.283931196 ], [ -122.316909902, 46.283858195 ], [ -122.318001002, 46.283953197 ], [ -122.318565004, 46.283858195 ], [ -122.320175007, 46.283355199 ], [ -122.321495101, 46.283156194 ], [ -122.322288103, 46.2829431 ], [ -122.322655104, 46.2826951 ], [ -122.323212102, 46.282492094 ], [ -122.324890204, 46.282283098 ], [ -122.3264772, 46.281783096 ], [ -122.327499203, 46.2811381 ], [ -122.328224204, 46.280494094 ], [ -122.328812204, 46.280410096 ], [ -122.329803303, 46.280818097 ], [ -122.330994301, 46.2811151 ], [ -122.331581302, 46.281134099 ], [ -122.334480405, 46.280108094 ], [ -122.335411407, 46.280043095 ], [ -122.336533502, 46.280173093 ], [ -122.337059505, 46.280134998 ], [ -122.337387502, 46.279989995 ], [ -122.338180505, 46.279146999 ], [ -122.338837504, 46.279035993 ], [ -122.340256602, 46.279287994 ], [ -122.340950601, 46.278940998 ], [ -122.342262603, 46.278875999 ], [ -122.3430866, 46.279058993 ], [ -122.343780704, 46.279082 ], [ -122.344009705, 46.279028997 ], [ -122.344505705, 46.278707996 ], [ -122.3448717, 46.278188996 ], [ -122.3452617, 46.277838998 ], [ -122.345726706, 46.277663 ], [ -122.346252702, 46.27764 ], [ -122.346779704, 46.277822994 ], [ -122.3474738, 46.278482996 ], [ -122.347572803, 46.278761998 ] ] } },
{ "type": "Feature", "properties": { "nhdplus_comid": 24248720 }, "geometry": { "type": "LineString", "coordinates": [ [ -122.301551506, 46.283702299 ], [ -122.302077502, 46.283309296 ], [ -122.302863501, 46.283126295 ] ] } },
{ "type": "Feature", "properties": { "nhdplus_comid": 24248722 }, "geometry": { "type": "LineString", "coordinates": [ [ -122.276426807, 46.283419393 ], [ -122.276754804, 46.283789396 ], [ -122.2784338, 46.284583397 ], [ -122.279425904, 46.285247393 ], [ -122.280119903, 46.285548396 ], [ -122.280973904, 46.2861664 ], [ -122.281401902, 46.2863914 ], [ -122.282096006, 46.2863224 ], [ -122.282454006, 46.286094397 ], [ -122.283149004, 46.285983399 ], [ -122.283973001, 46.286185399 ], [ -122.284995005, 46.286849394 ], [ -122.285590105, 46.286986396 ], [ -122.288817205, 46.286620393 ], [ -122.289611205, 46.286444396 ], [ -122.290107206, 46.286185399 ], [ -122.290671207, 46.286055394 ], [ -122.292121202, 46.285983294 ], [ -122.293006301, 46.285735294 ], [ -122.294555306, 46.284701295 ], [ -122.296439305, 46.284137294 ], [ -122.297133401, 46.283747293 ], [ -122.297629401, 46.283648297 ], [ -122.298941404, 46.283999294 ], [ -122.299666405, 46.284087293 ], [ -122.300628506, 46.2839313 ], [ -122.301154502, 46.283725299 ], [ -122.301551506, 46.283702299 ] ] } },
{ "type": "Feature", "properties": { "nhdplus_comid": 24248724 }, "geometry": { "type": "LineString", "coordinates": [ [ -122.234792307, 46.2653118 ], [ -122.235844307, 46.265216798 ], [ -122.238217406, 46.264720693 ], [ -122.240063503, 46.264487699 ], [ -122.240346506, 46.264499694 ], [ -122.240651503, 46.2645147 ], [ -122.2419715, 46.2649877 ], [ -122.242734604, 46.265101694 ], [ -122.243588604, 46.265151694 ], [ -122.246388704, 46.264739595 ], [ -122.248761803, 46.264647596 ], [ -122.249783807, 46.264777593 ], [ -122.251286902, 46.264827594 ], [ -122.252248906, 46.264666595 ], [ -122.252835907, 46.264708593 ], [ -122.253530003, 46.264937595 ], [ -122.254385002, 46.265376598 ], [ -122.254919, 46.265487596 ], [ -122.256269, 46.266227499 ], [ -122.256628104, 46.266631499 ], [ -122.256788105, 46.267093495 ], [ -122.257185102, 46.267573498 ], [ -122.257582106, 46.267871499 ], [ -122.2580771, 46.268622495 ], [ -122.258467101, 46.269309498 ], [ -122.259291202, 46.270133495 ], [ -122.259954207, 46.2710905 ], [ -122.260084204, 46.271758497 ], [ -122.260809205, 46.272078499 ], [ -122.261167206, 46.272349499 ], [ -122.261495203, 46.2728265 ], [ -122.261831306, 46.273013495 ], [ -122.262945302, 46.273318499 ], [ -122.2639063, 46.274157494 ], [ -122.264105305, 46.274455495 ], [ -122.264135301, 46.274710499 ], [ -122.264364302, 46.275306493 ], [ -122.264494404, 46.275485493 ], [ -122.265982404, 46.276511498 ], [ -122.268354505, 46.277652495 ], [ -122.2703005, 46.278796494 ], [ -122.272634603, 46.280055493 ], [ -122.274580702, 46.281024493 ], [ -122.2756337, 46.2818214 ], [ -122.276197806, 46.282595396 ], [ -122.276426807, 46.283419393 ] ] } },
{ "type": "Feature", "properties": { "nhdplus_comid": 24248726 }, "geometry": { "type": "LineString", "coordinates": [ [ -122.211284406, 46.263125993 ], [ -122.211551405, 46.263305999 ], [ -122.212208405, 46.263419993 ], [ -122.213794507, 46.264041997 ], [ -122.215542607, 46.264357999 ], [ -122.2159006, 46.264571995 ], [ -122.217289604, 46.264858 ], [ -122.218899705, 46.265067995 ], [ -122.220684804, 46.265521899 ], [ -122.223018803, 46.265780896 ], [ -122.226254001, 46.265799895 ], [ -122.226910003, 46.265662894 ], [ -122.227803007, 46.265319899 ], [ -122.229710102, 46.265067793 ], [ -122.2303361, 46.264857799 ], [ -122.2307631, 46.264903799 ], [ -122.231786206, 46.265223794 ], [ -122.232381202, 46.265338793 ], [ -122.234792307, 46.2653118 ] ] } },
{ "type": "Feature", "properties": { "nhdplus_comid": 24248728 }, "geometry": { "type": "LineString", "coordinates": [ [ -122.188151501, 46.2602273 ], [ -122.189173505, 46.2605673 ], [ -122.1905246, 46.261295296 ], [ -122.1932557, 46.262146294 ], [ -122.194117703, 46.262256198 ], [ -122.195002802, 46.2625352 ], [ -122.195994802, 46.262993194 ], [ -122.197276905, 46.263244197 ], [ -122.200382002, 46.263428196 ], [ -122.204334103, 46.263309099 ], [ -122.207660206, 46.263008095 ], [ -122.211284406, 46.263125993 ] ] } },
{ "type": "Feature", "properties": { "nhdplus_comid": 24248730 }, "geometry": { "type": "LineString", "coordinates": [ [ -122.160593502, 46.266235597 ], [ -122.160661504, 46.266048595 ], [ -122.162279606, 46.264316596 ], [ -122.162874602, 46.263904594 ], [ -122.163461603, 46.263351597 ], [ -122.163995601, 46.262581594 ], [ -122.164026603, 46.262283593 ], [ -122.164224602, 46.261936598 ], [ -122.164652601, 46.261551596 ], [ -122.165178604, 46.261394598 ], [ -122.166528702, 46.261234596 ], [ -122.167749703, 46.261410594 ], [ -122.168840803, 46.261688493 ], [ -122.170221806, 46.262440495 ], [ -122.171175905, 46.262741499 ], [ -122.171640903, 46.262783498 ], [ -122.172067903, 46.262649499 ], [ -122.172327906, 46.262401499 ], [ -122.172495902, 46.262005493 ], [ -122.172624901, 46.261158496 ], [ -122.1728919, 46.261070497 ], [ -122.173945002, 46.261051498 ], [ -122.176219106, 46.261555493 ], [ -122.178332105, 46.261715397 ], [ -122.178660102, 46.261852399 ], [ -122.180339202, 46.263088398 ], [ -122.180834204, 46.263244398 ], [ -122.182154305, 46.263264395 ], [ -122.183406301, 46.263080396 ], [ -122.185748406, 46.262512296 ], [ -122.1862064, 46.262150295 ], [ -122.186274402, 46.260979295 ], [ -122.186404407, 46.260773294 ], [ -122.187030405, 46.260364294 ], [ -122.188151501, 46.2602273 ] ] } },
{ "type": "Feature", "properties": { "nhdplus_comid": 24248732 }, "geometry": { "type": "LineString", "coordinates": [ [ -122.155573405, 46.270111695 ], [ -122.160593502, 46.266235597 ] ] } },
{ "type": "Feature", "properties": { "nhdplus_comid": 24248734 }, "geometry": { "type": "LineString", "coordinates": [ [ -122.139077701, 46.269195899 ], [ -122.146829002, 46.269298799 ], [ -122.155573405, 46.270111695 ] ] } },
{ "type": "Feature", "properties": { "nhdplus_comid": 24248736 }, "geometry": { "type": "LineString", "coordinates": [ [ -122.124940403, 46.282467999 ], [ -122.126206405, 46.280792996 ], [ -122.139077701, 46.269195899 ] ] } },
{ "type": "Feature", "properties": { "nhdplus_comid": 24248738 }, "geometry": { "type": "LineString", "coordinates": [ [ -122.118310206, 46.291554093 ], [ -122.124940403, 46.282467999 ] ] } },
{ "type": "Feature", "properties": { "nhdplus_comid": 24249986 }, "geometry": { "type": "LineString", "coordinates": [ [ -122.113320306, 46.317017093 ], [ -122.112794302, 46.315942094 ], [ -122.111542203, 46.3151941 ], [ -122.1112452, 46.314870097 ], [ -122.111077204, 46.314439096 ], [ -122.110711202, 46.313958094 ], [ -122.110512204, 46.313180096 ], [ -122.1100161, 46.312177099 ], [ -122.109490104, 46.310555093 ], [ -122.109521106, 46.309617095 ], [ -122.110116102, 46.3074461 ], [ -122.111039102, 46.3061231 ], [ -122.111397102, 46.305089094 ], [ -122.111924104, 46.304398097 ], [ -122.112389103, 46.3033951 ], [ -122.112351105, 46.302457094 ], [ -122.111924104, 46.301412098 ], [ -122.1119541, 46.300675094 ], [ -122.113106102, 46.296380095 ], [ -122.113762103, 46.295323096 ], [ -122.113793105, 46.293885097 ], [ -122.114029102, 46.293588094 ], [ -122.114487104, 46.293313093 ], [ -122.115548104, 46.292909093 ], [ -122.115975104, 46.292264096 ], [ -122.116273105, 46.292031094 ], [ -122.118310206, 46.291554093 ] ] } }
]
}
